{"type":"FeatureCollection","features":[{"type":"Feature","properties":{"day":2,"name":"[FM] La Loire à vélo ❤️👩‍❤️‍👨🚴"},"geometry":{"type":"LineString","coordinates":[[0.51129,47.34096],[0.51139,47.34094],[0.5114,47.34097],[0.51046,47.34399],[0.51036,47.3441],[0.51011,47.34415],[0.50919,47.34419],[0.50818,47.3443],[0.50745,47.34451],[0.50592,47.34448],[0.505,47.34442],[0.50453,47.34433],[0.50277,47.34387],[0.4992,47.34279],[0.49635,47.34127],[0.49467,47.34075],[0.49221,47.33973],[0.49164,47.33934],[0.49101,47.33883],[0.49058,47.33861],[0.49009,47.3382],[0.48944,47.3382],[0.48888,47.33808],[0.48825,47.3377],[0.48804,47.33746],[0.48658,47.33794],[0.48555,47.33819],[0.4849,47.33845],[0.48185,47.34083],[0.48114,47.3412],[0.48047,47.34169],[0.48022,47.34178],[0.47959,47.34187],[0.47888,47.34189],[0.47833,47.34159],[0.47624,47.34009],[0.47611,47.33993],[0.47602,47.33899],[0.47571,47.33854],[0.47547,47.33834],[0.47481,47.33809],[0.47391,47.33736],[0.47271,47.33623],[0.47114,47.33517],[0.46761,47.33236],[0.46661,47.33173],[0.46579,47.33143],[0.4648,47.33055],[0.464,47.32995],[0.46272,47.32933],[0.46122,47.32835],[0.46031,47.32759],[0.46014,47.327],[0.45997,47.32688],[0.45738,47.32532],[0.45704,47.32516],[0.44641,47.32236],[0.44549,47.32218],[0.44429,47.32213],[0.44281,47.32182],[0.43973,47.32092],[0.4379,47.32077],[0.43655,47.3204],[0.43562,47.32055],[0.43499,47.32058],[0.43438,47.32052],[0.43272,47.32006],[0.43084,47.31937],[0.42936,47.31902],[0.42835,47.31893],[0.42743,47.31894],[0.42654,47.31869],[0.42551,47.31863],[0.4252,47.31856],[0.42397,47.31815],[0.42403,47.3182],[0.42282,47.31815],[0.42167,47.31826],[0.42047,47.31828],[0.41927,47.31819],[0.41865,47.31805],[0.41623,47.31725],[0.41532,47.3169],[0.41352,47.3163],[0.41261,47.31593],[0.41057,47.31541],[0.40952,47.3153],[0.40826,47.31497],[0.40732,47.31469],[0.40538,47.31392],[0.40275,47.31299],[0.40097,47.31251],[0.39972,47.31226],[0.39925,47.31211],[0.39875,47.31194],[0.39642,47.31088],[0.39516,47.31043],[0.39371,47.31003],[0.39285,47.30988],[0.39112,47.30929],[0.38876,47.30811],[0.38808,47.30783],[0.38494,47.30704],[0.38335,47.30623],[0.37995,47.30466],[0.37919,47.3042],[0.37678,47.30354],[0.3736,47.30279],[0.37278,47.30243],[0.37024,47.30082],[0.36894,47.30015],[0.36855,47.2999],[0.3676,47.29901],[0.36722,47.29879],[0.36658,47.29859],[0.36604,47.29849],[0.36432,47.29831],[0.36293,47.29805],[0.36118,47.29747],[0.35713,47.29635],[0.35498,47.29592],[0.35422,47.29561],[0.35239,47.2951],[0.34995,47.2938],[0.34716,47.29182],[0.34637,47.29133],[0.34596,47.29112],[0.34461,47.29057],[0.34332,47.28963],[0.34033,47.28769],[0.33687,47.28581],[0.33509,47.28432],[0.33343,47.28359],[0.33196,47.28253],[0.33122,47.28198],[0.33079,47.28141],[0.33021,47.28089],[0.32985,47.28063],[0.32831,47.27983],[0.32781,47.27969],[0.32698,47.27958],[0.32657,47.27938],[0.3251,47.27836],[0.32485,47.27807],[0.32464,47.27764],[0.32429,47.27727],[0.32347,47.27671],[0.32206,47.27549],[0.32098,47.27426],[0.32083,47.27403],[0.32077,47.27363],[0.32056,47.27321],[0.32031,47.27303],[0.31935,47.27277],[0.31829,47.2724],[0.31791,47.27222],[0.31696,47.27161],[0.31677,47.27142],[0.31664,47.27117],[0.31592,47.27054],[0.31509,47.27002],[0.31421,47.26968],[0.31349,47.26916],[0.31256,47.26879],[0.31155,47.26856],[0.31105,47.26837],[0.30994,47.26784],[0.30909,47.26723],[0.3077,47.26637],[0.30729,47.26618],[0.30651,47.26591],[0.30479,47.26544],[0.30387,47.2649],[0.30329,47.26464],[0.3014,47.2642],[0.30061,47.26409],[0.29941,47.26405],[0.29775,47.26336],[0.29739,47.26327],[0.29692,47.26319],[0.29536,47.26317],[0.29502,47.26309],[0.29317,47.26261],[0.29146,47.26208],[0.28779,47.26126],[0.28845,47.25856],[0.29095,47.25056],[0.29118,47.25057],[0.29234,47.25082],[0.29284,47.25083],[0.29293,47.2507],[0.29307,47.25082],[0.2924,47.25083],[0.29097,47.25052],[0.28848,47.25848],[0.28775,47.26123],[0.28614,47.26097],[0.28407,47.26053],[0.2821,47.2603],[0.28162,47.26028],[0.27987,47.26035],[0.27848,47.26031],[0.27763,47.26022],[0.27442,47.25977],[0.2725,47.25961],[0.2707,47.25924],[0.26697,47.258],[0.26608,47.25758],[0.26452,47.2567],[0.26381,47.25658],[0.25975,47.25551],[0.25914,47.25533],[0.25672,47.25443],[0.2539,47.25314],[0.25025,47.25117],[0.24809,47.24989],[0.24685,47.24923],[0.24481,47.24836],[0.24323,47.24784],[0.23176,47.24483],[0.2269,47.24351],[0.2174,47.24185],[0.21463,47.24131],[0.2125,47.24072],[0.21007,47.23993],[0.20988,47.2396],[0.20938,47.23935],[0.20924,47.23919],[0.20927,47.23907],[0.20972,47.23842],[0.20982,47.23818],[0.20986,47.23749],[0.2098,47.23739],[0.20956,47.23723],[0.20955,47.23711],[0.21042,47.23566],[0.21031,47.23557],[0.20956,47.23537],[0.20939,47.23498],[0.20936,47.2348],[0.20967,47.23341],[0.20973,47.23336],[0.21096,47.23347],[0.21188,47.23361],[0.21208,47.23356],[0.2122,47.23358],[0.21219,47.23371],[0.21202,47.23371],[0.21205,47.23358],[0.21227,47.23338],[0.2126,47.23277],[0.2124,47.23214],[0.21194,47.23165],[0.21027,47.23035],[0.2089,47.22893],[0.2078,47.2276],[0.205,47.22506],[0.20292,47.22269],[0.20214,47.22157],[0.20117,47.22044],[0.20028,47.21902],[0.20002,47.21881],[0.19931,47.21848],[0.19853,47.21802],[0.19691,47.21613],[0.19562,47.21496],[0.19523,47.21469],[0.19304,47.21338],[0.19113,47.21247],[0.19036,47.21218],[0.18957,47.21196],[0.18911,47.21167],[0.18854,47.21082],[0.18831,47.21013],[0.18833,47.20985],[0.18857,47.20926],[0.1887,47.20831],[0.18856,47.20798],[0.1873,47.20645],[0.18714,47.20636],[0.18684,47.20636],[0.18624,47.20626],[0.18455,47.20589],[0.18429,47.20577],[0.18385,47.20566],[0.18287,47.2051],[0.18274,47.20507],[0.1826,47.20523],[0.18274,47.20536],[0.18275,47.20528],[0.18271,47.20537],[0.18251,47.20531],[0.18248,47.20535],[0.18279,47.20502],[0.18404,47.20295],[0.18436,47.20159],[0.18662,47.20033],[0.18689,47.20016],[0.18736,47.19965],[0.18702,47.1968],[0.18715,47.19501],[0.1877,47.19377],[0.18846,47.19269],[0.18822,47.19221],[0.18809,47.19141],[0.18803,47.19044],[0.18794,47.19038],[0.18612,47.19042],[0.18479,47.18977],[0.18391,47.18924],[0.18274,47.18797],[0.18196,47.18744],[0.18167,47.18737],[0.17993,47.18803],[0.17972,47.18806],[0.17928,47.18746],[0.17905,47.18682],[0.17858,47.18599],[0.17801,47.18548],[0.17731,47.1846],[0.1768,47.18378],[0.17676,47.18365],[0.17727,47.18341],[0.17724,47.18333],[0.17666,47.18269],[0.17582,47.18141],[0.17501,47.1804],[0.17513,47.18032],[0.17649,47.17997],[0.17918,47.17935],[0.1805,47.17887],[0.18215,47.17845],[0.18374,47.17784],[0.18759,47.17683],[0.18775,47.17677],[0.18794,47.1766],[0.19018,47.17559],[0.19169,47.17472],[0.19267,47.17429],[0.19349,47.17407],[0.19555,47.17372],[0.19677,47.17356],[0.19905,47.17307],[0.19924,47.17309],[0.20006,47.17397],[0.20027,47.1741],[0.20066,47.17423],[0.20088,47.17448],[0.20094,47.17471],[0.20093,47.17531],[0.20108,47.1753],[0.20123,47.17508],[0.20132,47.17467],[0.20157,47.17451],[0.20183,47.1745],[0.20208,47.17457],[0.20226,47.1748],[0.20267,47.17501],[0.20303,47.17507],[0.20337,47.17504],[0.20574,47.17463],[0.20738,47.17421],[0.20833,47.17376],[0.20919,47.17325],[0.21132,47.17251],[0.21165,47.17244],[0.21217,47.17218],[0.21374,47.17196],[0.21442,47.17192],[0.21538,47.17173],[0.21579,47.17174],[0.21614,47.17167],[0.21626,47.17161],[0.21856,47.17104],[0.21974,47.17054],[0.22201,47.1699],[0.22435,47.16947],[0.22593,47.16899],[0.22702,47.16885],[0.22913,47.16872],[0.22969,47.16859],[0.23092,47.16843],[0.23135,47.16829],[0.23286,47.16806],[0.233,47.16801],[0.23355,47.16748],[0.23393,47.16747],[0.23426,47.16736],[0.2349,47.16731],[0.23549,47.16715],[0.23623,47.1671],[0.23638,47.1669],[0.23678,47.16683],[0.23696,47.1668],[0.23767,47.16712],[0.23779,47.16707],[0.23797,47.16725],[0.23794,47.16712],[0.23797,47.16725],[0.23813,47.1671],[0.23857,47.16716],[0.23937,47.16705],[0.2403,47.16703],[0.24025,47.16745],[0.24031,47.16752],[0.24075,47.16763],[0.24078,47.16772],[0.24046,47.16783],[0.24061,47.16757],[0.24025,47.16759],[0.24025,47.1677],[0.24036,47.16773],[0.24066,47.16758],[0.24011,47.16748],[0.24019,47.168],[0.24005,47.16803],[0.23945,47.16798],[0.24019,47.16817],[0.24013,47.16818],[0.23986,47.16808],[0.23989,47.168],[0.24025,47.16802],[0.24195,47.16791],[0.24255,47.16762],[0.24277,47.16741],[0.24272,47.16736],[0.24108,47.16705],[0.23994,47.16704],[0.23987,47.16698],[0.23966,47.16627],[0.23978,47.16614],[0.23972,47.16584],[0.23953,47.1658],[0.23813,47.16604],[0.23794,47.16612],[0.23529,47.16664],[0.23451,47.16688],[0.23389,47.1671],[0.23331,47.16774],[0.23293,47.16804],[0.2313,47.16829],[0.23104,47.16841],[0.22966,47.16859],[0.22911,47.16873],[0.2268,47.16887],[0.22608,47.16895],[0.22428,47.16949],[0.22222,47.16984],[0.21986,47.1705],[0.21837,47.17108],[0.21749,47.17131],[0.2178,47.17122],[0.21788,47.17115],[0.21787,47.17121],[0.21596,47.17171],[0.21566,47.17175],[0.2154,47.17173],[0.21441,47.17192],[0.21388,47.17195],[0.21232,47.17215],[0.21202,47.17224],[0.21198,47.17216],[0.21205,47.1721],[0.21194,47.17198],[0.21204,47.1721],[0.212,47.17224],[0.21185,47.17231],[0.21173,47.17244],[0.21141,47.17248],[0.20919,47.17325],[0.2081,47.17388],[0.20711,47.17428],[0.20554,47.17467],[0.20321,47.17507],[0.20288,47.17505],[0.20251,47.17494],[0.2022,47.17495],[0.20213,47.17506],[0.20184,47.17517],[0.20165,47.17519],[0.20147,47.17512],[0.20126,47.17493],[0.20125,47.17477],[0.20135,47.17452],[0.20106,47.17388],[0.201,47.17394],[0.20114,47.174],[0.20142,47.17428],[0.2011,47.17484],[0.20092,47.17497],[0.20087,47.17529],[0.20094,47.1747],[0.20085,47.17444],[0.2005,47.17416],[0.20007,47.17398],[0.19916,47.17305],[0.1968,47.17356],[0.19556,47.17372],[0.19343,47.17409],[0.19256,47.17434],[0.19173,47.1747],[0.19007,47.17565],[0.18791,47.17661],[0.18769,47.17681],[0.18361,47.17788],[0.18209,47.17847],[0.18065,47.17882],[0.1792,47.17934],[0.17658,47.17994],[0.1751,47.18033],[0.17502,47.18041],[0.17504,47.18045],[0.17573,47.1813],[0.17569,47.18152],[0.17483,47.18178],[0.17222,47.18278],[0.17091,47.18338],[0.16973,47.18454],[0.16911,47.18542],[0.16904,47.18585],[0.16691,47.18712],[0.16588,47.18762],[0.16472,47.18837],[0.16461,47.18867],[0.16416,47.18928],[0.1631,47.1905],[0.16276,47.1908],[0.16208,47.19128],[0.16133,47.19202],[0.16061,47.19261],[0.1594,47.19319],[0.15812,47.19373],[0.15639,47.19466],[0.15356,47.19537],[0.15291,47.19564],[0.15267,47.19579],[0.15203,47.19639],[0.15086,47.19716],[0.15023,47.19803],[0.14816,47.19939],[0.1479,47.19954],[0.14693,47.19991],[0.14652,47.20022],[0.1453,47.20041],[0.14413,47.20072],[0.1436,47.20031],[0.14313,47.20001],[0.14295,47.19995],[0.1422,47.19985],[0.14109,47.19993],[0.13773,47.20114],[0.1364,47.2015],[0.13497,47.20183],[0.13425,47.20213],[0.13216,47.20348],[0.13057,47.20441],[0.13032,47.20464],[0.12991,47.20512],[0.12953,47.20636],[0.12888,47.20752],[0.12837,47.20775],[0.12641,47.20839],[0.1255,47.20881],[0.12396,47.21019],[0.12271,47.21092],[0.12173,47.21136],[0.12064,47.21209],[0.11954,47.21161],[0.11859,47.2115],[0.11817,47.21133],[0.11645,47.21028],[0.11307,47.20842],[0.10652,47.20464],[0.10488,47.20318],[0.10451,47.20277],[0.10433,47.20274],[0.0998,47.20452],[0.09747,47.20535],[0.09618,47.2057],[0.09474,47.20598],[0.08947,47.20811],[0.08685,47.20879],[0.0856,47.20917],[0.08425,47.20965],[0.08275,47.21046],[0.08162,47.211],[0.08068,47.21154],[0.08009,47.21204],[0.07997,47.2122],[0.08034,47.21237],[0.08228,47.21303],[0.08251,47.21307],[0.08364,47.21282],[0.08372,47.21271],[0.07833,47.20927],[0.07815,47.20924],[0.07761,47.20975],[0.07695,47.21017],[0.07644,47.21058],[0.07561,47.21078],[0.07533,47.21052],[0.07446,47.21043],[0.07259,47.21078],[0.07203,47.21017],[0.07104,47.20869],[0.07079,47.20786],[0.07058,47.20658],[0.07037,47.20597],[0.06964,47.2056],[0.06788,47.20435],[0.06674,47.20336],[0.0668,47.20342],[0.06677,47.20343],[0.06674,47.20336],[0.06568,47.20236],[0.0647,47.20161],[0.06386,47.20067],[0.06355,47.2006],[0.06328,47.20046],[0.063,47.2002],[0.06295,47.20003],[0.06309,47.19955],[0.06309,47.19926],[0.06297,47.19915],[0.06269,47.19908],[0.06225,47.19922],[0.06143,47.19937],[0.06023,47.19934],[0.05962,47.19943],[0.05905,47.19944],[0.05822,47.19932],[0.05707,47.19905],[0.05582,47.1986],[0.05445,47.19786],[0.05356,47.19747],[0.05336,47.19745],[0.05319,47.19731],[0.05101,47.19431],[0.05228,47.19604],[0.05219,47.1961],[0.05235,47.19607],[0.05234,47.19613],[0.0537,47.19808],[0.05386,47.19842],[0.05381,47.19902],[0.0537,47.19925],[0.05334,47.19975],[0.05251,47.20059],[0.05124,47.20205],[0.04999,47.20155],[0.04935,47.20154],[0.04797,47.20162],[0.04779,47.20132],[0.04743,47.20097],[0.04695,47.20119],[0.04688,47.20112]]}},{"type":"Feature","properties":{"day":3,"name":"[FM] La Loire à vélo ❤️👩‍❤️‍👨🚴"},"geometry":{"type":"LineString","coordinates":[[0.04713,47.2012],[0.04717,47.20109],[0.04739,47.20091],[0.04794,47.20141],[0.04808,47.20162],[0.04814,47.20161],[0.04699,47.20168],[0.04649,47.20143],[0.0458,47.20084],[0.04415,47.19971],[0.04205,47.19764],[0.04111,47.19706],[0.04054,47.19688],[0.03971,47.19672],[0.03934,47.19671],[0.03872,47.19684],[0.03808,47.19718],[0.0379,47.19674],[0.03783,47.19615],[0.03787,47.19531],[0.03797,47.19522],[0.03928,47.19483],[0.0391,47.19414],[0.0392,47.19401],[0.03935,47.19395],[0.03964,47.19394],[0.04061,47.19439],[0.04394,47.19311],[0.04566,47.19229],[0.04588,47.19244],[0.04708,47.19208],[0.04708,47.1919],[0.04672,47.19098],[0.04709,47.19076],[0.04719,47.19035],[0.0483,47.19017],[0.04834,47.19013],[0.04818,47.18929],[0.04775,47.18913],[0.04771,47.18901],[0.0478,47.1889],[0.04823,47.18886],[0.04866,47.18809],[0.05015,47.18677],[0.05045,47.18619],[0.05047,47.18559],[0.05036,47.18546],[0.05049,47.1854],[0.05049,47.18245],[0.05033,47.18207],[0.05009,47.18187],[0.04993,47.18178],[0.04979,47.18182],[0.04974,47.1817],[0.04923,47.18159],[0.04916,47.18147],[0.0492,47.18158],[0.04965,47.18166],[0.05002,47.18182],[0.04991,47.18161],[0.05002,47.18128],[0.04985,47.18124],[0.04942,47.18131],[0.04934,47.18126],[0.0497,47.18128],[0.04985,47.18124],[0.05,47.18128],[0.04991,47.18169],[0.05002,47.18182],[0.05096,47.18171],[0.05075,47.18121],[0.05088,47.1814],[0.05094,47.18131],[0.05079,47.18148],[0.05067,47.18174],[0.04972,47.18183],[0.04974,47.18187],[0.04995,47.18182],[0.05008,47.18187],[0.05033,47.18208],[0.05049,47.18243],[0.05045,47.18623],[0.05007,47.18686],[0.04866,47.18809],[0.04832,47.18877],[0.04817,47.18892],[0.04819,47.18906],[0.0481,47.18919],[0.0482,47.18931],[0.04832,47.19017],[0.04727,47.1903],[0.04715,47.19041],[0.04711,47.19075],[0.04672,47.191],[0.04706,47.19184],[0.04706,47.19212],[0.04668,47.19218],[0.04588,47.19244],[0.04564,47.1923],[0.04383,47.19316],[0.04075,47.19435],[0.04058,47.19439],[0.03955,47.19392],[0.03938,47.19394],[0.03907,47.19407],[0.03929,47.19473],[0.03925,47.19485],[0.03787,47.19526],[0.03783,47.1962],[0.03791,47.19684],[0.03811,47.19717],[0.03874,47.19683],[0.03932,47.19671],[0.03967,47.19671],[0.0404,47.19685],[0.04118,47.19709],[0.04208,47.19767],[0.04408,47.19966],[0.04594,47.20095],[0.04654,47.20147],[0.04184,47.20368],[0.04183,47.20378],[0.04337,47.20585],[0.04449,47.20749],[0.04482,47.20784],[0.04579,47.2083],[0.04617,47.20853],[0.04708,47.20952],[0.04792,47.2103],[0.04859,47.21115],[0.04899,47.21154],[0.05001,47.21233],[0.05027,47.21266],[0.0505,47.21285],[0.05103,47.21315],[0.0535,47.21582],[0.05423,47.21631],[0.05412,47.21694],[0.05444,47.21738],[0.05444,47.21745],[0.0519,47.21825],[0.05155,47.21841],[0.04964,47.21897],[0.04858,47.21921],[0.04961,47.21898],[0.05047,47.21872],[0.05118,47.21911],[0.05138,47.21932],[0.0514,47.21941],[0.04983,47.22015],[0.04956,47.22034],[0.04873,47.22124],[0.04798,47.22185],[0.04625,47.22292],[0.04571,47.22337],[0.04549,47.22349],[0.04455,47.22385],[0.04343,47.22401],[0.04281,47.22418],[0.04208,47.22467],[0.04053,47.2255],[0.03917,47.22604],[0.03599,47.2268],[0.03451,47.22732],[0.03306,47.22798],[0.03275,47.22816],[0.03257,47.22829],[0.03213,47.22889],[0.03139,47.22918],[0.03124,47.22914],[0.03064,47.22821],[0.02991,47.22553],[0.02982,47.22547],[0.02948,47.22552],[0.02927,47.22533],[0.02911,47.2253],[0.02903,47.22525],[0.0295,47.22489],[0.02914,47.22392],[0.0292,47.22378],[0.02884,47.22303],[0.02813,47.22319],[0.02807,47.22339],[0.02783,47.22365],[0.02779,47.22377],[0.02766,47.22392],[0.02749,47.22402],[0.02704,47.22419],[0.02612,47.22437],[0.02475,47.22486],[0.02341,47.22527],[0.02328,47.22538],[0.02309,47.22542],[0.022,47.22588],[0.02015,47.2268],[0.01883,47.22729],[0.01788,47.22748],[0.01702,47.22785],[0.01651,47.22757],[0.01614,47.22724],[0.01528,47.22575],[0.01274,47.22335],[0.01235,47.22308],[0.01137,47.22268],[0.01045,47.22221],[0.01032,47.22226],[0.00973,47.22286],[0.00889,47.22351],[0.00875,47.22365],[0.00865,47.22394],[0.00979,47.22452],[0.01017,47.2248],[0.01069,47.22541],[0.0114,47.22598],[0.01199,47.22666],[0.0138,47.22829],[0.01405,47.22861],[0.01311,47.22921],[0.01255,47.22994],[0.01067,47.23075],[0.01012,47.23094],[0.00938,47.23112],[0.00864,47.23116],[0.00805,47.23114],[0.00793,47.23128],[0.00798,47.2316],[0.00714,47.23182],[0.0059,47.23208],[0.00558,47.23208],[0.00537,47.23189],[0.00524,47.23186],[0.00352,47.23198],[0.00226,47.23196],[0.00208,47.23191],[0.00161,47.2315],[0.0011,47.23035],[0.00038,47.22893],[-0.00005,47.22828],[-0.00017,47.22826],[-0.00191,47.22895],[-0.00484,47.22986],[-0.00607,47.23048],[-0.00781,47.23112],[-0.00823,47.23138],[-0.00678,47.23218],[-0.00537,47.23344],[-0.00519,47.23439],[-0.00616,47.23559],[-0.00644,47.2357],[-0.00697,47.2354],[-0.00734,47.2355],[-0.00745,47.23555],[-0.00762,47.23578],[-0.00843,47.23629],[-0.00876,47.23665],[-0.00891,47.23672],[-0.00904,47.23671],[-0.00968,47.23617],[-0.00996,47.23629],[-0.00997,47.23709],[-0.01007,47.23705],[-0.00989,47.23711],[-0.00976,47.23723],[-0.01065,47.23763],[-0.01084,47.23781],[-0.01385,47.23855],[-0.0141,47.23859],[-0.01461,47.23859],[-0.01465,47.23865],[-0.01459,47.23902],[-0.01457,47.23898],[-0.01442,47.23897],[-0.01495,47.23918],[-0.02192,47.24066],[-0.02199,47.2409],[-0.02227,47.24097],[-0.02249,47.24132],[-0.02198,47.2415],[-0.02185,47.24161],[-0.02186,47.24185],[-0.02207,47.24205],[-0.02244,47.24224],[-0.02351,47.24254],[-0.02824,47.24406],[-0.02922,47.24451],[-0.03101,47.24502],[-0.03262,47.24556],[-0.03609,47.24693],[-0.03621,47.24692],[-0.03679,47.24635],[-0.03709,47.24635],[-0.04191,47.24836],[-0.04258,47.24832],[-0.04288,47.24838],[-0.0431,47.24848],[-0.04327,47.24865],[-0.04425,47.24909],[-0.04475,47.24896],[-0.0459,47.24921],[-0.04621,47.24934],[-0.04656,47.24965],[-0.04656,47.25027],[-0.04669,47.25055],[-0.0472,47.25088],[-0.0475,47.251],[-0.0483,47.25114],[-0.04966,47.25117],[-0.05101,47.25147],[-0.05162,47.2517],[-0.05193,47.25175],[-0.05383,47.25169],[-0.0542,47.25162],[-0.05486,47.25162],[-0.05554,47.25153],[-0.05617,47.25155],[-0.05736,47.25175],[-0.05751,47.25175],[-0.05796,47.25163],[-0.05874,47.25185],[-0.05891,47.25178],[-0.06083,47.25238],[-0.06266,47.25336],[-0.06272,47.25338],[-0.0629,47.25323],[-0.06308,47.25325],[-0.06463,47.25371],[-0.06625,47.2546],[-0.06725,47.25535],[-0.06751,47.25543],[-0.06791,47.25565],[-0.06865,47.25608],[-0.06934,47.25655],[-0.06971,47.25669],[-0.07038,47.25709],[-0.07098,47.25727],[-0.07286,47.2581],[-0.07327,47.25823],[-0.07339,47.25855],[-0.0736,47.25857],[-0.07356,47.25852],[-0.07379,47.25838],[-0.07439,47.25851],[-0.07466,47.25865],[-0.07509,47.25923],[-0.07493,47.25913],[-0.07472,47.25885],[-0.07495,47.25872],[-0.07532,47.25876],[-0.07547,47.25863],[-0.07613,47.25875],[-0.079,47.25961],[-0.08111,47.26019],[-0.08743,47.26215],[-0.08769,47.26229],[-0.08746,47.26261],[-0.08647,47.26391],[-0.08537,47.26552],[-0.08504,47.26592],[-0.08468,47.26615],[-0.08457,47.26627],[-0.08633,47.26772],[-0.08668,47.26797],[-0.08719,47.26817],[-0.08753,47.26828],[-0.08829,47.26837],[-0.0891,47.26803],[-0.0915,47.26639],[-0.09199,47.26587],[-0.09207,47.26584],[-0.09265,47.26625],[-0.09319,47.26584],[-0.09341,47.26576],[-0.09398,47.26568],[-0.09461,47.26582],[-0.0946,47.26577],[-0.09412,47.2657],[-0.09371,47.2657],[-0.09402,47.26568],[-0.09461,47.26582],[-0.09488,47.26573],[-0.09512,47.2655],[-0.09532,47.26499],[-0.0953,47.26484],[-0.09514,47.26462],[-0.09514,47.26444],[-0.09542,47.26423],[-0.09519,47.26438],[-0.09512,47.26451],[-0.09533,47.26493],[-0.09517,47.26539],[-0.095,47.26562],[-0.09461,47.26583],[-0.09463,47.26598],[-0.09471,47.266],[-0.09724,47.26607],[-0.0976,47.26606],[-0.09791,47.2659],[-0.09918,47.2662],[-0.09982,47.26653],[-0.10068,47.26617],[-0.10057,47.26603],[-0.10064,47.26593],[-0.10082,47.26583],[-0.10098,47.26581],[-0.1011,47.26586],[-0.1014,47.2659],[-0.1015,47.26595],[-0.10117,47.26548],[-0.10218,47.26702],[-0.10238,47.26766],[-0.10282,47.26842],[-0.10347,47.26904],[-0.10422,47.27007],[-0.10571,47.27188],[-0.10694,47.2726],[-0.10842,47.27393],[-0.10958,47.27464],[-0.11175,47.27504],[-0.11193,47.27496],[-0.11192,47.27513],[-0.1134,47.27607],[-0.11284,47.27658],[-0.11295,47.27723],[-0.11317,47.2776],[-0.11314,47.27862],[-0.11309,47.27875],[-0.1118,47.27992],[-0.11118,47.28033],[-0.11109,47.2805],[-0.1113,47.28072],[-0.11165,47.28089],[-0.11177,47.28103],[-0.1123,47.28134],[-0.11282,47.28178],[-0.11367,47.28209],[-0.11536,47.2828],[-0.11683,47.2837],[-0.11792,47.28452],[-0.11899,47.28522],[-0.12005,47.28582],[-0.12213,47.28666],[-0.12691,47.28904],[-0.12869,47.29007],[-0.12965,47.29055],[-0.13236,47.29175],[-0.13423,47.29264],[-0.13589,47.29353],[-0.13611,47.29371],[-0.13633,47.29372],[-0.13684,47.29335],[-0.13857,47.29553],[-0.1397,47.29669],[-0.14163,47.29919],[-0.14228,47.30012],[-0.14342,47.30131],[-0.14538,47.30317],[-0.14616,47.30399],[-0.14708,47.30468],[-0.14888,47.30569],[-0.15113,47.30706],[-0.15233,47.30753],[-0.15285,47.30797],[-0.15346,47.30861],[-0.15404,47.30905],[-0.15439,47.30922],[-0.15466,47.30944],[-0.15524,47.30972],[-0.15685,47.3108],[-0.15779,47.3113],[-0.15901,47.31186],[-0.15985,47.31235],[-0.1606,47.31297],[-0.16105,47.31324],[-0.16232,47.31375],[-0.16451,47.3142],[-0.16672,47.31475],[-0.16685,47.31455],[-0.16708,47.31459],[-0.16722,47.31466],[-0.16719,47.31483],[-0.16829,47.31506],[-0.16835,47.31506],[-0.16867,47.31475],[-0.16944,47.31483],[-0.1701,47.31498],[-0.17133,47.31547],[-0.1728,47.3163],[-0.17377,47.31707],[-0.17426,47.3173],[-0.17647,47.31776],[-0.17757,47.31806],[-0.183,47.32017],[-0.18349,47.32039],[-0.18577,47.32193],[-0.18655,47.32236],[-0.18775,47.32297],[-0.19099,47.32448],[-0.19234,47.32533],[-0.19501,47.32663],[-0.19598,47.32731],[-0.1974,47.32816],[-0.19848,47.32888],[-0.19946,47.32969],[-0.19965,47.32979],[-0.20017,47.32971],[-0.20094,47.32985],[-0.20131,47.32931],[-0.2012,47.32937],[-0.20113,47.32959],[-0.20134,47.32925],[-0.20149,47.32917],[-0.20214,47.32909],[-0.20233,47.32903],[-0.20244,47.32886],[-0.20256,47.32883],[-0.20334,47.32885],[-0.20357,47.329],[-0.20383,47.32893],[-0.20359,47.32899],[-0.20349,47.32898],[-0.20337,47.32886],[-0.20292,47.32883],[-0.20329,47.32884],[-0.20345,47.3289],[-0.2035,47.32901],[-0.20405,47.32887],[-0.20524,47.32942],[-0.20657,47.32975],[-0.20797,47.32954],[-0.20875,47.32928],[-0.2097,47.32907],[-0.21079,47.32863],[-0.21152,47.32846],[-0.21416,47.32862],[-0.21491,47.32845],[-0.2155,47.32875],[-0.21585,47.32856],[-0.21614,47.32822],[-0.21681,47.32796],[-0.21699,47.32795],[-0.21698,47.32791],[-0.21628,47.32813],[-0.21614,47.32821],[-0.21568,47.32869],[-0.21571,47.32884],[-0.21637,47.32906],[-0.21677,47.32927],[-0.21813,47.32958],[-0.21889,47.32982],[-0.21952,47.32996],[-0.22268,47.33058],[-0.22413,47.33075],[-0.22539,47.33099],[-0.22642,47.33145],[-0.22731,47.33204],[-0.22983,47.33347],[-0.23003,47.33366],[-0.23005,47.33377],[-0.23033,47.33377],[-0.23274,47.33445],[-0.23282,47.33467],[-0.23215,47.33576],[-0.23178,47.33671],[-0.23121,47.33776],[-0.23211,47.33836],[-0.23245,47.3387],[-0.23315,47.33925],[-0.23408,47.33902],[-0.23411,47.33892],[-0.23414,47.33902],[-0.2347,47.33899],[-0.23517,47.33891],[-0.23625,47.33854],[-0.2379,47.33782],[-0.2389,47.33717],[-0.23902,47.33699],[-0.23909,47.33697],[-0.23941,47.33698],[-0.24049,47.3367],[-0.24166,47.33653],[-0.24404,47.33641],[-0.24546,47.33629],[-0.24665,47.33604],[-0.2478,47.3364],[-0.24903,47.33659],[-0.24967,47.33663],[-0.25041,47.3368],[-0.25116,47.33682],[-0.25133,47.33687],[-0.25173,47.33727],[-0.25254,47.33745],[-0.25416,47.33747],[-0.25446,47.33744],[-0.2601,47.33414],[-0.26027,47.33415],[-0.26069,47.33432],[-0.26091,47.33436],[-0.26108,47.33433],[-0.26208,47.33391],[-0.26311,47.33362],[-0.26232,47.33252],[-0.26154,47.33184],[-0.26031,47.33096],[-0.25972,47.33045],[-0.25884,47.32941],[-0.25887,47.32932],[-0.26138,47.3288],[-0.26219,47.32832],[-0.26299,47.32814],[-0.26321,47.32805],[-0.26421,47.32732],[-0.26456,47.32715],[-0.26527,47.32684],[-0.26556,47.32681],[-0.26582,47.32688],[-0.26618,47.32708],[-0.26742,47.32687],[-0.26837,47.32685],[-0.26886,47.32694],[-0.26894,47.32706],[-0.26883,47.32735],[-0.26821,47.32829],[-0.2683,47.32843],[-0.27066,47.32939],[-0.27069,47.32968],[-0.26897,47.33309],[-0.26884,47.33349],[-0.26896,47.33358],[-0.27249,47.33369],[-0.27297,47.33361],[-0.27481,47.33312],[-0.27772,47.33274],[-0.27843,47.33275],[-0.28057,47.33304],[-0.28196,47.3329],[-0.28195,47.33298],[-0.28199,47.3329],[-0.28195,47.33294],[-0.28167,47.33293],[-0.28191,47.3329],[-0.28255,47.33288],[-0.28399,47.33291],[-0.2841,47.33286],[-0.2844,47.33284],[-0.28549,47.33304],[-0.28648,47.33317],[-0.28709,47.33336],[-0.28764,47.33362],[-0.28756,47.33354],[-0.28757,47.33341],[-0.28743,47.33342],[-0.28739,47.33349],[-0.28797,47.33385],[-0.28824,47.33397],[-0.28853,47.33404],[-0.29201,47.33412],[-0.29361,47.33428],[-0.29563,47.33436],[-0.29735,47.33428],[-0.29918,47.33407],[-0.3003,47.33426],[-0.30184,47.33481],[-0.30301,47.33507],[-0.30401,47.33537],[-0.30492,47.33577],[-0.30571,47.33604],[-0.30684,47.33634],[-0.30723,47.33639],[-0.30765,47.33617],[-0.30857,47.33541],[-0.30942,47.33497],[-0.31211,47.33439],[-0.31206,47.33436],[-0.31189,47.33443],[-0.31248,47.33431],[-0.31392,47.33418],[-0.31431,47.3341],[-0.3168,47.33335],[-0.31914,47.33254],[-0.32442,47.33165],[-0.32614,47.33131],[-0.33054,47.33004],[-0.33174,47.32951],[-0.33222,47.32948],[-0.33303,47.32932],[-0.33448,47.32946],[-0.33681,47.32936],[-0.3375,47.32928],[-0.34258,47.32921],[-0.34429,47.3294],[-0.34667,47.32953],[-0.34693,47.32956],[-0.34791,47.33036],[-0.34835,47.33067],[-0.34891,47.33098],[-0.34955,47.33148],[-0.35032,47.33225],[-0.35094,47.33357],[-0.35118,47.33387],[-0.35143,47.33405],[-0.3528,47.33474],[-0.35483,47.33626],[-0.35531,47.33705],[-0.35573,47.33749],[-0.35567,47.3377],[-0.35468,47.3393],[-0.35427,47.33994],[-0.35414,47.33999],[-0.35234,47.33984],[-0.35073,47.33991],[-0.35078,47.33985],[-0.35078,47.33991],[-0.35065,47.33991],[-0.34985,47.3398],[-0.34904,47.33902],[-0.34889,47.33861],[-0.34879,47.33858],[-0.34802,47.33877],[-0.34807,47.33879],[-0.34813,47.33874],[-0.34879,47.33859],[-0.34889,47.33861],[-0.34898,47.33892],[-0.34909,47.33907],[-0.3498,47.33979],[-0.35059,47.3399],[-0.35253,47.33984],[-0.35421,47.34],[-0.35585,47.34005],[-0.35808,47.3405],[-0.35859,47.34069],[-0.35871,47.34065],[-0.35916,47.34028],[-0.36031,47.34037],[-0.36139,47.34033],[-0.36191,47.34036],[-0.364,47.34084],[-0.36485,47.34111],[-0.36531,47.34117],[-0.36682,47.34081],[-0.36797,47.34034],[-0.36919,47.33999],[-0.36963,47.33994],[-0.37138,47.34005],[-0.3723,47.34004],[-0.37271,47.33998],[-0.37373,47.33955],[-0.37407,47.33951],[-0.37587,47.33951],[-0.37735,47.33944],[-0.3782,47.33933],[-0.3802,47.3392],[-0.38085,47.33899],[-0.3814,47.33902],[-0.38403,47.33935],[-0.38432,47.33943],[-0.3848,47.34013],[-0.38539,47.34059],[-0.38686,47.34125],[-0.38737,47.3417],[-0.3877,47.34185],[-0.38878,47.34209],[-0.38974,47.3421],[-0.38995,47.34218],[-0.39375,47.34376],[-0.39643,47.34456],[-0.39702,47.34482],[-0.39829,47.34554],[-0.40041,47.34623],[-0.40115,47.34659],[-0.40188,47.34672],[-0.40271,47.34676],[-0.40428,47.34709],[-0.40529,47.34715],[-0.40716,47.34717],[-0.40804,47.34729],[-0.40931,47.34734],[-0.4105,47.34758],[-0.41115,47.34778],[-0.4121,47.34817],[-0.41308,47.34842],[-0.41475,47.3485],[-0.42,47.34944],[-0.42374,47.34975],[-0.42568,47.35009],[-0.42688,47.35009],[-0.43114,47.34979],[-0.43142,47.34981],[-0.43282,47.35011],[-0.43471,47.35072],[-0.43541,47.35087],[-0.43629,47.35115],[-0.43692,47.35122],[-0.43887,47.3511],[-0.43954,47.35113],[-0.44097,47.35128],[-0.4431,47.35207],[-0.44394,47.35189],[-0.44486,47.35187],[-0.44526,47.3518],[-0.44547,47.35171],[-0.44527,47.3518],[-0.44494,47.35185],[-0.44492,47.35193],[-0.44668,47.35365],[-0.44714,47.35343],[-0.44773,47.35358],[-0.44777,47.35372],[-0.44772,47.35393]]}},{"type":"Feature","properties":{"day":4,"name":"[FM] La Loire à vélo ❤️👩‍❤️‍👨🚴"},"geometry":{"type":"LineString","coordinates":[[-0.44879,47.35573],[-0.4493,47.35591],[-0.44969,47.3559],[-0.44982,47.35601],[-0.45022,47.35737],[-0.45012,47.35766],[-0.45011,47.35791],[-0.45016,47.35805],[-0.45001,47.35955],[-0.45015,47.36292],[-0.45023,47.36301],[-0.45043,47.36312],[-0.45192,47.36456],[-0.45221,47.36474],[-0.45439,47.36559],[-0.45561,47.36612],[-0.45839,47.36793],[-0.45896,47.36821],[-0.45958,47.36858],[-0.46093,47.36988],[-0.4621,47.37064],[-0.46337,47.37196],[-0.46378,47.37205],[-0.46423,47.37196],[-0.46439,47.37202],[-0.46475,47.37249],[-0.46473,47.37269],[-0.46482,47.37276],[-0.46507,47.37275],[-0.46519,47.37257],[-0.46539,47.37257],[-0.46558,47.37292],[-0.46579,47.37306],[-0.46883,47.37464],[-0.47008,47.37546],[-0.47022,47.37547],[-0.47031,47.37541],[-0.47037,47.37528],[-0.47053,47.37486],[-0.47068,47.37406],[-0.4709,47.37401],[-0.47265,47.37418],[-0.47475,47.37511],[-0.47533,47.37542],[-0.47669,47.37633],[-0.47759,47.37682],[-0.47933,47.37746],[-0.48053,47.37802],[-0.48173,47.37812],[-0.48396,47.37864],[-0.48532,47.37883],[-0.48595,47.37888],[-0.48607,47.37884],[-0.48625,47.37869],[-0.48665,47.37792],[-0.48699,47.37746],[-0.48825,47.37636],[-0.48911,47.37639],[-0.49008,47.37631],[-0.49294,47.37661],[-0.49493,47.37688],[-0.49758,47.37695],[-0.49898,47.37715],[-0.49931,47.37716],[-0.50255,47.37698],[-0.50387,47.37684],[-0.50442,47.37674],[-0.50512,47.37653],[-0.50647,47.37591],[-0.50678,47.37588],[-0.50731,47.37516],[-0.50767,47.37415],[-0.50808,47.37351],[-0.5083,47.37333],[-0.50862,47.37318],[-0.50992,47.37283],[-0.51154,47.37281],[-0.51217,47.37268],[-0.51251,47.37257],[-0.51297,47.37226],[-0.5138,47.37152],[-0.51489,47.37027],[-0.51546,47.36985],[-0.51619,47.36945],[-0.51754,47.36888],[-0.51959,47.36763],[-0.52044,47.36667],[-0.52157,47.36582],[-0.52172,47.36552],[-0.52183,47.36442],[-0.52329,47.36409],[-0.52355,47.36406],[-0.52385,47.36411],[-0.52478,47.36447],[-0.52526,47.36501],[-0.52524,47.36509],[-0.52655,47.3648],[-0.52697,47.36477],[-0.52859,47.36473],[-0.52963,47.36481],[-0.5306,47.3648],[-0.53147,47.36468],[-0.53243,47.36434],[-0.53599,47.36353],[-0.53753,47.36305],[-0.53841,47.36267],[-0.53925,47.36218],[-0.54042,47.36133],[-0.54073,47.36102],[-0.54179,47.35969],[-0.5418,47.35933],[-0.54119,47.35804],[-0.54122,47.35778],[-0.54146,47.35738],[-0.54211,47.35684],[-0.54255,47.35657],[-0.54511,47.35557],[-0.54568,47.35553],[-0.54591,47.35556],[-0.54629,47.35573],[-0.54649,47.35593],[-0.54717,47.35701],[-0.54745,47.35731],[-0.54783,47.35754],[-0.54829,47.35766],[-0.54886,47.35765],[-0.55005,47.35743],[-0.55086,47.35708],[-0.55101,47.35717],[-0.55098,47.35721],[-0.55105,47.35721],[-0.55181,47.35805],[-0.55244,47.35862],[-0.55266,47.35859],[-0.55295,47.35845],[-0.5533,47.35844],[-0.55437,47.35871],[-0.55633,47.35938],[-0.55889,47.35974],[-0.55903,47.35984],[-0.55905,47.35972],[-0.56037,47.35957],[-0.56146,47.35968],[-0.5632,47.35975],[-0.565,47.35947],[-0.56537,47.35949],[-0.57091,47.35995],[-0.57235,47.36022],[-0.57432,47.36101],[-0.57471,47.36125],[-0.57518,47.36176],[-0.57569,47.36213],[-0.57683,47.3627],[-0.57945,47.36292],[-0.58011,47.36307],[-0.58063,47.36325],[-0.58139,47.36381],[-0.58216,47.36427],[-0.58382,47.36503],[-0.58425,47.36574],[-0.58429,47.36599],[-0.5844,47.3661],[-0.5855,47.3659],[-0.58564,47.36594],[-0.58591,47.3664],[-0.58612,47.36664],[-0.58663,47.36708],[-0.58696,47.36727],[-0.59067,47.36852],[-0.59199,47.3695],[-0.5935,47.37028],[-0.59498,47.37135],[-0.59972,47.37306],[-0.6001,47.37331],[-0.60092,47.37399],[-0.60224,47.37436],[-0.60315,47.37486],[-0.60336,47.37491],[-0.60446,47.37485],[-0.60497,47.37545],[-0.60594,47.37683],[-0.60676,47.37787],[-0.60732,47.3784],[-0.60753,47.37869],[-0.60764,47.37869],[-0.60843,47.37813],[-0.61044,47.37685],[-0.61063,47.37678],[-0.61079,47.37688],[-0.61108,47.37719],[-0.61214,47.37798],[-0.61218,47.37804],[-0.61203,47.37824],[-0.61163,47.3786],[-0.61206,47.37894],[-0.61307,47.37926],[-0.61374,47.37934],[-0.61443,47.37953],[-0.61505,47.37964],[-0.61562,47.3797],[-0.61661,47.37965],[-0.61849,47.37938],[-0.62047,47.37893],[-0.62102,47.37867],[-0.62118,47.37863],[-0.62216,47.37775],[-0.62329,47.37732],[-0.62529,47.37698],[-0.6271,47.37714],[-0.62786,47.37696],[-0.62882,47.37653],[-0.62876,47.37635],[-0.62892,47.37648],[-0.62843,47.37599],[-0.62734,47.37506],[-0.62638,47.3746],[-0.62471,47.37337],[-0.62329,47.37299],[-0.62269,47.37255],[-0.62233,47.37208],[-0.62021,47.3706],[-0.62022,47.37052],[-0.62161,47.36981],[-0.62395,47.36843],[-0.62468,47.36812],[-0.62568,47.36781],[-0.62612,47.36762],[-0.63063,47.365],[-0.63122,47.36477],[-0.63499,47.36382],[-0.64118,47.36152],[-0.64412,47.3605],[-0.64542,47.36012],[-0.64757,47.3596],[-0.64958,47.35884],[-0.65574,47.35731],[-0.65585,47.35741],[-0.65589,47.35774],[-0.656,47.35788],[-0.65643,47.35814],[-0.65673,47.35846],[-0.6553,47.35879],[-0.65506,47.3588],[-0.65501,47.3589],[-0.65529,47.35971],[-0.65513,47.36004],[-0.65512,47.36028],[-0.65543,47.36035],[-0.65552,47.36033],[-0.65502,47.36141],[-0.65289,47.36672],[-0.65267,47.36846],[-0.65255,47.36877],[-0.65223,47.36923],[-0.65192,47.36945],[-0.64836,47.37145],[-0.64811,47.3717],[-0.64797,47.37195],[-0.64809,47.37246],[-0.65078,47.37579],[-0.65073,47.37591],[-0.65106,47.37635],[-0.65111,47.37653],[-0.64982,47.37701],[-0.64842,47.37779],[-0.64746,47.37824],[-0.64677,47.37849],[-0.6457,47.3787],[-0.6449,47.37891],[-0.64332,47.37955],[-0.64264,47.37919],[-0.6423,47.37884],[-0.64235,47.37894],[-0.64255,47.3791],[-0.64332,47.37955],[-0.6437,47.37915],[-0.64449,47.37867],[-0.64468,47.37874],[-0.64484,47.3789],[-0.64502,47.37888],[-0.64684,47.37847],[-0.6472,47.37835],[-0.64871,47.37765],[-0.64995,47.37695],[-0.65109,47.37653],[-0.65113,47.37644],[-0.65076,47.37595],[-0.65088,47.37592],[-0.65366,47.3793],[-0.65437,47.38006],[-0.65467,47.38008],[-0.65483,47.38016],[-0.6555,47.3809],[-0.65551,47.38101],[-0.64457,47.38563],[-0.64397,47.38577],[-0.64348,47.38596],[-0.6432,47.38622],[-0.64287,47.38642],[-0.6414,47.3871],[-0.64071,47.38732],[-0.63963,47.38797],[-0.63925,47.3883],[-0.63509,47.39072],[-0.6319,47.39299],[-0.62952,47.39545],[-0.62678,47.39862],[-0.62793,47.39891],[-0.62819,47.39891],[-0.62886,47.39876],[-0.62906,47.39867],[-0.62957,47.39828],[-0.62979,47.39819],[-0.63068,47.39803],[-0.63214,47.3981],[-0.63221,47.39816],[-0.63216,47.39811],[-0.63203,47.3981],[-0.63221,47.39814],[-0.63214,47.3981],[-0.63221,47.39815],[-0.63197,47.39865],[-0.63184,47.39913],[-0.6319,47.39986],[-0.63166,47.40001],[-0.63065,47.40036],[-0.62964,47.40085],[-0.6293,47.40106],[-0.62879,47.40151],[-0.62671,47.40288],[-0.62578,47.40346],[-0.62474,47.40402],[-0.62378,47.40501],[-0.62355,47.40517],[-0.62308,47.40537],[-0.62289,47.40566],[-0.62277,47.40616],[-0.62162,47.40627],[-0.62169,47.40624],[-0.62168,47.40618],[-0.62122,47.40613],[-0.62103,47.40616],[-0.62135,47.40618],[-0.62142,47.40626],[-0.62139,47.40637],[-0.621,47.40658],[-0.62066,47.40701],[-0.62067,47.40709],[-0.62064,47.40704],[-0.62066,47.40715],[-0.62024,47.40778],[-0.62005,47.40823],[-0.62001,47.40825],[-0.61924,47.40812],[-0.61898,47.40851],[-0.61888,47.40855],[-0.61817,47.40843],[-0.61823,47.40884],[-0.61815,47.40901],[-0.61771,47.40937],[-0.61734,47.41003],[-0.61729,47.41085],[-0.61711,47.41091],[-0.61646,47.41283],[-0.61598,47.41322],[-0.61509,47.41438],[-0.61351,47.41714],[-0.61343,47.41719],[-0.61333,47.41719],[-0.61306,47.41671],[-0.61283,47.41669],[-0.61193,47.41747],[-0.61131,47.41792],[-0.61035,47.41904],[-0.60957,47.42049],[-0.60933,47.42077],[-0.60928,47.42099],[-0.60912,47.42115],[-0.60925,47.42137],[-0.60958,47.42153],[-0.60959,47.4216],[-0.60827,47.42185],[-0.60765,47.42213],[-0.60712,47.42262],[-0.60715,47.42268],[-0.60654,47.42359],[-0.60555,47.42457],[-0.60515,47.42545],[-0.60513,47.42572],[-0.60482,47.42595],[-0.60461,47.42644],[-0.60457,47.42783],[-0.60499,47.42912],[-0.60511,47.4299],[-0.60489,47.43167],[-0.60508,47.43279],[-0.60504,47.43355],[-0.60512,47.43396],[-0.60502,47.43435],[-0.60476,47.43484],[-0.60462,47.43528],[-0.60399,47.43612],[-0.60376,47.43686],[-0.60132,47.44],[-0.59794,47.44362],[-0.59631,47.44556],[-0.59592,47.44624],[-0.59503,47.44857],[-0.59461,47.44924],[-0.59392,47.44969],[-0.591,47.45113],[-0.58612,47.45299],[-0.58313,47.45448],[-0.58192,47.45538],[-0.58162,47.45564],[-0.58078,47.4566],[-0.57814,47.46034],[-0.57688,47.46292],[-0.57579,47.46439],[-0.57471,47.46537],[-0.57464,47.46551],[-0.57472,47.46576],[-0.57301,47.46721],[-0.57113,47.46841],[-0.56915,47.46991],[-0.56906,47.47004],[-0.56887,47.47004],[-0.56786,47.46985],[-0.56747,47.46985],[-0.56665,47.47001],[-0.56612,47.47031],[-0.56562,47.47066],[-0.56567,47.47062],[-0.5653,47.47045],[-0.56498,47.47067],[-0.5646,47.47063],[-0.56404,47.47093],[-0.56381,47.47118],[-0.56377,47.47129],[-0.56385,47.47146],[-0.5638,47.47141],[-0.56341,47.47183],[-0.5626,47.47239],[-0.56254,47.47274],[-0.56216,47.47299],[-0.5621,47.47302],[-0.56116,47.47237],[-0.56101,47.47237],[-0.55899,47.4736],[-0.5585,47.47407],[-0.55824,47.47452],[-0.55546,47.4782],[-0.55546,47.47869],[-0.55537,47.47904],[-0.55556,47.47935],[-0.55551,47.47941],[-0.55536,47.47941],[-0.55507,47.47911],[-0.55487,47.47909],[-0.55453,47.47942],[-0.55347,47.48128],[-0.55292,47.48207],[-0.5529,47.4822],[-0.55185,47.48385],[-0.55147,47.48434],[-0.55095,47.48532],[-0.55091,47.48557],[-0.54875,47.4881],[-0.54715,47.49036],[-0.54689,47.49039],[-0.54553,47.4913],[-0.54372,47.49269],[-0.54343,47.49306],[-0.54344,47.4933],[-0.54366,47.49385],[-0.54402,47.49435],[-0.5453,47.49569],[-0.54588,47.49609],[-0.54682,47.49689],[-0.54736,47.4977],[-0.54768,47.49798],[-0.54797,47.49815],[-0.54889,47.49849],[-0.55072,47.49959],[-0.55106,47.4997],[-0.55218,47.49986],[-0.55318,47.50028],[-0.55391,47.50048],[-0.55434,47.50089],[-0.55508,47.50192],[-0.55524,47.50198],[-0.55567,47.50197],[-0.55644,47.50154],[-0.55698,47.50137],[-0.55847,47.5016],[-0.55913,47.50189],[-0.55946,47.50214],[-0.56014,47.50288],[-0.56043,47.50297],[-0.56037,47.50289],[-0.56067,47.50292],[-0.5611,47.50287],[-0.56324,47.50422],[-0.56444,47.50325],[-0.56449,47.5031],[-0.56449,47.50197],[-0.56474,47.50152],[-0.56453,47.50117],[-0.56428,47.50043],[-0.56353,47.50075],[-0.56325,47.50112],[-0.56321,47.50129],[-0.56376,47.50153],[-0.56381,47.50166]]}},{"type":"Feature","properties":{"day":5,"name":"[FM] La Loire à vélo ❤️👩‍❤️‍👨🚴"},"geometry":{"type":"LineString","coordinates":[[-0.56363,47.50177],[-0.56341,47.50169],[-0.56322,47.50147],[-0.56321,47.50127],[-0.56331,47.50099],[-0.56349,47.50078],[-0.56396,47.50055],[-0.56419,47.50053],[-0.56437,47.50068],[-0.56474,47.50159],[-0.56449,47.50189],[-0.56449,47.50315],[-0.56446,47.50323],[-0.56332,47.50415],[-0.56318,47.50418],[-0.56113,47.50288],[-0.56015,47.5029],[-0.55937,47.50207],[-0.55904,47.50184],[-0.55864,47.50166],[-0.5572,47.5014],[-0.55684,47.50141],[-0.55626,47.50161],[-0.55567,47.50197],[-0.55519,47.50198],[-0.55504,47.50186],[-0.55415,47.50065],[-0.55394,47.50049],[-0.55308,47.50024],[-0.55207,47.49984],[-0.55127,47.49973],[-0.55062,47.49954],[-0.54876,47.49844],[-0.54789,47.4981],[-0.5476,47.49793],[-0.54736,47.49768],[-0.54683,47.49691],[-0.546,47.49617],[-0.54522,47.49563],[-0.544,47.49432],[-0.54363,47.4938],[-0.54343,47.49327],[-0.54343,47.49312],[-0.54351,47.49294],[-0.54375,47.49267],[-0.54544,47.49137],[-0.54692,47.49036],[-0.54712,47.49034],[-0.54727,47.49019],[-0.54868,47.48819],[-0.55095,47.48552],[-0.55199,47.48411],[-0.55304,47.48251],[-0.5529,47.48254],[-0.55285,47.48242],[-0.55319,47.48228],[-0.55395,47.48113],[-0.55389,47.48089],[-0.55395,47.48078],[-0.5543,47.4806],[-0.5547,47.48019],[-0.55473,47.48026],[-0.55448,47.48038],[-0.55434,47.48058],[-0.55405,47.48071],[-0.55388,47.48087],[-0.55058,47.47997],[-0.54904,47.47933],[-0.54875,47.47904],[-0.55104,47.47658],[-0.55154,47.47676],[-0.55176,47.47659],[-0.55163,47.47656],[-0.55161,47.47647],[-0.55148,47.4764],[-0.55117,47.47628],[-0.55085,47.47621],[-0.54684,47.47449],[-0.54604,47.47413],[-0.54548,47.47375],[-0.54642,47.47216],[-0.54786,47.47043],[-0.55239,47.46707],[-0.55314,47.4665],[-0.55322,47.46635],[-0.55422,47.46559],[-0.55444,47.46552],[-0.55553,47.4654],[-0.5556,47.46527],[-0.55552,47.46521],[-0.55561,47.46498],[-0.55555,47.4647]]}}]}