{"type":"FeatureCollection","features":[{"type":"Feature","properties":{"day":1,"name":"de Cherbourg-en-Cotentin à Éculleville"},"geometry":{"type":"LineString","coordinates":[[-1.64369,49.64632],[-1.64352,49.64665],[-1.64371,49.64669],[-1.64363,49.64676],[-1.64432,49.64691],[-1.64442,49.64698],[-1.64432,49.64716],[-1.64336,49.64774],[-1.6434,49.64804],[-1.6441,49.64878],[-1.64384,49.64891],[-1.64511,49.65008],[-1.64809,49.65302],[-1.64881,49.65381],[-1.64884,49.65393],[-1.64878,49.65405],[-1.64902,49.65427],[-1.6492,49.65432],[-1.6493,49.6544],[-1.64938,49.65458],[-1.65027,49.65568],[-1.6508,49.65579],[-1.65154,49.65618],[-1.65282,49.65638],[-1.65532,49.65717],[-1.65606,49.65733],[-1.65695,49.65746],[-1.65823,49.65751],[-1.65877,49.65766],[-1.65989,49.65773],[-1.66207,49.65802],[-1.66377,49.65807],[-1.66628,49.65792],[-1.6683,49.65802],[-1.66873,49.65796],[-1.66952,49.65777],[-1.67032,49.65767],[-1.67088,49.65767],[-1.67169,49.65777],[-1.67262,49.65803],[-1.6798,49.66223],[-1.68009,49.66203],[-1.68035,49.66209],[-1.68086,49.66271],[-1.68152,49.66331],[-1.68289,49.66428],[-1.68402,49.66554],[-1.68477,49.66541],[-1.6849,49.66543],[-1.68514,49.66521],[-1.68592,49.66489],[-1.6861,49.66493],[-1.68714,49.66548],[-1.68787,49.66576],[-1.68846,49.66593],[-1.69415,49.66719],[-1.69528,49.66737],[-1.69625,49.66745],[-1.69636,49.66758],[-1.69665,49.66763],[-1.6966,49.66956],[-1.69819,49.66961],[-1.69941,49.66976],[-1.70009,49.66978],[-1.70189,49.67005],[-1.70452,49.67072],[-1.70714,49.67159],[-1.70738,49.67162],[-1.70769,49.67188],[-1.70773,49.67198],[-1.7083,49.67228],[-1.70903,49.67259],[-1.70952,49.6732],[-1.70979,49.6738],[-1.70999,49.674],[-1.71041,49.67425],[-1.71097,49.67469],[-1.71169,49.67558],[-1.71192,49.67607],[-1.71189,49.67632],[-1.71137,49.67698],[-1.71147,49.67717],[-1.71194,49.6777],[-1.71207,49.67804],[-1.71225,49.67813],[-1.71316,49.67813],[-1.71347,49.67821],[-1.71354,49.67826],[-1.71353,49.67831],[-1.71418,49.67854],[-1.71496,49.67872],[-1.71505,49.6788],[-1.7159,49.67892],[-1.71654,49.67911],[-1.71706,49.67944],[-1.71733,49.67952],[-1.7182,49.67965],[-1.71957,49.67952],[-1.7201,49.67936],[-1.72169,49.6786],[-1.72293,49.67832],[-1.72381,49.67804],[-1.72482,49.6778],[-1.72893,49.67716],[-1.73205,49.67704],[-1.73598,49.67715],[-1.73617,49.67707],[-1.73647,49.67668],[-1.73702,49.67677],[-1.73794,49.67666],[-1.73822,49.67666],[-1.74032,49.67709],[-1.74035,49.67702],[-1.7411,49.67725],[-1.7414,49.67729],[-1.7415,49.67735],[-1.7426,49.67748],[-1.74276,49.67757],[-1.74299,49.6779],[-1.74324,49.67808],[-1.74362,49.67804],[-1.74381,49.67809],[-1.74447,49.67799],[-1.74615,49.6782],[-1.74789,49.6781],[-1.75,49.67806],[-1.75098,49.67798],[-1.7511,49.67792],[-1.75149,49.67721],[-1.75162,49.67726],[-1.75143,49.67759],[-1.7513,49.67798],[-1.75219,49.67813],[-1.75226,49.67809],[-1.75344,49.67817],[-1.75503,49.67813],[-1.7571,49.67788],[-1.75736,49.678],[-1.75821,49.67788],[-1.75864,49.67791],[-1.75915,49.67788],[-1.75926,49.6779],[-1.75956,49.67808],[-1.76022,49.67789],[-1.76118,49.67807],[-1.76169,49.67824],[-1.76193,49.67827],[-1.76256,49.67827],[-1.76302,49.67822],[-1.76368,49.67859],[-1.76429,49.67879],[-1.76517,49.67885],[-1.76778,49.67948],[-1.76896,49.67953],[-1.76955,49.67967],[-1.76987,49.67968],[-1.76995,49.67974],[-1.77013,49.67975],[-1.77041,49.6797],[-1.77069,49.67956],[-1.77142,49.67936],[-1.77226,49.67933],[-1.7727,49.67937],[-1.77377,49.67976],[-1.77473,49.68034],[-1.77605,49.68102],[-1.77651,49.68118],[-1.77733,49.68134],[-1.77754,49.68129],[-1.77794,49.68131],[-1.77845,49.68148],[-1.77857,49.68156],[-1.7788,49.68199],[-1.77917,49.68213],[-1.77946,49.68235],[-1.78004,49.68255],[-1.78084,49.6827],[-1.78109,49.68279],[-1.78142,49.68282],[-1.78158,49.68291],[-1.78183,49.68296],[-1.78282,49.68342],[-1.78292,49.68358],[-1.7829,49.68366],[-1.78306,49.68386],[-1.78323,49.684],[-1.78367,49.68422],[-1.78436,49.6844],[-1.78458,49.68454],[-1.78567,49.68447],[-1.78555,49.68472],[-1.78616,49.68515],[-1.7866,49.68523],[-1.78696,49.68543],[-1.78772,49.68561],[-1.78841,49.6857],[-1.78872,49.68563],[-1.7891,49.68572],[-1.78928,49.6857],[-1.78927,49.68576],[-1.7896,49.68592],[-1.78995,49.68622],[-1.79028,49.68624],[-1.79079,49.68644],[-1.7915,49.6864],[-1.79177,49.68631],[-1.79225,49.68632],[-1.79318,49.68615],[-1.79341,49.68615],[-1.79368,49.68619],[-1.7942,49.68644],[-1.79447,49.68649],[-1.7949,49.68654],[-1.79516,49.68648],[-1.79532,49.68652],[-1.79572,49.6865],[-1.79591,49.68671],[-1.79588,49.68678],[-1.79611,49.68695],[-1.79626,49.68697],[-1.79692,49.68729],[-1.79739,49.68762],[-1.79774,49.68772],[-1.79868,49.68786],[-1.79903,49.68788],[-1.79953,49.68785],[-1.80135,49.6876],[-1.80182,49.68738],[-1.80274,49.68735],[-1.80337,49.68748],[-1.80453,49.68754],[-1.80499,49.68753],[-1.80519,49.68746],[-1.80547,49.68745],[-1.80597,49.68747],[-1.80636,49.68755],[-1.80654,49.68765],[-1.80711,49.6878],[-1.80723,49.68792],[-1.8077,49.68809],[-1.80811,49.68809],[-1.80841,49.68815],[-1.80852,49.6885],[-1.8086,49.68857],[-1.80871,49.68858],[-1.8088,49.68875],[-1.8091,49.68893],[-1.80942,49.68899],[-1.80967,49.68911],[-1.81025,49.68907],[-1.81078,49.68892],[-1.81129,49.68893],[-1.81139,49.68889],[-1.81259,49.68904],[-1.81345,49.68905],[-1.81387,49.68891],[-1.81397,49.68876],[-1.81441,49.68868],[-1.81449,49.68852],[-1.81467,49.68848],[-1.81474,49.68819],[-1.81474,49.68798],[-1.81465,49.68789],[-1.81454,49.6873],[-1.81364,49.68677],[-1.8134,49.68634],[-1.81278,49.68556],[-1.81248,49.6854],[-1.81175,49.68539],[-1.81116,49.68523],[-1.81065,49.68519],[-1.81021,49.68485],[-1.81004,49.68478],[-1.80974,49.68444],[-1.80942,49.68346],[-1.80922,49.68315],[-1.80913,49.68261],[-1.80897,49.68222],[-1.81035,49.68202],[-1.81045,49.68193],[-1.8103,49.68165],[-1.81069,49.68039],[-1.81109,49.68047]]}},{"type":"Feature","properties":{"day":2,"name":"[GR 34 LOVE TOUR 2023] Jour 2 : des Ricochets à Hotel du Cap"},"geometry":{"type":"LineString","coordinates":[[-1.81071,49.68045],[-1.81057,49.68082],[-1.81061,49.68091],[-1.81034,49.68155],[-1.8105,49.68201],[-1.81028,49.68212],[-1.80999,49.68209],[-1.80914,49.68221],[-1.80905,49.68229],[-1.8092,49.68275],[-1.80923,49.68305],[-1.80926,49.68315],[-1.80937,49.68321],[-1.80954,49.68401],[-1.80975,49.68447],[-1.80994,49.68471],[-1.81028,49.68489],[-1.81066,49.68518],[-1.81079,49.68523],[-1.81124,49.68527],[-1.81164,49.68541],[-1.8122,49.68538],[-1.81259,49.68544],[-1.81305,49.68577],[-1.81319,49.68613],[-1.81334,49.68617],[-1.81347,49.68634],[-1.81356,49.68662],[-1.81369,49.68681],[-1.81451,49.68721],[-1.81457,49.68731],[-1.81468,49.68788],[-1.8148,49.68793],[-1.81484,49.68821],[-1.81471,49.68847],[-1.81477,49.68866],[-1.81487,49.68872],[-1.8156,49.68887],[-1.81596,49.68903],[-1.81614,49.68918],[-1.81656,49.68926],[-1.81659,49.6895],[-1.81665,49.68959],[-1.81689,49.68969],[-1.81703,49.6897],[-1.81732,49.68965],[-1.81804,49.6897],[-1.81862,49.6896],[-1.819,49.68975],[-1.81943,49.68985],[-1.81978,49.69005],[-1.81991,49.69001],[-1.82003,49.6902],[-1.82096,49.69047],[-1.82124,49.69051],[-1.821,49.68969],[-1.82167,49.68956],[-1.82241,49.68979],[-1.82222,49.6898],[-1.82215,49.68988],[-1.82216,49.6897],[-1.82204,49.68977],[-1.82203,49.68986],[-1.82247,49.68994],[-1.82273,49.69003],[-1.82333,49.69001],[-1.82429,49.69021],[-1.82471,49.6905],[-1.82531,49.69082],[-1.82581,49.69124],[-1.82579,49.69171],[-1.82569,49.6919],[-1.82577,49.69198],[-1.82573,49.69223],[-1.82584,49.6923],[-1.8265,49.69252],[-1.82696,49.69255],[-1.82753,49.69251],[-1.82767,49.69254],[-1.82789,49.69266],[-1.82892,49.69358],[-1.82907,49.6936],[-1.82915,49.69353],[-1.82907,49.69336],[-1.82895,49.69342],[-1.82882,49.69291],[-1.82793,49.69292],[-1.82743,49.6932],[-1.82856,49.69506],[-1.82941,49.69429],[-1.82954,49.69433],[-1.82959,49.69442],[-1.82972,49.69445],[-1.82969,49.69491],[-1.8292,49.6956],[-1.82917,49.69581],[-1.82919,49.69604],[-1.8294,49.69661],[-1.82999,49.69755],[-1.8298,49.6981],[-1.82986,49.69821],[-1.83054,49.69838],[-1.83098,49.6984],[-1.83215,49.6988],[-1.83262,49.69916],[-1.83285,49.69951],[-1.83299,49.70047],[-1.83262,49.70109],[-1.83261,49.70157],[-1.83279,49.70176],[-1.83238,49.70276],[-1.83238,49.70294],[-1.8324,49.70285],[-1.83254,49.70283],[-1.83268,49.70286],[-1.83382,49.70283],[-1.8341,49.70289],[-1.83468,49.70292],[-1.83528,49.70322],[-1.83545,49.70338],[-1.83553,49.70328],[-1.83564,49.70334],[-1.83577,49.70352],[-1.83575,49.70362],[-1.83588,49.70389],[-1.83606,49.70483],[-1.83641,49.70546],[-1.83641,49.70612],[-1.8362,49.70657],[-1.83602,49.70673],[-1.83603,49.70682],[-1.83637,49.70701],[-1.83641,49.7071],[-1.83635,49.7074],[-1.83672,49.70756],[-1.83722,49.70791],[-1.83735,49.70795],[-1.83775,49.70866],[-1.83783,49.70894],[-1.83854,49.70967],[-1.83885,49.71009],[-1.83912,49.71021],[-1.83932,49.71046],[-1.83947,49.71111],[-1.83967,49.71125],[-1.8398,49.71129],[-1.83994,49.71125],[-1.84019,49.71136],[-1.84032,49.71133],[-1.84047,49.71135],[-1.84051,49.71144],[-1.84073,49.71156],[-1.84082,49.71173],[-1.84184,49.71182],[-1.84235,49.71199],[-1.84306,49.71249],[-1.84323,49.7125],[-1.84371,49.71228],[-1.84424,49.71213],[-1.84467,49.71208],[-1.84539,49.71212],[-1.84554,49.7121],[-1.84564,49.71202],[-1.84593,49.71202],[-1.84617,49.7119],[-1.84715,49.71214],[-1.84758,49.71214],[-1.84772,49.71219],[-1.84815,49.7122],[-1.84844,49.71226],[-1.84873,49.71225],[-1.84976,49.71278],[-1.85066,49.7131],[-1.85113,49.71333],[-1.85154,49.71361],[-1.85169,49.71379],[-1.85178,49.71406],[-1.85151,49.71399],[-1.85168,49.71401],[-1.85191,49.71412],[-1.85199,49.71429],[-1.85216,49.71427],[-1.85269,49.71527],[-1.85262,49.71536],[-1.85248,49.71536],[-1.85251,49.71573],[-1.85232,49.71589],[-1.85218,49.71584],[-1.85192,49.71607],[-1.85267,49.71653],[-1.85263,49.71644],[-1.85271,49.71637],[-1.85342,49.71609],[-1.85441,49.71587],[-1.85501,49.71583],[-1.85632,49.71595],[-1.85645,49.71599],[-1.85673,49.71621],[-1.85765,49.71638],[-1.8579,49.71649],[-1.85819,49.71653],[-1.85808,49.71671],[-1.85838,49.71628],[-1.85851,49.71623],[-1.85875,49.71599],[-1.85849,49.71514],[-1.85877,49.7148],[-1.85899,49.71467],[-1.85924,49.71455],[-1.86,49.71439],[-1.86008,49.71446],[-1.86023,49.7145],[-1.86037,49.71448],[-1.86061,49.71457],[-1.8609,49.71461],[-1.86117,49.71477],[-1.86163,49.71487],[-1.86193,49.71488],[-1.86219,49.71479],[-1.86251,49.71459],[-1.86291,49.71369],[-1.863,49.71362],[-1.86374,49.7133],[-1.86373,49.7132],[-1.8649,49.71307],[-1.86502,49.71312],[-1.86515,49.71308],[-1.86525,49.7129],[-1.86536,49.71284],[-1.86536,49.71266],[-1.8658,49.71227],[-1.86634,49.71192],[-1.86672,49.71177],[-1.86694,49.71151],[-1.86706,49.71145],[-1.86715,49.71127],[-1.86751,49.71098],[-1.86828,49.71053],[-1.8683,49.71044],[-1.86865,49.71027],[-1.86871,49.71008],[-1.86879,49.71],[-1.86944,49.70957],[-1.87046,49.70902],[-1.87092,49.70854],[-1.8714,49.70815],[-1.87315,49.70739],[-1.87356,49.70728],[-1.87417,49.70702],[-1.87553,49.70669],[-1.87576,49.70658],[-1.87762,49.70623],[-1.87894,49.70605],[-1.87898,49.70617],[-1.87884,49.70637],[-1.87831,49.70641],[-1.87739,49.70634],[-1.87736,49.70605],[-1.87748,49.70596],[-1.87837,49.70576],[-1.87945,49.7058],[-1.87986,49.70572],[-1.88014,49.70578],[-1.88129,49.70578],[-1.88142,49.70582],[-1.88219,49.70576],[-1.88467,49.70582],[-1.88511,49.70589],[-1.88583,49.70589],[-1.88641,49.70595],[-1.88791,49.70618],[-1.88888,49.70642],[-1.88926,49.70657],[-1.88941,49.70651],[-1.88981,49.70663],[-1.89075,49.70726],[-1.8912,49.70838],[-1.89117,49.70847],[-1.89129,49.70864],[-1.89194,49.70917],[-1.89253,49.70945],[-1.89367,49.70964],[-1.8946,49.70994],[-1.89536,49.71039],[-1.89577,49.71079],[-1.89612,49.71096],[-1.89627,49.71098],[-1.89669,49.71126],[-1.89776,49.71249],[-1.89773,49.71372],[-1.89762,49.71384],[-1.89715,49.71365],[-1.89681,49.71397],[-1.89664,49.71424],[-1.89645,49.71439],[-1.89631,49.71466],[-1.89611,49.7148],[-1.89607,49.71517],[-1.89587,49.71542],[-1.89586,49.7156],[-1.89573,49.71563],[-1.89563,49.71572],[-1.89576,49.71601],[-1.89623,49.7165],[-1.89674,49.71671],[-1.897,49.71597],[-1.89693,49.71578],[-1.89679,49.71595],[-1.89677,49.7161],[-1.89678,49.71601],[-1.89686,49.71618],[-1.89671,49.71674],[-1.8968,49.71681],[-1.89782,49.71684],[-1.89789,49.71693],[-1.89818,49.71697],[-1.89816,49.71706],[-1.89837,49.7172],[-1.8984,49.7173],[-1.89896,49.7176],[-1.89939,49.71767],[-1.89992,49.71816],[-1.90005,49.71818],[-1.90025,49.71833],[-1.9004,49.71838],[-1.90173,49.71842],[-1.90317,49.71869],[-1.90337,49.71894],[-1.90403,49.71943],[-1.90411,49.71961],[-1.904,49.71989],[-1.90405,49.72028],[-1.90434,49.72082],[-1.90445,49.72089],[-1.90486,49.72098],[-1.90528,49.72101],[-1.90559,49.72108],[-1.90594,49.72127],[-1.90679,49.72142],[-1.90739,49.72141],[-1.90779,49.72129],[-1.90784,49.7212],[-1.90869,49.72104],[-1.90899,49.72104],[-1.90912,49.72099],[-1.90985,49.72106],[-1.91198,49.72145],[-1.91229,49.72166],[-1.91244,49.72182],[-1.91254,49.72221],[-1.91267,49.72237],[-1.91252,49.72237],[-1.91287,49.72257],[-1.91359,49.7233],[-1.91417,49.72373],[-1.9157,49.72417],[-1.91578,49.72425],[-1.91577,49.72435],[-1.91626,49.72454],[-1.91707,49.72496],[-1.91811,49.72504],[-1.91848,49.72515],[-1.91906,49.72519],[-1.91935,49.72516],[-1.92017,49.72539],[-1.92026,49.72547],[-1.92065,49.72558],[-1.92072,49.72566],[-1.92144,49.72579],[-1.92168,49.72592],[-1.92208,49.72633],[-1.92283,49.72636],[-1.9234,49.72628],[-1.9237,49.72627],[-1.92383,49.72632],[-1.92426,49.72632],[-1.92483,49.72643],[-1.92499,49.72653],[-1.92527,49.72658],[-1.9259,49.72684],[-1.92609,49.72683],[-1.92634,49.72673],[-1.92639,49.72663],[-1.92668,49.7266],[-1.92732,49.72639],[-1.92833,49.72639],[-1.92878,49.72614],[-1.92904,49.72609],[-1.92979,49.72579],[-1.92992,49.72582],[-1.9302,49.7258],[-1.93048,49.72584],[-1.93096,49.72606],[-1.93111,49.72607],[-1.93111,49.72617],[-1.93144,49.72618],[-1.9318,49.72596],[-1.93194,49.72592],[-1.93339,49.72609],[-1.93408,49.72644],[-1.93417,49.72681],[-1.93443,49.72688],[-1.93492,49.72641],[-1.93556,49.72618],[-1.9357,49.72618],[-1.93606,49.72603],[-1.93619,49.726],[-1.93659,49.72603],[-1.93671,49.72598],[-1.93712,49.72546],[-1.93761,49.72499],[-1.93774,49.72504],[-1.9378,49.72513],[-1.93791,49.72562],[-1.93821,49.72615],[-1.93851,49.72613],[-1.93869,49.72631],[-1.93882,49.72635],[-1.93972,49.72634],[-1.94013,49.72623],[-1.94034,49.72623],[-1.94024,49.72634],[-1.94026,49.72614],[-1.94097,49.7258],[-1.94117,49.72554],[-1.94128,49.72548],[-1.94141,49.72551],[-1.94169,49.72489],[-1.94244,49.72431],[-1.94267,49.7242],[-1.94317,49.72385],[-1.94315,49.72328],[-1.94325,49.72311],[-1.94327,49.72283],[-1.94341,49.72273],[-1.94336,49.71473],[-1.94325,49.71446],[-1.94322,49.71401],[-1.94335,49.71345],[-1.94329,49.71335],[-1.94255,49.7133],[-1.9404,49.71284],[-1.94013,49.71274],[-1.93955,49.71269],[-1.93944,49.71241],[-1.94009,49.71149],[-1.93994,49.71151],[-1.93944,49.71189],[-1.93929,49.7119],[-1.93845,49.7117],[-1.93771,49.71177],[-1.93599,49.71171],[-1.93588,49.71177],[-1.93367,49.71158],[-1.93321,49.71157],[-1.9325,49.71168],[-1.93196,49.71155],[-1.93194,49.71146],[-1.93211,49.71118],[-1.93194,49.71121],[-1.93196,49.71109],[-1.93218,49.71085],[-1.93219,49.71066],[-1.9323,49.7106],[-1.93254,49.71069],[-1.93298,49.71072],[-1.93311,49.71077],[-1.93317,49.71069],[-1.93331,49.71067]]}},{"type":"Feature","properties":{"day":3,"name":"[GR 34 LOVE TOUR 2023] Jour 2 : de l'hotel du cap à l'auberge du Cotentin"},"geometry":{"type":"LineString","coordinates":[[-1.93323,49.71066],[-1.93313,49.7106],[-1.93221,49.71057],[-1.93214,49.71049],[-1.93212,49.70925],[-1.93224,49.7092],[-1.93282,49.70924],[-1.93326,49.70922],[-1.9342,49.70862],[-1.93512,49.70763],[-1.93541,49.70759],[-1.93688,49.70762],[-1.93749,49.70738],[-1.93817,49.70725],[-1.9388,49.70661],[-1.93907,49.70654],[-1.93935,49.7066],[-1.93987,49.70694],[-1.94028,49.70709],[-1.94057,49.70711],[-1.94144,49.70705],[-1.94171,49.70712],[-1.94209,49.70753],[-1.94324,49.70829],[-1.94363,49.7084],[-1.94425,49.70882],[-1.94452,49.7089],[-1.94466,49.70889],[-1.94479,49.70884],[-1.94508,49.70881],[-1.945,49.70873],[-1.94526,49.70866],[-1.94551,49.70831],[-1.94558,49.70782],[-1.94598,49.7074],[-1.94649,49.70723],[-1.94673,49.70679],[-1.94675,49.7067],[-1.94661,49.70642],[-1.9467,49.70604],[-1.94664,49.70576],[-1.94687,49.70534],[-1.94653,49.70475],[-1.94623,49.70457],[-1.94621,49.70448],[-1.94417,49.70372],[-1.94373,49.70344],[-1.94364,49.70326],[-1.94369,49.70307],[-1.94387,49.70281],[-1.94471,49.70202],[-1.94451,49.70177],[-1.94397,49.70157],[-1.94381,49.7014],[-1.94374,49.70121],[-1.94377,49.70063],[-1.9434,49.70021],[-1.94316,49.70012],[-1.94301,49.70011],[-1.94326,49.70009],[-1.94345,49.70012],[-1.94346,49.70003],[-1.94315,49.69983],[-1.94303,49.69955],[-1.94276,49.69947],[-1.94271,49.69938],[-1.9423,49.69913],[-1.94221,49.69895],[-1.94229,49.69876],[-1.9427,49.69846],[-1.94273,49.69836],[-1.94311,49.69826],[-1.94312,49.69808],[-1.94305,49.69799],[-1.94273,49.6978],[-1.94231,49.69774],[-1.94182,49.6974],[-1.94156,49.69732],[-1.94097,49.69734],[-1.94068,49.69731],[-1.9404,49.69735],[-1.94011,49.69731],[-1.93952,49.69736],[-1.9391,49.69728],[-1.93806,49.69698],[-1.93785,49.69685],[-1.93732,49.69673],[-1.93663,49.69624],[-1.93648,49.69554],[-1.93619,49.69518],[-1.93608,49.69471],[-1.9361,49.69443],[-1.93578,49.69388],[-1.93562,49.69341],[-1.93565,49.69332],[-1.93559,49.69323],[-1.93536,49.69311],[-1.93558,49.69299],[-1.93559,49.6929],[-1.93554,49.69242],[-1.93533,49.69229],[-1.93547,49.69163],[-1.93542,49.69117],[-1.93528,49.69099],[-1.93522,49.69071],[-1.93506,49.69054],[-1.9351,49.69036],[-1.93503,49.69028],[-1.93476,49.69018],[-1.93477,49.6899],[-1.93457,49.68955],[-1.93469,49.6895],[-1.93476,49.68931],[-1.9349,49.68826],[-1.93543,49.68738],[-1.93605,49.68685],[-1.9366,49.6865],[-1.93745,49.68613],[-1.93811,49.68575],[-1.93816,49.68556],[-1.93806,49.68529],[-1.93824,49.68516],[-1.93852,49.68513],[-1.9377,49.68433],[-1.93685,49.68449],[-1.93699,49.68445],[-1.93712,49.68453],[-1.93727,49.68455],[-1.93728,49.68446],[-1.93738,49.68439],[-1.93756,49.6844],[-1.93797,49.6847],[-1.93794,49.68461],[-1.93804,49.68424],[-1.93831,49.68381],[-1.9383,49.68371],[-1.93817,49.68344],[-1.93777,49.6832],[-1.93768,49.68302],[-1.9377,49.68292],[-1.93825,49.68262],[-1.93832,49.68244],[-1.93844,49.6824],[-1.93872,49.68167],[-1.9389,49.68153],[-1.93926,49.68148],[-1.93976,49.68093],[-1.9407,49.6802],[-1.94125,49.67987],[-1.94145,49.6798],[-1.94174,49.67977],[-1.94268,49.67919],[-1.94341,49.67814],[-1.94359,49.67799],[-1.94356,49.67789],[-1.94377,49.67776],[-1.94397,49.67719],[-1.94467,49.67672],[-1.94498,49.67677],[-1.94525,49.67674],[-1.94528,49.67656],[-1.94513,49.6763],[-1.94513,49.6762],[-1.94508,49.6761],[-1.94482,49.67602],[-1.94488,49.67593],[-1.9448,49.67586],[-1.94443,49.67578],[-1.94399,49.67576],[-1.94346,49.67591],[-1.94318,49.67588],[-1.94294,49.67576],[-1.94252,49.67571],[-1.94223,49.67574],[-1.94213,49.67581],[-1.94155,49.67572],[-1.94113,49.6757],[-1.94064,49.67553],[-1.94021,49.6755],[-1.94008,49.67553],[-1.94002,49.67562],[-1.93989,49.67564],[-1.93955,49.67535],[-1.93915,49.67524],[-1.9388,49.67507],[-1.9387,49.67489],[-1.93874,49.67476],[-1.93869,49.67485],[-1.93854,49.67484],[-1.9384,49.67477],[-1.93825,49.6748],[-1.93816,49.67493],[-1.93786,49.67503],[-1.93733,49.67503],[-1.93704,49.67541],[-1.93841,49.67432],[-1.93801,49.67392],[-1.93771,49.67386],[-1.93767,49.67362],[-1.93775,49.67372],[-1.93761,49.67375],[-1.93719,49.67372],[-1.93707,49.67378],[-1.9362,49.67381],[-1.93597,49.6737],[-1.93563,49.67342],[-1.9354,49.67331],[-1.93525,49.67329],[-1.93468,49.67335],[-1.9343,49.67349],[-1.93367,49.67358],[-1.9331,49.6736],[-1.93267,49.67352],[-1.93255,49.67357],[-1.93242,49.67353],[-1.93228,49.67355],[-1.93221,49.67363],[-1.93185,49.67362],[-1.93165,49.67345],[-1.93152,49.67341],[-1.93138,49.67343],[-1.93119,49.6733],[-1.93037,49.67312],[-1.93016,49.673],[-1.92968,49.67284],[-1.92938,49.67287],[-1.92878,49.67283],[-1.92853,49.67266],[-1.92792,49.67244],[-1.92796,49.67234],[-1.92788,49.67226],[-1.92763,49.67217],[-1.92738,49.67192],[-1.92713,49.67146],[-1.92717,49.67137],[-1.92689,49.67072],[-1.92687,49.67044],[-1.92696,49.67037],[-1.92698,49.67018],[-1.92712,49.67015],[-1.92731,49.67],[-1.92786,49.6697],[-1.92798,49.6698],[-1.92805,49.66963],[-1.92775,49.66961],[-1.92692,49.66978],[-1.92649,49.66978],[-1.92591,49.66988],[-1.92564,49.66979],[-1.92553,49.66985],[-1.92562,49.66963],[-1.92542,49.66978],[-1.9255,49.66962],[-1.92562,49.66956],[-1.92538,49.66946],[-1.92534,49.66931],[-1.92508,49.66937],[-1.92471,49.66931],[-1.92451,49.66917],[-1.92426,49.66909],[-1.92351,49.669],[-1.92334,49.66885],[-1.92261,49.66851],[-1.92236,49.66828],[-1.92174,49.66786],[-1.92138,49.66771],[-1.92126,49.66806],[-1.92112,49.6681],[-1.92099,49.66826],[-1.92078,49.66838],[-1.92064,49.66835],[-1.92035,49.66813],[-1.91932,49.66779],[-1.91901,49.66782],[-1.91875,49.66778],[-1.91862,49.66781],[-1.91815,49.66775],[-1.91787,49.66768],[-1.91778,49.66761],[-1.91745,49.6675],[-1.91644,49.66753],[-1.91633,49.66759],[-1.91589,49.66761],[-1.91579,49.66754],[-1.91551,49.66748],[-1.91514,49.66733],[-1.91485,49.66728],[-1.91479,49.6672],[-1.9146,49.66716],[-1.91473,49.66703],[-1.9154,49.66708],[-1.9162,49.66734],[-1.91547,49.66737],[-1.91507,49.66725],[-1.9143,49.66713],[-1.91383,49.66696],[-1.9134,49.66687],[-1.9127,49.66674],[-1.91223,49.66671],[-1.91208,49.66673],[-1.912,49.66681],[-1.91109,49.66703],[-1.91071,49.66717],[-1.91057,49.66716],[-1.91036,49.66704],[-1.90976,49.667],[-1.90831,49.66731],[-1.90802,49.66733],[-1.90775,49.66728],[-1.90741,49.66739],[-1.90697,49.66741],[-1.90626,49.6675],[-1.906,49.66759],[-1.90587,49.66754],[-1.9057,49.6677],[-1.90565,49.66779],[-1.9057,49.66787],[-1.90556,49.66803],[-1.90541,49.66804],[-1.90518,49.66795],[-1.90501,49.66793],[-1.90476,49.66804],[-1.90463,49.668],[-1.90437,49.66808],[-1.90422,49.66807],[-1.90394,49.66799],[-1.90388,49.66774],[-1.90322,49.66751],[-1.90281,49.66741],[-1.90229,49.66709],[-1.90197,49.66702],[-1.90188,49.66695],[-1.90123,49.66706],[-1.9009,49.66688],[-1.90027,49.66673],[-1.89956,49.66684],[-1.89926,49.66683],[-1.89829,49.66665],[-1.89801,49.66642],[-1.89805,49.66633],[-1.89794,49.66627],[-1.8978,49.66626],[-1.89772,49.66608],[-1.89759,49.66607],[-1.89752,49.66599],[-1.89715,49.66586],[-1.89686,49.66589],[-1.89644,49.66582],[-1.89613,49.66583],[-1.89587,49.66577],[-1.89552,49.6656],[-1.89543,49.66523],[-1.89525,49.66495],[-1.89519,49.66486],[-1.89493,49.66477],[-1.89364,49.66466],[-1.89339,49.66457],[-1.89282,49.66454],[-1.89226,49.66445],[-1.89198,49.66451],[-1.89177,49.66465],[-1.89166,49.66458],[-1.89172,49.66423],[-1.89163,49.66405],[-1.89128,49.66387],[-1.89101,49.66364],[-1.89096,49.66345],[-1.89081,49.66329],[-1.89082,49.66318],[-1.89068,49.66314],[-1.89065,49.66302],[-1.89022,49.6629],[-1.88993,49.66269],[-1.8894,49.66212],[-1.88901,49.66201],[-1.88915,49.66199],[-1.88923,49.66182],[-1.88922,49.66191],[-1.88902,49.66203],[-1.88901,49.66213],[-1.88883,49.66211],[-1.88897,49.66213],[-1.88869,49.66217],[-1.8891,49.66202],[-1.88919,49.66195],[-1.88909,49.66159],[-1.88866,49.66158],[-1.8886,49.66149],[-1.88866,49.6614],[-1.88879,49.66135],[-1.88839,49.66107],[-1.88831,49.66089],[-1.88797,49.66058],[-1.88749,49.66034],[-1.88705,49.65984],[-1.88662,49.65982],[-1.88637,49.6599],[-1.88556,49.66],[-1.88498,49.65994],[-1.88443,49.65977],[-1.8837,49.65965],[-1.88357,49.65937],[-1.88337,49.65924],[-1.88339,49.65913],[-1.88245,49.65907],[-1.88162,49.65897],[-1.88125,49.65897],[-1.88087,49.65905],[-1.88115,49.65896],[-1.88151,49.65898],[-1.88227,49.65893],[-1.88216,49.65886],[-1.88142,49.65884],[-1.88087,49.65894],[-1.87995,49.65925],[-1.87879,49.6594],[-1.878,49.65961],[-1.87668,49.65971],[-1.87631,49.65956],[-1.87626,49.65948],[-1.87573,49.65931],[-1.87509,49.6592],[-1.8741,49.65863],[-1.87346,49.65835],[-1.87287,49.65835],[-1.87231,49.65848],[-1.87203,49.65846],[-1.87183,49.65823],[-1.87195,49.65767],[-1.87188,49.65759],[-1.87113,49.65714],[-1.87074,49.65684],[-1.87065,49.65666],[-1.87031,49.65646],[-1.87019,49.65641],[-1.86975,49.65644],[-1.86961,49.65639],[-1.86928,49.65608],[-1.86864,49.6558],[-1.86779,49.65529],[-1.86683,49.65492],[-1.86676,49.65484],[-1.86685,49.65457],[-1.86678,49.65448],[-1.86632,49.65422],[-1.86616,49.65405],[-1.86611,49.65387],[-1.86582,49.6535],[-1.86489,49.65277],[-1.86474,49.65277],[-1.8645,49.65267],[-1.86416,49.65232],[-1.86388,49.65226],[-1.86295,49.65177],[-1.86175,49.65138],[-1.86138,49.6512],[-1.86138,49.65108],[-1.85947,49.65038],[-1.85945,49.65029],[-1.85916,49.65007],[-1.85887,49.64974],[-1.85825,49.64919],[-1.85738,49.64883],[-1.85716,49.64869],[-1.85684,49.64848],[-1.85599,49.64769],[-1.85556,49.64743],[-1.85506,49.64725],[-1.8542,49.64714],[-1.8537,49.64696],[-1.8534,49.64666],[-1.85325,49.64665],[-1.85335,49.64671],[-1.85326,49.64654],[-1.85297,49.64633],[-1.85284,49.64637],[-1.85259,49.64628],[-1.85249,49.6461],[-1.85231,49.64596],[-1.85189,49.64584],[-1.85174,49.64582],[-1.85164,49.64589],[-1.85149,49.64588],[-1.85126,49.64601],[-1.85112,49.64601],[-1.85102,49.64608],[-1.851,49.64625],[-1.85083,49.64653],[-1.85069,49.6465],[-1.85055,49.64623],[-1.85042,49.64529],[-1.85046,49.64511],[-1.8514,49.64438],[-1.85134,49.6442],[-1.85135,49.64402],[-1.85163,49.64357],[-1.85161,49.64347],[-1.85126,49.64303],[-1.85126,49.64292],[-1.85085,49.64263],[-1.84976,49.64161],[-1.84956,49.64127],[-1.84922,49.64109],[-1.84821,49.64012],[-1.84792,49.63898],[-1.84791,49.63791],[-1.84786,49.63773],[-1.84774,49.63767],[-1.84768,49.63775],[-1.84783,49.63766],[-1.84768,49.63741],[-1.8474,49.63734],[-1.84564,49.6372],[-1.84529,49.6369],[-1.84508,49.63691],[-1.84421,49.63707],[-1.84158,49.63735],[-1.84045,49.63755],[-1.84015,49.63754],[-1.84028,49.63761],[-1.8388,49.63769],[-1.83868,49.63762],[-1.83769,49.63779],[-1.83754,49.63777],[-1.83435,49.63807],[-1.83365,49.63823],[-1.83322,49.63826],[-1.83282,49.63837],[-1.83146,49.63764],[-1.83089,49.63707],[-1.83075,49.63706],[-1.83063,49.63695],[-1.83061,49.63686],[-1.83025,49.63656],[-1.82965,49.63629],[-1.82953,49.63625],[-1.82937,49.63629],[-1.82928,49.63622],[-1.82912,49.63622],[-1.8281,49.63634],[-1.82647,49.63634],[-1.82434,49.63547],[-1.82378,49.63538],[-1.82303,49.63508],[-1.82264,49.63499],[-1.82112,49.63441],[-1.82089,49.63428],[-1.82062,49.63421],[-1.82035,49.63425],[-1.82002,49.63414],[-1.81992,49.63421],[-1.81939,49.63434],[-1.81924,49.6345],[-1.81878,49.6348],[-1.81837,49.6349],[-1.81827,49.63485],[-1.81782,49.63507],[-1.81693,49.63513],[-1.81623,49.63524],[-1.81571,49.63542],[-1.81529,49.63569],[-1.81477,49.63587],[-1.81362,49.63613],[-1.81339,49.63626],[-1.81324,49.63627],[-1.81311,49.63624],[-1.81146,49.63622],[-1.81131,49.63618],[-1.81093,49.63567],[-1.81094,49.63529],[-1.81085,49.63522],[-1.80997,49.63512],[-1.80949,49.63547],[-1.8093,49.63592],[-1.80873,49.6367],[-1.80842,49.63744],[-1.80832,49.63752],[-1.80778,49.63757],[-1.8072,49.63756],[-1.80606,49.63776],[-1.80561,49.63777],[-1.80501,49.63785],[-1.80472,49.63786],[-1.80463,49.63779],[-1.80449,49.63781],[-1.80392,49.63791],[-1.80296,49.63817],[-1.80193,49.63819],[-1.80067,49.63848],[-1.79908,49.63875],[-1.79849,49.63872],[-1.79704,49.63883],[-1.79337,49.63892],[-1.79317,49.63886],[-1.79334,49.63882],[-1.79322,49.63875],[-1.79309,49.63894],[-1.79297,49.63901],[-1.79208,49.63897],[-1.7915,49.639],[-1.79138,49.63905],[-1.79046,49.63901],[-1.78854,49.63908],[-1.78752,49.63917],[-1.78558,49.6392],[-1.785,49.63926],[-1.78409,49.63954],[-1.78321,49.63964],[-1.78212,49.63995],[-1.78138,49.64002],[-1.78018,49.64001],[-1.77976,49.63989],[-1.77875,49.63934],[-1.77748,49.63883],[-1.77601,49.63891],[-1.77551,49.63846],[-1.77536,49.63844],[-1.77507,49.6385],[-1.77495,49.63845],[-1.77455,49.63805],[-1.77425,49.63802],[-1.77377,49.63826],[-1.77311,49.63848],[-1.77268,49.63873],[-1.772,49.63893],[-1.77113,49.63927],[-1.7703,49.63955],[-1.76989,49.63964],[-1.76959,49.63958],[-1.76978,49.63983],[-1.76977,49.63993],[-1.76947,49.63973],[-1.76934,49.6397],[-1.76921,49.6398],[-1.76881,49.6399],[-1.76776,49.6404],[-1.76741,49.6407],[-1.76679,49.64098],[-1.76539,49.64184],[-1.76457,49.64209],[-1.76434,49.6422],[-1.76418,49.64246],[-1.76406,49.64251],[-1.76352,49.6425],[-1.76273,49.64274],[-1.76259,49.64272],[-1.76206,49.64291],[-1.76125,49.64329],[-1.76004,49.64365],[-1.75905,49.64387],[-1.75921,49.64388],[-1.75907,49.64393],[-1.75861,49.64396],[-1.75811,49.64416],[-1.75783,49.64413],[-1.75774,49.64406],[-1.75728,49.64406],[-1.75655,49.6442],[-1.75608,49.64423],[-1.75552,49.64435],[-1.75477,49.64443],[-1.75353,49.64473],[-1.75293,49.64466],[-1.75249,49.6447],[-1.75109,49.64497],[-1.75099,49.64505],[-1.75042,49.6451],[-1.75028,49.64507],[-1.74946,49.64529],[-1.74937,49.64536],[-1.74952,49.64541]]}},{"type":"Feature","properties":{"day":4,"name":"[GR 34 LOVE TOUR 2023] Jour 4 : de \"Chez Odile\" à Cherbourg"},"geometry":{"type":"LineString","coordinates":[[-1.74932,49.64521],[-1.74913,49.64533],[-1.74843,49.64546],[-1.74844,49.64555],[-1.74726,49.64559],[-1.74654,49.64568],[-1.74463,49.6458],[-1.74348,49.64601],[-1.74199,49.64603],[-1.74097,49.64596],[-1.7381,49.64592],[-1.73753,49.64586],[-1.73738,49.64589],[-1.73709,49.64582],[-1.73417,49.64554],[-1.73204,49.64512],[-1.73015,49.64453],[-1.72974,49.64449],[-1.7281,49.64367],[-1.72784,49.64361],[-1.72748,49.64343],[-1.72538,49.64291],[-1.72496,49.64264],[-1.72463,49.64234],[-1.72413,49.64174],[-1.72354,49.64147],[-1.72342,49.6413],[-1.72299,49.6409],[-1.72253,49.64067],[-1.72246,49.64058],[-1.72102,49.64009],[-1.72066,49.63992],[-1.72047,49.63994],[-1.72035,49.64],[-1.71981,49.64033],[-1.71777,49.64142],[-1.71764,49.64145],[-1.71723,49.64115],[-1.71694,49.64113],[-1.71626,49.64151],[-1.7151,49.64196],[-1.71402,49.64223],[-1.71281,49.64261],[-1.71254,49.64263],[-1.71229,49.64253],[-1.71169,49.64212],[-1.71103,49.64145],[-1.71066,49.64072],[-1.71052,49.63995],[-1.71012,49.63954],[-1.71009,49.63944],[-1.70959,49.63897],[-1.70932,49.63853],[-1.70933,49.63844],[-1.70919,49.63842],[-1.709,49.63814],[-1.70896,49.63796],[-1.70867,49.63775],[-1.7086,49.63745],[-1.7078,49.63643],[-1.70757,49.63632],[-1.70665,49.63555],[-1.70662,49.63528],[-1.70614,49.63481],[-1.70594,49.63468],[-1.70563,49.63402],[-1.70539,49.63368],[-1.70521,49.63352],[-1.70464,49.63321],[-1.70411,49.63256],[-1.70412,49.63247],[-1.7038,49.63215],[-1.7038,49.63196],[-1.70358,49.63152],[-1.70326,49.6305],[-1.70302,49.63014],[-1.703,49.62994],[-1.70398,49.62958],[-1.70437,49.62919],[-1.70159,49.62852],[-1.7002,49.62887],[-1.69901,49.62884],[-1.69874,49.62878],[-1.6983,49.62839],[-1.69818,49.62834],[-1.69728,49.6283],[-1.697,49.62834],[-1.69639,49.62859],[-1.69572,49.62896],[-1.69531,49.62924],[-1.69418,49.63024],[-1.69426,49.63033],[-1.69366,49.63033],[-1.69319,49.63028],[-1.6912,49.63019],[-1.69048,49.63009],[-1.68898,49.63014],[-1.68822,49.63007],[-1.68787,49.62989],[-1.68681,49.62868],[-1.68651,49.62848],[-1.68613,49.62835],[-1.68573,49.62795],[-1.68543,49.62787],[-1.685,49.62781],[-1.68471,49.62787],[-1.68443,49.62781],[-1.68307,49.62777],[-1.68261,49.62753],[-1.68151,49.62783],[-1.68103,49.62787],[-1.68091,49.62783],[-1.6805,49.62796],[-1.67995,49.62804],[-1.67952,49.62799],[-1.67906,49.62805],[-1.67897,49.62812],[-1.67867,49.62818],[-1.67778,49.62811],[-1.67713,49.62791],[-1.67698,49.6279],[-1.67683,49.62791],[-1.67647,49.62808],[-1.67603,49.62814],[-1.67628,49.62891],[-1.67625,49.62919],[-1.67607,49.62934],[-1.67552,49.62948],[-1.67492,49.62953],[-1.67406,49.62942],[-1.67393,49.62946],[-1.67367,49.62968],[-1.67348,49.63015],[-1.67334,49.63019],[-1.67142,49.62976],[-1.67128,49.6298],[-1.67107,49.63016],[-1.67081,49.63092],[-1.67064,49.63107],[-1.67011,49.63137],[-1.66659,49.63037],[-1.66649,49.6303],[-1.66621,49.63038],[-1.66599,49.6305],[-1.66558,49.63059],[-1.6651,49.63083],[-1.66482,49.63091],[-1.66462,49.63105],[-1.66448,49.63106],[-1.66409,49.63134],[-1.66349,49.63165],[-1.66305,49.63169],[-1.66297,49.63176],[-1.66289,49.63206],[-1.66258,49.6326],[-1.66238,49.63274],[-1.66164,49.63276],[-1.66137,49.63271],[-1.66074,49.63281],[-1.66045,49.63281],[-1.65988,49.63273],[-1.65959,49.63277],[-1.65944,49.63277],[-1.65934,49.6327],[-1.65889,49.63269],[-1.6586,49.63272],[-1.65821,49.63287],[-1.6578,49.63296],[-1.65722,49.633],[-1.65709,49.63298],[-1.657,49.63305],[-1.65687,49.63336],[-1.65651,49.63366],[-1.65647,49.63385],[-1.65619,49.6342],[-1.6557,49.63443],[-1.65469,49.63502],[-1.65398,49.63516],[-1.65392,49.63524],[-1.65352,49.63536],[-1.65343,49.63544],[-1.65342,49.63562],[-1.65334,49.63571],[-1.65322,49.63575],[-1.65308,49.63573],[-1.65281,49.63576],[-1.65286,49.63585],[-1.65157,49.63653],[-1.65118,49.63666],[-1.65061,49.63675],[-1.6502,49.63737],[-1.65032,49.63742],[-1.65046,49.63736],[-1.64982,49.63768],[-1.64983,49.63788],[-1.64995,49.63794],[-1.64987,49.63786],[-1.64991,49.63777],[-1.64976,49.63774],[-1.64889,49.63766],[-1.64875,49.63767],[-1.64865,49.63774],[-1.64679,49.64023],[-1.64672,49.64052],[-1.64674,49.641],[-1.64663,49.64126],[-1.64608,49.64173],[-1.64609,49.64182],[-1.64555,49.64197],[-1.64575,49.64184],[-1.64578,49.64192],[-1.64531,49.64217],[-1.64463,49.64279],[-1.64444,49.64304],[-1.64437,49.64332],[-1.64442,49.64352],[-1.64428,49.64369],[-1.64477,49.6448],[-1.64445,49.64524],[-1.64402,49.64551],[-1.64388,49.6455],[-1.64377,49.64557],[-1.64337,49.64585],[-1.64317,49.64609],[-1.64301,49.64636],[-1.64308,49.64646],[-1.64336,49.64655],[-1.64353,49.64655],[-1.64362,49.64647],[-1.64367,49.6463]]}}]}