{"type":"FeatureCollection","features":[{"type":"Feature","properties":{"day":1,"name":"[BRITISH LOVE TOUR] Jour 1 : de Caen à Ouistreham"},"geometry":{"type":"LineString","coordinates":[[-0.34932,49.17744],[-0.35019,49.17714],[-0.35135,49.17663],[-0.35154,49.17661],[-0.35161,49.17668],[-0.35154,49.17655],[-0.35167,49.1765],[-0.35085,49.1757],[-0.35068,49.17546],[-0.35058,49.17552],[-0.35064,49.17538],[-0.35039,49.17519],[-0.35024,49.17533],[-0.35037,49.17544],[-0.3506,49.17551],[-0.35032,49.17562],[-0.35056,49.17552],[-0.35086,49.17571],[-0.35265,49.1775],[-0.35265,49.17771],[-0.35305,49.17808],[-0.35313,49.17822],[-0.34983,49.17972],[-0.34965,49.17991],[-0.34976,49.18008],[-0.34976,49.18033],[-0.34982,49.18041],[-0.35021,49.18053],[-0.35637,49.18362],[-0.35634,49.18375],[-0.35618,49.1838],[-0.35574,49.18415],[-0.35562,49.18416],[-0.35334,49.18303],[-0.35301,49.183],[-0.35249,49.18318],[-0.35201,49.18356],[-0.35128,49.18403],[-0.35038,49.18433],[-0.34984,49.18441],[-0.34858,49.18448],[-0.34095,49.18444],[-0.33931,49.1845],[-0.33762,49.18463],[-0.33599,49.18483],[-0.33482,49.18504],[-0.33434,49.18522],[-0.33263,49.18568],[-0.33141,49.18615],[-0.32895,49.18734],[-0.32739,49.18838],[-0.32602,49.18957],[-0.32559,49.18999],[-0.32495,49.19074],[-0.32421,49.19183],[-0.32313,49.1936],[-0.32302,49.19393],[-0.32261,49.19446],[-0.31776,49.20244],[-0.3156,49.20605],[-0.31564,49.20623],[-0.3159,49.20638],[-0.31561,49.20691],[-0.31515,49.20683],[-0.31507,49.20693],[-0.31152,49.2128],[-0.31145,49.21307],[-0.31117,49.21334],[-0.31081,49.2139],[-0.30678,49.22061],[-0.3062,49.22129],[-0.30526,49.22211],[-0.30422,49.2228],[-0.28596,49.23212],[-0.28276,49.23401],[-0.2812,49.23514],[-0.27946,49.23685],[-0.27875,49.23768],[-0.27595,49.24138],[-0.27514,49.24208],[-0.27457,49.24292],[-0.27437,49.24351],[-0.27225,49.24644],[-0.27187,49.24709],[-0.26685,49.25374],[-0.26649,49.25411],[-0.26528,49.25519],[-0.26478,49.25557],[-0.26388,49.2561],[-0.26276,49.25664],[-0.26133,49.25715],[-0.25885,49.25818],[-0.25803,49.25876],[-0.25694,49.25982],[-0.25518,49.26206],[-0.25392,49.26436],[-0.25223,49.27041],[-0.25221,49.27063],[-0.25234,49.27089],[-0.25215,49.27153],[-0.2522,49.27181],[-0.25201,49.27242],[-0.25182,49.2727],[-0.25172,49.27325],[-0.25085,49.27619],[-0.25041,49.27802],[-0.25027,49.27824],[-0.25013,49.27827],[-0.24969,49.28005],[-0.24968,49.28028],[-0.24972,49.28033],[-0.24994,49.28036],[-0.24971,49.2804],[-0.24962,49.28076],[-0.24964,49.28094],[-0.24986,49.28093],[-0.24976,49.28084],[-0.24977,49.28072],[-0.24966,49.28062],[-0.24972,49.28033],[-0.24967,49.28022],[-0.2499,49.27923],[-0.25,49.27924],[-0.25005,49.279],[-0.25053,49.27893],[-0.2511,49.27898],[-0.25135,49.27882]]}},{"type":"Feature","properties":{"day":2,"name":"[BRITISH LOVE ROAD] Jour 2 : de Portsmouth à Winchester"},"geometry":{"type":"LineString","coordinates":[[-1.09279,50.81234],[-1.09175,50.81296],[-1.09148,50.81305],[-1.09139,50.81317],[-1.09131,50.81357],[-1.091,50.81416],[-1.09071,50.81446],[-1.09026,50.81466],[-1.08997,50.81489],[-1.08973,50.81503],[-1.08868,50.81511],[-1.08762,50.81456],[-1.08743,50.81432],[-1.08737,50.81414],[-1.08739,50.81365],[-1.08726,50.81354],[-1.08693,50.81352],[-1.08669,50.81393],[-1.08628,50.81412],[-1.08602,50.81415],[-1.08573,50.81405],[-1.08527,50.81372],[-1.08547,50.81355],[-1.0855,50.81332],[-1.08544,50.81246],[-1.08526,50.81246],[-1.0853,50.81212],[-1.08569,50.81044],[-1.08586,50.81001],[-1.08593,50.80947],[-1.0861,50.80939],[-1.08622,50.8094],[-1.08689,50.80837],[-1.08696,50.80795],[-1.08717,50.80775],[-1.08764,50.80754],[-1.08771,50.8072],[-1.08716,50.80731],[-1.08703,50.80725],[-1.08694,50.8071],[-1.08687,50.8064],[-1.08661,50.80609],[-1.08661,50.806],[-1.08651,50.80595],[-1.08688,50.80581],[-1.08681,50.80539],[-1.08687,50.80488],[-1.08705,50.80481],[-1.08692,50.80477],[-1.0871,50.80481],[-1.08704,50.80483],[-1.08698,50.80509],[-1.087,50.80542],[-1.08708,50.80551],[-1.08737,50.80563],[-1.08789,50.80533],[-1.08818,50.80536],[-1.0886,50.80515],[-1.08935,50.8049],[-1.08939,50.80484],[-1.08928,50.80488],[-1.09044,50.80415],[-1.09059,50.804],[-1.0909,50.80327],[-1.09232,50.8027],[-1.09259,50.80252],[-1.09313,50.80198],[-1.09342,50.80185],[-1.09344,50.80173],[-1.09366,50.80157],[-1.09346,50.80157],[-1.09316,50.80141],[-1.09304,50.80127],[-1.09283,50.80086],[-1.09241,50.80046],[-1.0924,50.80032],[-1.09249,50.80026],[-1.09771,50.79986],[-1.0995,50.7998],[-1.0996,50.79975],[-1.09962,50.79909],[-1.09977,50.79855],[-1.10025,50.79803],[-1.09996,50.7983],[-1.09992,50.79836],[-1.10001,50.79836],[-1.10141,50.79809],[-1.10548,50.79761],[-1.10572,50.79754],[-1.10588,50.79755],[-1.10655,50.79816],[-1.10748,50.79742],[-1.10774,50.79733],[-1.10796,50.79716],[-1.10858,50.79704],[-1.10934,50.79697],[-1.11381,50.7959],[-1.11574,50.79512],[-1.11603,50.79508],[-1.11674,50.79477],[-1.11802,50.79489],[-1.11813,50.79482],[-1.11837,50.79445],[-1.11863,50.79423],[-1.11896,50.79411],[-1.11927,50.79409],[-1.12197,50.79443],[-1.12255,50.79445],[-1.1235,50.79436],[-1.12442,50.79416],[-1.1255,50.79399],[-1.12636,50.79398],[-1.12879,50.79374],[-1.13037,50.79349],[-1.13239,50.79293],[-1.13359,50.79251],[-1.13384,50.79266],[-1.13413,50.79292],[-1.13491,50.79315],[-1.13578,50.79269],[-1.1369,50.79233],[-1.13762,50.79223],[-1.13815,50.79222],[-1.13826,50.79212],[-1.13894,50.79185],[-1.13893,50.79168],[-1.13988,50.79164],[-1.14154,50.79117],[-1.14193,50.79113],[-1.14277,50.79118],[-1.14365,50.79137],[-1.14528,50.79216],[-1.14689,50.79238],[-1.14898,50.79289],[-1.14935,50.79296],[-1.15162,50.79311],[-1.1527,50.79328],[-1.15406,50.79339],[-1.15629,50.79365],[-1.15849,50.79411],[-1.15845,50.794],[-1.15863,50.79311],[-1.1587,50.79308],[-1.16011,50.79314],[-1.16029,50.79308],[-1.16038,50.79295],[-1.1605,50.79207],[-1.16048,50.79151],[-1.16039,50.79123],[-1.16048,50.79066],[-1.16057,50.7906],[-1.16152,50.79043],[-1.1622,50.79035],[-1.16264,50.79035],[-1.16273,50.79008],[-1.16266,50.78971],[-1.163,50.78912],[-1.16349,50.78868],[-1.1642,50.78835],[-1.16627,50.78776],[-1.16657,50.78762],[-1.1677,50.7869],[-1.16794,50.78654],[-1.16785,50.78633],[-1.16795,50.78618],[-1.16805,50.78613],[-1.16838,50.78627],[-1.1692,50.78636],[-1.16933,50.7862],[-1.16927,50.78632],[-1.16916,50.78629],[-1.16919,50.78601],[-1.16837,50.78604],[-1.16804,50.78614],[-1.16784,50.78631],[-1.16792,50.78658],[-1.16768,50.78692],[-1.16721,50.78718],[-1.16728,50.78745],[-1.16748,50.78763],[-1.16774,50.78774],[-1.17191,50.78888],[-1.17225,50.78904],[-1.17246,50.78925],[-1.17253,50.78947],[-1.17238,50.79032],[-1.17239,50.79113],[-1.17231,50.79131],[-1.1721,50.7914],[-1.17065,50.7917],[-1.17222,50.79139],[-1.17239,50.79128],[-1.17274,50.79133],[-1.17621,50.79091],[-1.17758,50.79114],[-1.18219,50.79225],[-1.1887,50.79316],[-1.19262,50.7936],[-1.19265,50.79367],[-1.19581,50.79408],[-1.19609,50.79436],[-1.19633,50.79445],[-1.1965,50.79461],[-1.19689,50.79557],[-1.19712,50.79597],[-1.1974,50.79625],[-1.21021,50.80746],[-1.21107,50.80792],[-1.21371,50.80971],[-1.21372,50.80977],[-1.21394,50.80969],[-1.21438,50.80976],[-1.21511,50.81021],[-1.21719,50.81082],[-1.2189,50.81152],[-1.21948,50.81201],[-1.22006,50.81282],[-1.22114,50.81343],[-1.22156,50.81359],[-1.22281,50.81391],[-1.22358,50.81398],[-1.22486,50.8139],[-1.22602,50.81403],[-1.22668,50.81431],[-1.2269,50.81455],[-1.22708,50.81495],[-1.22688,50.8157],[-1.22711,50.8158],[-1.22834,50.81598],[-1.23039,50.81612],[-1.23114,50.81624],[-1.23286,50.81667],[-1.23429,50.81723],[-1.23505,50.81726],[-1.23574,50.81743],[-1.23748,50.81812],[-1.23863,50.81843],[-1.2396,50.8185],[-1.24072,50.81846],[-1.24108,50.81836],[-1.24138,50.81815],[-1.2416,50.81808],[-1.24209,50.81815],[-1.24271,50.81835],[-1.24299,50.81835],[-1.24359,50.81813],[-1.24386,50.81795],[-1.24404,50.81744],[-1.24418,50.81733],[-1.24435,50.81724],[-1.24518,50.8172],[-1.24603,50.81732],[-1.24853,50.81881],[-1.24856,50.81868],[-1.24846,50.81878],[-1.24897,50.81909],[-1.24916,50.81928],[-1.24916,50.81943],[-1.24895,50.81987],[-1.24875,50.82012],[-1.24818,50.82056],[-1.24662,50.82145],[-1.24654,50.82155],[-1.24657,50.82166],[-1.24621,50.8219],[-1.24626,50.82201],[-1.2464,50.8221],[-1.2475,50.82245],[-1.24809,50.82285],[-1.2481,50.82328],[-1.24774,50.82418],[-1.24785,50.82562],[-1.2481,50.82634],[-1.24862,50.82711],[-1.24891,50.82831],[-1.24968,50.82983],[-1.24988,50.8308],[-1.2499,50.83154],[-1.25316,50.83179],[-1.25545,50.83152],[-1.25592,50.83153],[-1.25619,50.8316],[-1.25799,50.83239],[-1.25841,50.83249],[-1.26025,50.83162],[-1.26125,50.83077],[-1.26183,50.83037],[-1.26214,50.82986],[-1.2625,50.82974],[-1.26305,50.82979],[-1.26343,50.83013],[-1.26356,50.83043],[-1.26382,50.83063],[-1.26494,50.83128],[-1.26503,50.83143],[-1.26496,50.83159],[-1.26497,50.8319],[-1.26514,50.83199],[-1.26893,50.83326],[-1.27018,50.83359],[-1.27124,50.8337],[-1.27336,50.83431],[-1.27476,50.83496],[-1.27585,50.83525],[-1.27754,50.83517],[-1.27781,50.83524],[-1.27752,50.83589],[-1.27763,50.83599],[-1.28068,50.83559],[-1.28095,50.83559],[-1.28234,50.83577],[-1.2828,50.83573],[-1.2829,50.83568],[-1.28307,50.83527],[-1.28349,50.83479],[-1.28357,50.83437],[-1.2837,50.83438],[-1.2838,50.83445],[-1.28357,50.83459],[-1.28346,50.83483],[-1.28315,50.83517],[-1.28291,50.83566],[-1.28296,50.83571],[-1.28347,50.83571],[-1.28404,50.83579],[-1.28587,50.83636],[-1.28587,50.8373],[-1.28604,50.83769],[-1.28635,50.83786],[-1.28681,50.83802],[-1.28831,50.83889],[-1.28937,50.83923],[-1.29064,50.83973],[-1.29115,50.83984],[-1.29163,50.84008],[-1.2919,50.84013],[-1.2924,50.83989],[-1.29302,50.83966],[-1.29361,50.83951],[-1.29466,50.83931],[-1.29497,50.83928],[-1.29533,50.83931],[-1.29602,50.83951],[-1.29632,50.83966],[-1.29661,50.83993],[-1.29678,50.84017],[-1.29693,50.84071],[-1.29711,50.84102],[-1.29738,50.84121],[-1.29845,50.8415],[-1.2989,50.84183],[-1.29956,50.84204],[-1.29967,50.84219],[-1.29985,50.84278],[-1.30002,50.84302],[-1.3011,50.84405],[-1.30146,50.84457],[-1.30123,50.84533],[-1.30111,50.84612],[-1.30028,50.85326],[-1.30042,50.8533],[-1.30191,50.85311],[-1.30309,50.85263],[-1.30345,50.8526],[-1.30417,50.85269],[-1.30568,50.85329],[-1.30631,50.8536],[-1.30663,50.85396],[-1.30656,50.85404],[-1.30661,50.8541],[-1.30673,50.85407],[-1.30663,50.85412],[-1.30672,50.85417],[-1.30663,50.85413],[-1.30679,50.85415],[-1.30727,50.85468],[-1.30743,50.85525],[-1.3075,50.85523],[-1.3075,50.85516],[-1.30791,50.85504],[-1.30847,50.85475],[-1.30868,50.8547],[-1.30916,50.85468],[-1.30941,50.85474],[-1.30959,50.85482],[-1.30998,50.85579],[-1.31031,50.85643],[-1.31066,50.85662],[-1.31094,50.85735],[-1.31169,50.85738],[-1.31198,50.85768],[-1.31189,50.85787],[-1.31253,50.85795],[-1.31239,50.85792],[-1.31289,50.85793],[-1.31304,50.85818],[-1.31314,50.85811],[-1.31321,50.85793],[-1.31324,50.85743],[-1.3131,50.8582],[-1.31337,50.85865],[-1.31325,50.85835],[-1.3131,50.85822],[-1.31325,50.85835],[-1.31337,50.85863],[-1.31413,50.85866],[-1.31471,50.85884],[-1.31488,50.85897],[-1.31515,50.85902],[-1.31631,50.85887],[-1.31846,50.859],[-1.31913,50.85894],[-1.3196,50.85884],[-1.32035,50.85883],[-1.32178,50.85904],[-1.32382,50.85947],[-1.32433,50.85969],[-1.32557,50.86049],[-1.3274,50.86154],[-1.32846,50.86199],[-1.32866,50.86198],[-1.32883,50.86211],[-1.32891,50.86204],[-1.3288,50.86209],[-1.32866,50.86198],[-1.32852,50.86202],[-1.32709,50.86136],[-1.32549,50.86044],[-1.32442,50.85975],[-1.3238,50.85947],[-1.3215,50.859],[-1.32034,50.85883],[-1.31974,50.85882],[-1.31869,50.85898],[-1.31795,50.85898],[-1.31663,50.85887],[-1.31616,50.85887],[-1.31515,50.85902],[-1.31403,50.85866],[-1.31355,50.85833],[-1.31313,50.85832],[-1.31288,50.85792],[-1.31257,50.85789],[-1.31252,50.85794],[-1.3127,50.85787],[-1.31285,50.85786],[-1.31299,50.85816],[-1.31325,50.85835],[-1.31336,50.85861],[-1.31405,50.85862],[-1.31463,50.8588],[-1.31488,50.85897],[-1.31515,50.85902],[-1.31608,50.85888],[-1.31679,50.85888],[-1.31848,50.859],[-1.31925,50.85892],[-1.31983,50.85882],[-1.32031,50.85882],[-1.322,50.85909],[-1.32384,50.85948],[-1.32435,50.8597],[-1.32586,50.86066],[-1.3274,50.86154],[-1.32843,50.86198],[-1.32887,50.86227],[-1.32895,50.86249],[-1.32892,50.86286],[-1.32838,50.86363],[-1.32839,50.86374],[-1.33203,50.8648],[-1.33333,50.865],[-1.33339,50.86506],[-1.33343,50.86501],[-1.33354,50.86522],[-1.3337,50.86531],[-1.33423,50.86528],[-1.33453,50.86537],[-1.33613,50.86556],[-1.33832,50.86543],[-1.33866,50.86537],[-1.33951,50.86494],[-1.33973,50.86488],[-1.34001,50.865],[-1.34137,50.86591],[-1.34191,50.86574],[-1.34166,50.8661],[-1.34421,50.86785],[-1.34668,50.86876],[-1.34728,50.86902],[-1.35062,50.86968],[-1.35103,50.86995],[-1.35134,50.87017],[-1.35176,50.87062],[-1.35243,50.87165],[-1.35291,50.87215],[-1.35361,50.87356],[-1.3572,50.87686],[-1.35743,50.87713],[-1.3578,50.87787],[-1.35804,50.87801],[-1.35809,50.87798],[-1.3581,50.87802],[-1.35929,50.87825],[-1.35989,50.87833],[-1.36118,50.87837],[-1.36154,50.87846],[-1.36212,50.87891],[-1.3625,50.87889],[-1.36434,50.87989],[-1.36508,50.88039],[-1.36541,50.88048],[-1.36626,50.88172],[-1.36689,50.88228],[-1.36698,50.88254],[-1.3676,50.88327],[-1.36875,50.88417],[-1.36978,50.88484],[-1.37034,50.88515],[-1.37159,50.88565],[-1.37399,50.88641],[-1.37515,50.88683],[-1.37647,50.88716],[-1.37914,50.88773],[-1.38172,50.88876],[-1.38197,50.88887],[-1.38243,50.88919],[-1.38278,50.8896],[-1.3829,50.88984],[-1.38284,50.89006],[-1.38302,50.89024],[-1.38305,50.89099],[-1.38239,50.89194],[-1.38146,50.89296],[-1.38145,50.89305],[-1.38265,50.89352],[-1.38181,50.89438],[-1.38168,50.89466],[-1.38165,50.89477],[-1.38179,50.89529],[-1.38187,50.89537],[-1.38055,50.89607],[-1.38024,50.89652],[-1.38086,50.89672],[-1.38094,50.89693],[-1.38079,50.89727],[-1.38041,50.89777],[-1.3803,50.89807],[-1.38019,50.89811],[-1.37894,50.8981],[-1.37879,50.89836],[-1.37893,50.89807],[-1.37745,50.89799],[-1.37725,50.89803],[-1.37724,50.89815],[-1.37728,50.89845],[-1.37744,50.89856],[-1.37811,50.89875],[-1.37908,50.89893],[-1.39071,50.89876],[-1.39146,50.89876],[-1.39261,50.89884],[-1.39364,50.89905],[-1.39556,50.89955],[-1.39553,50.89973],[-1.39574,50.9],[-1.39524,50.90022],[-1.39518,50.90037],[-1.39528,50.90049],[-1.39533,50.90037],[-1.39571,50.90067],[-1.3966,50.90103],[-1.39699,50.90133],[-1.39729,50.9013],[-1.39768,50.90147],[-1.39808,50.90233],[-1.39827,50.90255],[-1.39907,50.90251],[-1.39929,50.90257],[-1.39979,50.90279],[-1.40024,50.90287],[-1.40045,50.90289],[-1.40086,50.90277],[-1.40139,50.90289],[-1.40275,50.90304],[-1.40397,50.90307],[-1.40408,50.90305],[-1.40432,50.90288],[-1.40447,50.90265],[-1.40443,50.90232],[-1.40403,50.90116],[-1.40378,50.89951],[-1.40373,50.89951],[-1.40381,50.8997],[-1.40372,50.89976],[-1.40379,50.89957],[-1.40369,50.8995],[-1.40306,50.89948],[-1.40355,50.8995],[-1.40379,50.89943],[-1.40389,50.89856],[-1.40378,50.89951],[-1.40406,50.90157],[-1.40408,50.90174],[-1.40433,50.90199],[-1.40447,50.90266],[-1.40436,50.90284],[-1.40408,50.90305],[-1.40406,50.90319],[-1.40436,50.90326],[-1.4044,50.90357],[-1.40449,50.90483],[-1.40438,50.90489],[-1.40433,50.90501],[-1.40447,50.90611],[-1.40436,50.90648],[-1.40451,50.90644],[-1.40447,50.90605],[-1.40417,50.90606],[-1.40447,50.90604],[-1.40325,50.90614],[-1.40096,50.90498],[-1.40046,50.90502],[-1.40089,50.90496],[-1.40116,50.90348],[-1.40115,50.90324],[-1.40104,50.90311],[-1.40079,50.90301],[-1.40048,50.90298],[-1.40032,50.90287],[-1.39981,50.9028],[-1.39926,50.90255],[-1.39907,50.90251],[-1.39796,50.90254],[-1.3977,50.90187],[-1.3974,50.90142],[-1.39539,50.90045],[-1.39533,50.90037],[-1.39563,50.89976],[-1.39562,50.89957],[-1.39337,50.89898],[-1.39256,50.89883],[-1.39151,50.89876],[-1.37902,50.89893],[-1.37704,50.89859],[-1.37696,50.89869],[-1.37707,50.89875],[-1.37803,50.89893],[-1.37664,50.90166],[-1.37595,50.90265],[-1.37575,50.90279],[-1.37475,50.9031],[-1.37426,50.90333],[-1.374,50.90373],[-1.37339,50.90408],[-1.37288,50.90444],[-1.37281,50.9046],[-1.37218,50.90519],[-1.37156,50.90568],[-1.36961,50.90776],[-1.36965,50.90786],[-1.37038,50.90854],[-1.37036,50.90864],[-1.36957,50.90914],[-1.36758,50.91026],[-1.36624,50.91141],[-1.36579,50.91188],[-1.36512,50.91292],[-1.36461,50.91326],[-1.36253,50.91431],[-1.36106,50.91533],[-1.36017,50.91603],[-1.35963,50.91665],[-1.35896,50.91775],[-1.35865,50.91816],[-1.3576,50.91914],[-1.35662,50.92044],[-1.35651,50.9206],[-1.3569,50.92103],[-1.35637,50.92154],[-1.35611,50.92189],[-1.35517,50.92488],[-1.35474,50.92557],[-1.3542,50.92611],[-1.35333,50.92664],[-1.35231,50.92738],[-1.35232,50.92766],[-1.3525,50.92805],[-1.35314,50.92905],[-1.35377,50.92984],[-1.35396,50.92994],[-1.35392,50.93001],[-1.35434,50.93087],[-1.35448,50.93094],[-1.35437,50.93094],[-1.35427,50.93131],[-1.35398,50.93174],[-1.35401,50.9319],[-1.35365,50.93213],[-1.35304,50.93287],[-1.35243,50.93346],[-1.35237,50.93362],[-1.35249,50.9337],[-1.35233,50.93373],[-1.35211,50.9337],[-1.35194,50.93359],[-1.35075,50.93328],[-1.35025,50.93336],[-1.34998,50.9333],[-1.34962,50.93348],[-1.34935,50.93404],[-1.34946,50.93424],[-1.34929,50.93444],[-1.3493,50.93455],[-1.34903,50.93469],[-1.34887,50.93505],[-1.34885,50.93541],[-1.34865,50.93554],[-1.34808,50.93724],[-1.34794,50.93741],[-1.348,50.93749],[-1.34788,50.93755],[-1.34759,50.93806],[-1.34732,50.93829],[-1.34666,50.93879],[-1.34635,50.9389],[-1.34563,50.9391],[-1.34552,50.93906],[-1.34479,50.93909],[-1.34181,50.93888],[-1.33852,50.93904],[-1.3376,50.93912],[-1.33596,50.93944],[-1.33382,50.93964],[-1.33306,50.93979],[-1.33228,50.94006],[-1.33091,50.9409],[-1.33008,50.94153],[-1.32965,50.94179],[-1.32854,50.94223],[-1.3274,50.94338],[-1.3261,50.94445],[-1.32571,50.94488],[-1.32556,50.94514],[-1.32527,50.94596],[-1.32486,50.94637],[-1.32422,50.94685],[-1.3227,50.94745],[-1.32189,50.94786],[-1.32144,50.94817],[-1.3212,50.94842],[-1.31912,50.95144],[-1.31878,50.95176],[-1.31836,50.95204],[-1.31753,50.95238],[-1.31701,50.95267],[-1.31662,50.95303],[-1.31623,50.95386],[-1.31593,50.95427],[-1.31554,50.95465],[-1.31439,50.95542],[-1.31351,50.95584],[-1.31331,50.95604],[-1.3131,50.95657],[-1.31285,50.95798],[-1.31259,50.95802],[-1.31278,50.95808],[-1.31245,50.95846],[-1.31167,50.95883],[-1.3104,50.95911],[-1.31021,50.95901],[-1.31018,50.95916],[-1.3095,50.95943],[-1.30803,50.96015],[-1.30587,50.96198],[-1.30525,50.96261],[-1.30491,50.96316],[-1.30497,50.96323],[-1.30599,50.96379],[-1.30673,50.96415],[-1.30659,50.96415],[-1.30639,50.96431],[-1.30578,50.96483],[-1.30552,50.96514],[-1.30485,50.96657],[-1.30374,50.96827],[-1.30358,50.96869],[-1.30355,50.96934],[-1.30338,50.97013],[-1.30308,50.97084],[-1.30479,50.97132],[-1.30503,50.97135],[-1.30479,50.97138],[-1.30469,50.97158],[-1.30507,50.97202],[-1.30534,50.97369],[-1.30548,50.97539],[-1.30568,50.97585],[-1.30589,50.97618],[-1.30611,50.97634],[-1.30763,50.97716],[-1.30788,50.97723],[-1.31078,50.97669],[-1.31319,50.97691],[-1.31456,50.97708],[-1.31582,50.97758],[-1.31646,50.97797],[-1.31732,50.97935],[-1.31762,50.97969],[-1.31814,50.98],[-1.31804,50.98021],[-1.31835,50.98076],[-1.31818,50.981],[-1.31737,50.98154],[-1.31707,50.98187],[-1.31785,50.98203],[-1.31816,50.98205],[-1.31899,50.9827],[-1.32029,50.98391],[-1.32012,50.98422],[-1.32223,50.98615],[-1.32305,50.98647],[-1.32384,50.9866],[-1.32547,50.98673],[-1.32499,50.98817],[-1.32499,50.9884],[-1.32543,50.98991],[-1.32542,50.99007],[-1.32534,50.99027],[-1.32476,50.99069],[-1.32463,50.99095],[-1.32454,50.99144],[-1.32463,50.99189],[-1.32458,50.99234],[-1.32465,50.99253],[-1.32363,50.99416],[-1.32293,50.99479],[-1.32265,50.99498],[-1.32248,50.99506],[-1.3223,50.99507],[-1.32218,50.99622],[-1.32187,50.99726],[-1.32172,50.99744],[-1.32183,50.99739],[-1.32181,50.99744],[-1.32151,50.99781],[-1.32136,50.99821],[-1.32147,50.99918],[-1.32116,51.00179],[-1.3211,51.00369],[-1.3209,51.00419],[-1.31981,51.00617],[-1.31935,51.0074],[-1.31789,51.01027],[-1.31776,51.0104],[-1.31705,51.01428],[-1.31662,51.0156],[-1.31607,51.01651],[-1.31612,51.01702],[-1.31611,51.01677],[-1.31624,51.0168],[-1.3161,51.01671],[-1.31611,51.01639],[-1.31606,51.01654],[-1.31611,51.01678],[-1.31632,51.01681],[-1.31669,51.01697],[-1.31877,51.01729],[-1.319,51.01758],[-1.31904,51.01809],[-1.31916,51.01851],[-1.32029,51.01915],[-1.32074,51.01945],[-1.32083,51.01967],[-1.32096,51.02053],[-1.32121,51.02128],[-1.32151,51.02164],[-1.32176,51.02177],[-1.32307,51.02225],[-1.32384,51.02241],[-1.32432,51.02242],[-1.32455,51.02238],[-1.32575,51.02197],[-1.3261,51.02197],[-1.32744,51.02235],[-1.32883,51.02254],[-1.32909,51.02261],[-1.33052,51.02385],[-1.33079,51.02424],[-1.33104,51.02448],[-1.3318,51.02462],[-1.33206,51.02596],[-1.33175,51.02838],[-1.33099,51.03037],[-1.32999,51.03229],[-1.32885,51.03505],[-1.32862,51.03537],[-1.3281,51.0367],[-1.32811,51.03773],[-1.32796,51.03786],[-1.32809,51.03798],[-1.32827,51.03802],[-1.32877,51.03844],[-1.32875,51.03853],[-1.3285,51.03869],[-1.32801,51.03877],[-1.32742,51.03895],[-1.32725,51.03913],[-1.32547,51.04341],[-1.32259,51.04162],[-1.32525,51.0433],[-1.32544,51.0435],[-1.32334,51.04841],[-1.32249,51.05063],[-1.32172,51.05212],[-1.32085,51.05201],[-1.32054,51.05206],[-1.32029,51.05223],[-1.31762,51.05467],[-1.31561,51.05695],[-1.31466,51.05892],[-1.31432,51.05926],[-1.31407,51.05918],[-1.31392,51.05917],[-1.31367,51.0594],[-1.31369,51.05958],[-1.31425,51.06028],[-1.31413,51.06065],[-1.31452,51.061],[-1.31478,51.06098],[-1.31412,51.06138],[-1.31328,51.06226],[-1.31223,51.06209],[-1.31211,51.06241],[-1.31087,51.06231],[-1.31061,51.06262],[-1.30996,51.06375],[-1.30914,51.06452],[-1.30917,51.0645],[-1.3093,51.06466],[-1.30924,51.06469],[-1.30896,51.06468],[-1.30836,51.06447],[-1.30792,51.06444],[-1.30715,51.06417],[-1.30679,51.06423],[-1.30545,51.06501],[-1.30452,51.06545],[-1.30426,51.06561],[-1.30378,51.06604],[-1.30196,51.06689],[-1.29755,51.06929],[-1.29668,51.0697],[-1.29553,51.07015],[-1.29559,51.07027],[-1.29541,51.07003],[-1.29523,51.07005],[-1.29491,51.07001],[-1.29467,51.07011],[-1.29463,51.07046],[-1.29413,51.07074],[-1.29377,51.07085],[-1.29315,51.07081],[-1.29306,51.07102],[-1.29351,51.07171],[-1.29338,51.07197],[-1.29358,51.07201],[-1.29349,51.07144],[-1.29306,51.07102],[-1.29237,51.07087],[-1.29153,51.07087],[-1.29134,51.07092],[-1.29136,51.07153],[-1.29129,51.07172],[-1.29076,51.07228],[-1.29111,51.07244],[-1.29124,51.07263],[-1.28979,51.07363],[-1.28856,51.07474],[-1.28747,51.07547],[-1.28687,51.07579],[-1.28588,51.07642],[-1.28516,51.0772],[-1.28488,51.07767],[-1.2844,51.07916],[-1.28238,51.08082],[-1.28205,51.08124],[-1.28165,51.08155],[-1.28019,51.08225],[-1.27868,51.08313],[-1.27716,51.08352],[-1.27582,51.08374],[-1.2741,51.08423],[-1.27374,51.08439],[-1.27203,51.08545],[-1.27178,51.08571],[-1.27166,51.08576],[-1.27025,51.08569],[-1.26869,51.08548],[-1.26829,51.0855],[-1.26822,51.08555],[-1.26797,51.08626],[-1.26755,51.08714],[-1.2673,51.08729],[-1.26511,51.08739],[-1.26466,51.08737],[-1.26346,51.08748],[-1.26227,51.08748],[-1.25868,51.08765],[-1.25753,51.0876],[-1.25694,51.08749],[-1.25612,51.08716],[-1.25484,51.08655],[-1.25423,51.08636],[-1.25274,51.08623],[-1.25022,51.08639],[-1.24899,51.08639],[-1.24856,51.08628],[-1.24772,51.08566],[-1.24736,51.08546],[-1.2469,51.0853],[-1.24547,51.08491],[-1.24426,51.08466],[-1.24361,51.08456],[-1.24342,51.08458],[-1.24255,51.08525],[-1.24166,51.08581],[-1.2416,51.08591],[-1.24157,51.08628],[-1.2413,51.08641],[-1.24014,51.08675],[-1.23785,51.08692],[-1.23686,51.08705],[-1.23523,51.08748],[-1.23493,51.08761],[-1.23479,51.08772],[-1.23484,51.08789],[-1.23584,51.08957],[-1.23759,51.09225],[-1.23755,51.09249],[-1.23751,51.09251],[-1.23731,51.09245],[-1.23753,51.09252],[-1.23695,51.09266]]}},{"type":"Feature","properties":{"day":3,"name":"[BRITISH LOVE ROAD] Jour 3 : de Winchester à Haslemere"},"geometry":{"type":"LineString","coordinates":[[-1.23673,51.09253],[-1.23679,51.0926],[-1.23708,51.09265],[-1.23722,51.09252],[-1.23754,51.09251],[-1.23762,51.09241],[-1.2376,51.09229],[-1.23749,51.09203],[-1.23584,51.08958],[-1.23485,51.08791],[-1.2346,51.08788],[-1.23438,51.08794],[-1.23214,51.08945],[-1.23068,51.0906],[-1.23029,51.09084],[-1.22998,51.09095],[-1.22729,51.09121],[-1.22476,51.09117],[-1.22423,51.09111],[-1.22381,51.09104],[-1.22332,51.09087],[-1.22276,51.09054],[-1.22238,51.09006],[-1.22182,51.08908],[-1.22122,51.08818],[-1.22036,51.08736],[-1.21821,51.08669],[-1.21724,51.08656],[-1.21637,51.08591],[-1.21534,51.08494],[-1.21487,51.08466],[-1.2125,51.08382],[-1.21137,51.08327],[-1.21066,51.08311],[-1.20995,51.08268],[-1.2092,51.08252],[-1.20684,51.08237],[-1.20642,51.08249],[-1.20583,51.08248],[-1.2017,51.08182],[-1.20103,51.08176],[-1.20082,51.08178],[-1.20067,51.0822],[-1.20037,51.08261],[-1.20021,51.08279],[-1.20002,51.08282],[-1.19944,51.08248],[-1.19842,51.08202],[-1.19615,51.08151],[-1.19536,51.08129],[-1.19473,51.08117],[-1.19388,51.0811],[-1.19377,51.08099],[-1.19358,51.08093],[-1.19295,51.08081],[-1.19233,51.08081],[-1.18834,51.08105],[-1.18793,51.08118],[-1.18745,51.08147],[-1.18667,51.08254],[-1.18649,51.08256],[-1.18636,51.08279],[-1.18591,51.08319],[-1.18399,51.0847],[-1.18398,51.08495],[-1.18153,51.08639],[-1.18085,51.08673],[-1.18016,51.08695],[-1.17739,51.08744],[-1.17425,51.08785],[-1.17221,51.08828],[-1.17076,51.08867],[-1.16862,51.08916],[-1.16386,51.09],[-1.16135,51.09057],[-1.16107,51.09061],[-1.16047,51.09054],[-1.16113,51.09061],[-1.16224,51.09037],[-1.16153,51.09053],[-1.16133,51.09066],[-1.16166,51.09152],[-1.1618,51.09233],[-1.16167,51.09257],[-1.16152,51.0927],[-1.16128,51.09279],[-1.16109,51.09302],[-1.16091,51.09625],[-1.16096,51.09648],[-1.1602,51.0968],[-1.15896,51.09717],[-1.1581,51.09728],[-1.15457,51.09749],[-1.1529,51.09751],[-1.15016,51.09719],[-1.14853,51.09734],[-1.14823,51.09745],[-1.14799,51.09761],[-1.1474,51.09825],[-1.14662,51.09884],[-1.14632,51.09897],[-1.14601,51.09908],[-1.14401,51.09942],[-1.143,51.09968],[-1.14227,51.09996],[-1.14167,51.1004],[-1.14079,51.10122],[-1.13978,51.10203],[-1.13806,51.10325],[-1.13484,51.10419],[-1.13307,51.10499],[-1.13236,51.10525],[-1.12976,51.10552],[-1.12932,51.10554],[-1.12859,51.10548],[-1.12736,51.10585],[-1.12692,51.10587],[-1.12668,51.10582],[-1.12554,51.10487],[-1.12519,51.10486],[-1.12486,51.10508],[-1.12347,51.10562],[-1.12264,51.10589],[-1.12213,51.10602],[-1.12146,51.10613],[-1.11979,51.1066],[-1.11926,51.10682],[-1.11823,51.10743],[-1.11768,51.1077],[-1.11633,51.10827],[-1.11551,51.10874],[-1.11248,51.10977],[-1.10838,51.11138],[-1.10587,51.11206],[-1.10548,51.1122],[-1.10467,51.11275],[-1.10383,51.1142],[-1.10354,51.11447],[-1.10328,51.11457],[-1.10159,51.11495],[-1.09886,51.11586],[-1.09656,51.11701],[-1.09283,51.11946],[-1.09176,51.12033],[-1.0901,51.12143],[-1.08953,51.1217],[-1.08773,51.1224],[-1.08678,51.12262],[-1.08641,51.12264],[-1.08503,51.12257],[-1.0808,51.12284],[-1.07986,51.12286],[-1.07889,51.12279],[-1.07859,51.1228],[-1.07641,51.12351],[-1.07553,51.12636],[-1.07509,51.12725],[-1.07464,51.1278],[-1.07369,51.12852],[-1.07107,51.12963],[-1.06909,51.13058],[-1.06858,51.13046],[-1.06711,51.13044],[-1.06682,51.13035],[-1.06603,51.12992],[-1.06399,51.12934],[-1.06266,51.12873],[-1.06245,51.12869],[-1.06042,51.12758],[-1.06002,51.12734],[-1.05842,51.12608],[-1.05582,51.12426],[-1.05511,51.12354],[-1.05459,51.12277],[-1.05434,51.12258],[-1.05157,51.12092],[-1.05135,51.12084],[-1.0499,51.12055],[-1.04967,51.12044],[-1.04867,51.11932],[-1.0486,51.11916],[-1.04821,51.11882],[-1.04772,51.11855],[-1.04695,51.1177],[-1.04634,51.11727],[-1.04519,51.11678],[-1.04499,51.11665],[-1.0448,51.11663],[-1.04453,51.11687],[-1.04327,51.1168],[-1.04291,51.11682],[-1.04446,51.11688],[-1.04477,51.11673],[-1.0451,51.11666],[-1.04111,51.11628],[-1.04103,51.11622],[-1.04102,51.11546],[-1.04088,51.11498],[-1.04064,51.11449],[-1.04035,51.11416],[-1.04015,51.11412],[-1.03943,51.11434],[-1.03925,51.11446],[-1.03883,51.11452],[-1.03827,51.11447],[-1.03631,51.11466],[-1.03145,51.10956],[-1.02827,51.10679],[-1.02752,51.10632],[-1.02604,51.10574],[-1.02453,51.10521],[-1.02424,51.10505],[-1.02202,51.10119],[-1.02161,51.10026],[-1.02082,51.09943],[-1.02047,51.09928],[-1.0197,51.09904],[-1.01882,51.09893],[-1.01292,51.09881],[-1.01036,51.09862],[-1.00869,51.09878],[-1.00781,51.09909],[-1.00547,51.09917],[-1.00421,51.09926],[-1.00326,51.09926],[-1.00178,51.09939],[-1.00097,51.09929],[-1.00025,51.09926],[-0.99984,51.0993],[-0.99762,51.09966],[-0.99294,51.09937],[-0.99229,51.09941],[-0.99108,51.09968],[-0.9906,51.09972],[-0.99042,51.09969],[-0.98853,51.09865],[-0.98776,51.09836],[-0.9861,51.09785],[-0.98548,51.09775],[-0.98349,51.09767],[-0.98251,51.0975],[-0.9822,51.0974],[-0.98131,51.09686],[-0.97975,51.09534],[-0.97828,51.09427],[-0.9773,51.09365],[-0.97635,51.09321],[-0.97539,51.09248],[-0.97452,51.09208],[-0.97368,51.09139],[-0.9727,51.09085],[-0.97193,51.0902],[-0.97094,51.08983],[-0.96954,51.08945],[-0.96894,51.08923],[-0.9684,51.08917],[-0.96821,51.08907],[-0.96808,51.08911],[-0.96841,51.08917],[-0.96796,51.08894],[-0.96784,51.08858],[-0.9671,51.08776],[-0.96663,51.08672],[-0.96636,51.08647],[-0.96557,51.08607],[-0.9649,51.08592],[-0.96371,51.08555],[-0.96244,51.08496],[-0.9615,51.08469],[-0.96069,51.08452],[-0.96048,51.08442],[-0.96007,51.08394],[-0.95982,51.08349],[-0.9598,51.08341],[-0.95994,51.08333],[-0.95997,51.08323],[-0.95879,51.08175],[-0.95852,51.0815],[-0.95762,51.08088],[-0.95618,51.08002],[-0.95592,51.07977],[-0.9559,51.07937],[-0.95576,51.0792],[-0.95451,51.07832],[-0.9531,51.07717],[-0.95242,51.07683],[-0.95024,51.07594],[-0.94987,51.07565],[-0.94935,51.07508],[-0.94928,51.07487],[-0.94997,51.07337],[-0.95,51.07318],[-0.94978,51.07289],[-0.94881,51.07228],[-0.9478,51.07209],[-0.94703,51.07213],[-0.94682,51.0721],[-0.94638,51.07194],[-0.94592,51.07166],[-0.94646,51.07204],[-0.94595,51.07252],[-0.94452,51.07306],[-0.94325,51.07375],[-0.94136,51.07411],[-0.94103,51.07407],[-0.94058,51.07388],[-0.93995,51.07385],[-0.93871,51.07362],[-0.93775,51.07357],[-0.93675,51.07341],[-0.93644,51.07344],[-0.93601,51.0734],[-0.93442,51.07372],[-0.93401,51.07377],[-0.93231,51.07375],[-0.93102,51.07364],[-0.93038,51.07374],[-0.92983,51.07395],[-0.92982,51.07405],[-0.93031,51.07464],[-0.9304,51.07503],[-0.93036,51.07525],[-0.93018,51.07546],[-0.93002,51.07557],[-0.92959,51.07565],[-0.92903,51.07596],[-0.92831,51.07594],[-0.92788,51.07598],[-0.92769,51.07604],[-0.92739,51.07624],[-0.92742,51.07621],[-0.92565,51.07572],[-0.92463,51.07576],[-0.92435,51.07561],[-0.92422,51.0748],[-0.92402,51.07461],[-0.92354,51.07437],[-0.92244,51.07422],[-0.92119,51.07372],[-0.91961,51.07358],[-0.9188,51.07383],[-0.91753,51.07398],[-0.91605,51.07482],[-0.91553,51.07464],[-0.91467,51.07422],[-0.91387,51.07394],[-0.91309,51.07376],[-0.91228,51.07363],[-0.91162,51.07339],[-0.91046,51.07287],[-0.90868,51.07174],[-0.90776,51.07094],[-0.90691,51.06993],[-0.9062,51.06854],[-0.90589,51.06831],[-0.90257,51.06723],[-0.89971,51.06572],[-0.89953,51.06571],[-0.89872,51.06637],[-0.89792,51.06683],[-0.8975,51.06721],[-0.89725,51.0672],[-0.89696,51.06713],[-0.89631,51.06692],[-0.89605,51.06678],[-0.89462,51.06557],[-0.89451,51.06536],[-0.89465,51.0649],[-0.89463,51.06469],[-0.89442,51.06444],[-0.89365,51.06399],[-0.89302,51.0634],[-0.89272,51.06298],[-0.89231,51.06188],[-0.89211,51.06155],[-0.88739,51.05782],[-0.88723,51.0577],[-0.88707,51.05775],[-0.8872,51.05767],[-0.8826,51.05997],[-0.88165,51.06032],[-0.88083,51.06052],[-0.87955,51.06068],[-0.87445,51.06088],[-0.87348,51.061],[-0.87152,51.06149],[-0.87008,51.06209],[-0.86987,51.06209],[-0.86995,51.06215],[-0.86974,51.06195],[-0.86953,51.0619],[-0.86889,51.06195],[-0.86816,51.06184],[-0.86725,51.06184],[-0.86661,51.06197],[-0.86465,51.06267],[-0.86437,51.06271],[-0.8634,51.06278],[-0.86198,51.06263],[-0.86055,51.0629],[-0.85965,51.06287],[-0.85728,51.06309],[-0.85636,51.06325],[-0.85562,51.06347],[-0.85502,51.06374],[-0.85419,51.06397],[-0.85343,51.06409],[-0.85189,51.06424],[-0.85183,51.06431],[-0.85182,51.06457],[-0.85166,51.06479],[-0.85084,51.06531],[-0.85022,51.06595],[-0.84927,51.06642],[-0.84875,51.0665],[-0.84842,51.06645],[-0.8472,51.06652],[-0.8466,51.06674],[-0.84605,51.06688],[-0.84586,51.06709],[-0.84536,51.06732],[-0.84469,51.06754],[-0.84392,51.06765],[-0.84308,51.06784],[-0.84231,51.06791],[-0.84159,51.06809],[-0.84061,51.06876],[-0.84041,51.06898],[-0.83885,51.06858],[-0.83882,51.06846],[-0.83817,51.06868],[-0.83642,51.06975],[-0.83549,51.07044],[-0.83355,51.07173],[-0.83307,51.07191],[-0.83223,51.07209],[-0.83204,51.07217],[-0.83015,51.07365],[-0.83002,51.07384],[-0.82996,51.07424],[-0.82969,51.07493],[-0.8296,51.07509],[-0.82929,51.07508],[-0.82935,51.07503],[-0.8296,51.07509],[-0.82969,51.07495],[-0.82925,51.07523],[-0.82931,51.07541],[-0.82834,51.07616],[-0.82752,51.07655],[-0.82722,51.07681],[-0.827,51.07771],[-0.82639,51.07793],[-0.82591,51.07851],[-0.82551,51.07887],[-0.82535,51.07889],[-0.82522,51.07884],[-0.82539,51.0788],[-0.82537,51.079],[-0.82541,51.07875],[-0.82533,51.0787],[-0.82539,51.07873],[-0.8253,51.07886],[-0.82535,51.07902],[-0.8261,51.07963],[-0.82622,51.07974],[-0.8262,51.07984],[-0.82411,51.08013],[-0.82082,51.08039],[-0.8204,51.08034],[-0.81916,51.07997],[-0.81882,51.07992],[-0.81753,51.07994],[-0.81691,51.0799],[-0.81407,51.07957],[-0.81191,51.07957],[-0.81112,51.07948],[-0.80973,51.07907],[-0.80802,51.07893],[-0.80607,51.0783],[-0.80377,51.07746],[-0.80351,51.07733],[-0.80316,51.07734],[-0.80282,51.07676],[-0.80215,51.07656],[-0.80219,51.07655],[-0.80167,51.0754],[-0.80137,51.0749],[-0.80074,51.07465],[-0.8004,51.07466],[-0.80031,51.07475],[-0.80018,51.07477],[-0.80005,51.07471],[-0.80012,51.07433],[-0.79984,51.07369],[-0.79969,51.07357],[-0.79996,51.07352],[-0.80034,51.0733],[-0.80054,51.07293],[-0.80055,51.07267],[-0.80021,51.07205],[-0.80122,51.07143],[-0.80257,51.07128],[-0.80352,51.07133],[-0.80367,51.07128],[-0.80439,51.07031],[-0.80639,51.06892],[-0.8071,51.06815],[-0.80712,51.06798],[-0.80715,51.06808],[-0.807,51.06756],[-0.80692,51.06758],[-0.80698,51.06754],[-0.80651,51.06703],[-0.80569,51.06633],[-0.80528,51.06617],[-0.80506,51.06617],[-0.8043,51.06645],[-0.80263,51.06658],[-0.80049,51.0666],[-0.79761,51.06714],[-0.79659,51.06757],[-0.79619,51.06818],[-0.79587,51.06893],[-0.79572,51.06914],[-0.79551,51.06919],[-0.79423,51.0699],[-0.7905,51.07282],[-0.79029,51.07293],[-0.78901,51.0733],[-0.78778,51.07344],[-0.78718,51.07374],[-0.78698,51.07374],[-0.78604,51.07284],[-0.78589,51.07285],[-0.78509,51.07352],[-0.78349,51.07541],[-0.78224,51.07583],[-0.78077,51.07598],[-0.7808,51.07611],[-0.78067,51.07622],[-0.78129,51.07657],[-0.78146,51.07674],[-0.78165,51.07707],[-0.78178,51.07807],[-0.78029,51.07853],[-0.77941,51.07858],[-0.7787,51.07872],[-0.77774,51.079],[-0.77573,51.07998],[-0.77488,51.08034],[-0.77215,51.08123],[-0.77033,51.08093],[-0.77013,51.08073],[-0.77007,51.08055],[-0.76852,51.081],[-0.76622,51.08113],[-0.76533,51.08131],[-0.76268,51.08103],[-0.76058,51.08059],[-0.7593,51.08046],[-0.75867,51.08052],[-0.75841,51.08046],[-0.7565,51.08109],[-0.75448,51.08186],[-0.75207,51.08215],[-0.75143,51.08227],[-0.75081,51.08247],[-0.74961,51.08299],[-0.74861,51.08323],[-0.7482,51.0833],[-0.74667,51.08344],[-0.74461,51.08353],[-0.7432,51.08369],[-0.74226,51.0837],[-0.74184,51.08379],[-0.74159,51.08401],[-0.7414,51.0846],[-0.74131,51.08463],[-0.7409,51.08502],[-0.73994,51.08562],[-0.73942,51.08585],[-0.73862,51.0861],[-0.73753,51.08625],[-0.73707,51.08638],[-0.73423,51.08756],[-0.73411,51.08774],[-0.73348,51.08779],[-0.73215,51.08779],[-0.73081,51.0879],[-0.72608,51.08799],[-0.72219,51.08819],[-0.72162,51.08808],[-0.72118,51.08807],[-0.71973,51.08826],[-0.71923,51.08846],[-0.71763,51.08893],[-0.71698,51.08904],[-0.71605,51.08912],[-0.71543,51.08905],[-0.71521,51.08895],[-0.71481,51.08855],[-0.71445,51.08841],[-0.71365,51.08836],[-0.71254,51.0884],[-0.71189,51.08833],[-0.71137,51.08822],[-0.71034,51.08772],[-0.70995,51.08762],[-0.70974,51.08761],[-0.70956,51.08772],[-0.70905,51.08849],[-0.70848,51.08914],[-0.70854,51.08916]]}},{"type":"Feature","properties":{"day":4,"name":"[BRITISH LOVE ROAD] Jour 4 : de Haslemere à Cuckfield"},"geometry":{"type":"LineString","coordinates":[[-0.70983,51.08875],[-0.70905,51.08847],[-0.70915,51.08826],[-0.70907,51.08818],[-0.70915,51.08827],[-0.70883,51.08877],[-0.70748,51.09026],[-0.70677,51.09089],[-0.70665,51.09094],[-0.70616,51.0908],[-0.70587,51.09066],[-0.7052,51.0906],[-0.70487,51.09068],[-0.70378,51.09135],[-0.70297,51.09171],[-0.70244,51.09181],[-0.70117,51.0917],[-0.70054,51.09176],[-0.70023,51.09186],[-0.70005,51.09218],[-0.7,51.09289],[-0.69991,51.09302],[-0.69944,51.09352],[-0.69788,51.09476],[-0.69761,51.09491],[-0.6968,51.09514],[-0.69521,51.09546],[-0.69436,51.09585],[-0.69418,51.09587],[-0.69383,51.09589],[-0.69314,51.0956],[-0.69266,51.09533],[-0.69179,51.0952],[-0.69127,51.09503],[-0.69102,51.09513],[-0.69067,51.09538],[-0.68994,51.09561],[-0.68977,51.0957],[-0.68892,51.09655],[-0.68812,51.0972],[-0.68771,51.09823],[-0.68771,51.09846],[-0.68798,51.09932],[-0.68798,51.09981],[-0.68792,51.10001],[-0.68728,51.10079],[-0.68647,51.10148],[-0.68541,51.10218],[-0.68266,51.10465],[-0.68205,51.10514],[-0.6818,51.10529],[-0.67872,51.10641],[-0.67757,51.10655],[-0.67664,51.10675],[-0.67596,51.10681],[-0.67329,51.10685],[-0.67199,51.10665],[-0.67096,51.10676],[-0.67037,51.10687],[-0.67011,51.10688],[-0.66985,51.10696],[-0.66908,51.10733],[-0.6688,51.10758],[-0.66857,51.10784],[-0.66771,51.10914],[-0.66709,51.10994],[-0.6669,51.11017],[-0.66662,51.11031],[-0.6658,51.11048],[-0.66351,51.11079],[-0.66136,51.1113],[-0.66088,51.11146],[-0.66001,51.11186],[-0.659,51.1127],[-0.65782,51.11337],[-0.65594,51.11432],[-0.65526,51.11445],[-0.65371,51.11459],[-0.65316,51.11472],[-0.65255,51.11507],[-0.65097,51.11637],[-0.6505,51.11658],[-0.64994,51.11668],[-0.64899,51.11677],[-0.64863,51.11667],[-0.64845,51.11598],[-0.6481,51.11564],[-0.64742,51.11524],[-0.6455,51.11445],[-0.64379,51.11406],[-0.64219,51.114],[-0.63912,51.11285],[-0.63838,51.11264],[-0.63708,51.11259],[-0.63363,51.11299],[-0.63143,51.11313],[-0.6313,51.11311],[-0.63095,51.11227],[-0.6307,51.11107],[-0.6305,51.11086],[-0.6298,51.11058],[-0.6295,51.11007],[-0.62941,51.10996],[-0.62934,51.10995],[-0.62751,51.11048],[-0.62661,51.11057],[-0.62619,51.11054],[-0.62163,51.11161],[-0.62032,51.11185],[-0.61963,51.11187],[-0.61822,51.11175],[-0.61633,51.11184],[-0.61605,51.11187],[-0.6149,51.11217],[-0.61375,51.11269],[-0.61273,51.11333],[-0.61071,51.1142],[-0.60818,51.11555],[-0.60728,51.11622],[-0.60661,51.1168],[-0.606,51.11715],[-0.60446,51.11784],[-0.60303,51.11829],[-0.60201,51.11868],[-0.60173,51.11884],[-0.60159,51.11884],[-0.60114,51.11831],[-0.60079,51.11754],[-0.6002,51.11686],[-0.5997,51.11601],[-0.59889,51.11536],[-0.59807,51.11507],[-0.59759,51.11484],[-0.59738,51.11468],[-0.59697,51.11425],[-0.59683,51.11402],[-0.59679,51.11367],[-0.59681,51.11349],[-0.59717,51.11269],[-0.59703,51.11241],[-0.59601,51.11211],[-0.59555,51.11189],[-0.59441,51.11104],[-0.59376,51.1107],[-0.5926,51.11119],[-0.59095,51.11169],[-0.58954,51.11218],[-0.58896,51.11226],[-0.5882,51.11224],[-0.58803,51.11216],[-0.58771,51.11188],[-0.58733,51.11144],[-0.58654,51.11093],[-0.58625,51.1105],[-0.58606,51.11032],[-0.58395,51.10918],[-0.5829,51.10872],[-0.57919,51.10889],[-0.57579,51.10866],[-0.57208,51.10881],[-0.57112,51.10869],[-0.5701,51.1084],[-0.56969,51.1084],[-0.56795,51.10899],[-0.56668,51.10978],[-0.56594,51.11038],[-0.56428,51.11252],[-0.56286,51.11448],[-0.56271,51.11445],[-0.55919,51.11268],[-0.55786,51.11227],[-0.55675,51.11183],[-0.55629,51.11169],[-0.55598,51.11165],[-0.55541,51.11164],[-0.55425,51.11177],[-0.55359,51.11166],[-0.55237,51.11123],[-0.55132,51.11078],[-0.55073,51.11022],[-0.54966,51.10938],[-0.54953,51.10916],[-0.54945,51.10845],[-0.5493,51.10809],[-0.54904,51.10787],[-0.54887,51.1078],[-0.54856,51.10782],[-0.54822,51.10792],[-0.54643,51.10852],[-0.5453,51.10883],[-0.54405,51.10905],[-0.54307,51.1093],[-0.54254,51.10961],[-0.54163,51.11065],[-0.54106,51.11084],[-0.54016,51.11093],[-0.5396,51.11077],[-0.53886,51.11036],[-0.53817,51.11013],[-0.53734,51.10993],[-0.53712,51.10983],[-0.53684,51.1096],[-0.53633,51.10876],[-0.53582,51.10843],[-0.53501,51.10815],[-0.53467,51.10798],[-0.53445,51.10776],[-0.53429,51.10747],[-0.53411,51.10735],[-0.53387,51.10728],[-0.53331,51.10726],[-0.53197,51.10738],[-0.53084,51.10757],[-0.52842,51.10908],[-0.52786,51.10936],[-0.52627,51.10997],[-0.52601,51.11015],[-0.52518,51.11098],[-0.52431,51.11157],[-0.52346,51.11199],[-0.52204,51.1125],[-0.52196,51.1125],[-0.52097,51.11151],[-0.51926,51.11057],[-0.51805,51.11],[-0.51605,51.10858],[-0.51531,51.10812],[-0.51513,51.1082],[-0.5152,51.10818],[-0.515,51.10841],[-0.51464,51.109],[-0.51183,51.11283],[-0.51163,51.11326],[-0.51147,51.11403],[-0.5115,51.11458],[-0.51137,51.11465],[-0.50855,51.11453],[-0.50425,51.11443],[-0.50046,51.11451],[-0.49652,51.1151],[-0.49537,51.11478],[-0.49339,51.11393],[-0.49321,51.11388],[-0.49254,51.11384],[-0.49108,51.114],[-0.48848,51.11393],[-0.48842,51.11333],[-0.48845,51.11218],[-0.48797,51.11018],[-0.48787,51.10994],[-0.48723,51.1091],[-0.48628,51.10823],[-0.48524,51.10773],[-0.48382,51.10746],[-0.48352,51.10736],[-0.48236,51.10653],[-0.48122,51.10588],[-0.48061,51.10563],[-0.48031,51.10543],[-0.47973,51.10475],[-0.47954,51.10415],[-0.47749,51.1019],[-0.47731,51.10175],[-0.47668,51.10143],[-0.47618,51.10101],[-0.47563,51.10026],[-0.47552,51.10019],[-0.47557,51.10018],[-0.47449,51.10053],[-0.4742,51.10056],[-0.47305,51.10044],[-0.47244,51.10052],[-0.468,51.10171],[-0.46648,51.10229],[-0.46548,51.10295],[-0.46447,51.1038],[-0.4642,51.10395],[-0.46386,51.10403],[-0.46349,51.10389],[-0.46093,51.10338],[-0.461,51.10231],[-0.46081,51.10096],[-0.46048,51.0995],[-0.46033,51.09918],[-0.46013,51.0992],[-0.46033,51.09917],[-0.45851,51.09947],[-0.45821,51.09928],[-0.45797,51.09894],[-0.45771,51.0987],[-0.45754,51.09861],[-0.45742,51.09844],[-0.4572,51.09836],[-0.45642,51.09562],[-0.4555,51.09387],[-0.45491,51.09307],[-0.45428,51.09235],[-0.45318,51.09125],[-0.45034,51.08924],[-0.4501,51.08931],[-0.44964,51.0892],[-0.44979,51.08886],[-0.44872,51.08814],[-0.44846,51.08819],[-0.44832,51.08808],[-0.44815,51.08811],[-0.44799,51.08785],[-0.44803,51.08767],[-0.44691,51.08695],[-0.44659,51.08704],[-0.44634,51.08678],[-0.44639,51.08663],[-0.44614,51.08673],[-0.44605,51.08671],[-0.44596,51.08665],[-0.44588,51.08633],[-0.44559,51.0862],[-0.44538,51.08626],[-0.44529,51.08619],[-0.44539,51.0861],[-0.44492,51.08588],[-0.44486,51.08574],[-0.44473,51.08585],[-0.4445,51.08556],[-0.44256,51.08462],[-0.43829,51.08291],[-0.43637,51.08186],[-0.43562,51.08136],[-0.43499,51.08157],[-0.43482,51.08148],[-0.43464,51.08147],[-0.43464,51.0814],[-0.43431,51.08128],[-0.43422,51.08107],[-0.43438,51.08053],[-0.43271,51.07908],[-0.4314,51.07782],[-0.43,51.07675],[-0.42764,51.07513],[-0.42747,51.07511],[-0.42749,51.07502],[-0.42674,51.07447],[-0.42655,51.07447],[-0.42664,51.0744],[-0.42641,51.0744],[-0.42628,51.07428],[-0.42622,51.07409],[-0.42558,51.07363],[-0.42531,51.0736],[-0.42536,51.07346],[-0.42527,51.0734],[-0.42499,51.07349],[-0.4249,51.07346],[-0.42483,51.07308],[-0.42326,51.07194],[-0.42181,51.07102],[-0.41945,51.06981],[-0.41758,51.06902],[-0.41596,51.06848],[-0.41562,51.06831],[-0.41424,51.06789],[-0.41261,51.06745],[-0.41218,51.06744],[-0.40783,51.06629],[-0.40678,51.06589],[-0.40587,51.06564],[-0.40484,51.0654],[-0.40434,51.06532],[-0.39714,51.06341],[-0.39673,51.06322],[-0.39627,51.06309],[-0.38784,51.06085],[-0.38538,51.06002],[-0.38283,51.05888],[-0.37892,51.05673],[-0.37585,51.05496],[-0.37575,51.05496],[-0.37572,51.05489],[-0.37119,51.05237],[-0.36984,51.05162],[-0.36904,51.05132],[-0.36821,51.05114],[-0.36675,51.05098],[-0.36611,51.05098],[-0.36495,51.05112],[-0.36357,51.05152],[-0.36333,51.05162],[-0.36311,51.05186],[-0.36306,51.05177],[-0.36315,51.0518],[-0.3628,51.05168],[-0.36227,51.05129],[-0.36209,51.0511],[-0.36211,51.05098],[-0.36301,51.05044],[-0.363,51.05036],[-0.36313,51.05014],[-0.36354,51.05016],[-0.36433,51.04922],[-0.36436,51.04883],[-0.36428,51.04871],[-0.36406,51.04856],[-0.36333,51.04821],[-0.36115,51.04753],[-0.36061,51.04744],[-0.35986,51.04742],[-0.35964,51.04737],[-0.3589,51.04705],[-0.35608,51.04655],[-0.35546,51.04649],[-0.35432,51.04649],[-0.3538,51.04645],[-0.35279,51.04614],[-0.35272,51.04605],[-0.35296,51.04556],[-0.35379,51.04468],[-0.35655,51.04241],[-0.35697,51.04176],[-0.35729,51.04112],[-0.35793,51.03943],[-0.35515,51.03906],[-0.35472,51.03892],[-0.35401,51.03881],[-0.35145,51.03883],[-0.35061,51.03855],[-0.35006,51.03842],[-0.34813,51.03817],[-0.34724,51.0378],[-0.34706,51.03785],[-0.34674,51.03817],[-0.34679,51.03818],[-0.34683,51.03807],[-0.34704,51.03786],[-0.34866,51.03697],[-0.34955,51.03621],[-0.35049,51.03521],[-0.35072,51.03459],[-0.35058,51.03447],[-0.34995,51.03444],[-0.3483,51.03472],[-0.34729,51.03499],[-0.34684,51.03503],[-0.34622,51.03499],[-0.34507,51.03474],[-0.34461,51.03478],[-0.3442,51.03502],[-0.34319,51.03588],[-0.34243,51.03619],[-0.34207,51.03631],[-0.34022,51.03653],[-0.33997,51.03658],[-0.33953,51.03677],[-0.33901,51.03728],[-0.33809,51.03886],[-0.33779,51.03911],[-0.33732,51.03914],[-0.33642,51.03898],[-0.33466,51.03839],[-0.33343,51.03811],[-0.33325,51.03802],[-0.33315,51.03782],[-0.33304,51.03778],[-0.33173,51.03772],[-0.33054,51.03777],[-0.32927,51.03767],[-0.32839,51.03766],[-0.32772,51.03748],[-0.32688,51.03742],[-0.32615,51.03726],[-0.32406,51.03676],[-0.32308,51.03641],[-0.32208,51.03618],[-0.32149,51.03609],[-0.32029,51.03615],[-0.31985,51.03613],[-0.31893,51.03597],[-0.31838,51.03584],[-0.31746,51.03489],[-0.31666,51.03491],[-0.31373,51.0352],[-0.31168,51.035],[-0.30922,51.03508],[-0.30913,51.03511],[-0.30938,51.03363],[-0.30978,51.0324],[-0.31027,51.03149],[-0.31038,51.03098],[-0.31072,51.03049],[-0.31128,51.02994],[-0.31152,51.02962],[-0.31156,51.02947],[-0.31153,51.02926],[-0.31146,51.0292],[-0.31083,51.02906],[-0.31073,51.02898],[-0.31074,51.02866],[-0.31174,51.02675],[-0.31184,51.02579],[-0.31134,51.02549],[-0.31101,51.02542],[-0.31054,51.02544],[-0.30967,51.02488],[-0.30928,51.02475],[-0.3071,51.02448],[-0.30531,51.02457],[-0.30507,51.0245],[-0.30438,51.024],[-0.30412,51.02401],[-0.30357,51.02411],[-0.30245,51.02396],[-0.30071,51.02347],[-0.30073,51.02272],[-0.29946,51.02255],[-0.29792,51.0225],[-0.29763,51.02255],[-0.29727,51.023],[-0.29727,51.02336],[-0.29702,51.0236],[-0.29636,51.02359],[-0.29508,51.02381],[-0.29455,51.0238],[-0.29412,51.02373],[-0.29384,51.02358],[-0.29327,51.02315],[-0.29279,51.0229],[-0.29222,51.02277],[-0.29143,51.02246],[-0.29017,51.02233],[-0.28939,51.02204],[-0.28921,51.02194],[-0.28892,51.02157],[-0.28858,51.02141],[-0.28807,51.02153],[-0.28735,51.02185],[-0.28661,51.02199],[-0.28543,51.02251],[-0.28447,51.02267],[-0.28376,51.02265],[-0.28286,51.02303],[-0.28237,51.02329],[-0.28182,51.02329],[-0.28141,51.02297],[-0.28131,51.02298],[-0.28116,51.0231],[-0.28082,51.02293],[-0.27985,51.02197],[-0.27943,51.02173],[-0.2794,51.02161],[-0.27934,51.02165],[-0.27941,51.02161],[-0.27884,51.0211],[-0.27878,51.02097],[-0.27849,51.02069],[-0.2767,51.01921],[-0.2749,51.01751],[-0.27154,51.01519],[-0.2711,51.01519],[-0.26996,51.01504],[-0.26899,51.01521],[-0.26764,51.0158],[-0.26629,51.0162],[-0.26502,51.01634],[-0.263,51.01618],[-0.26199,51.01639],[-0.26171,51.01559],[-0.2617,51.01442],[-0.26001,51.01382],[-0.25635,51.01283],[-0.25262,51.01191],[-0.2519,51.01177],[-0.25166,51.01167],[-0.25127,51.01133],[-0.2512,51.01101],[-0.25087,51.01064],[-0.25076,51.01037],[-0.25081,51.00904],[-0.25065,51.00876],[-0.25079,51.0086],[-0.25113,51.0084],[-0.25127,51.00822],[-0.2513,51.00772],[-0.2512,51.00762],[-0.25072,51.00759],[-0.24929,51.00769],[-0.24815,51.00756],[-0.24702,51.00753],[-0.24569,51.00765],[-0.2448,51.00783],[-0.24427,51.00785],[-0.2439,51.00779],[-0.24374,51.00756],[-0.24371,51.00713],[-0.244,51.00633],[-0.24397,51.00599],[-0.24118,51.00381],[-0.24108,51.00368],[-0.24063,51.00375],[-0.24034,51.00374],[-0.23977,51.00391],[-0.23974,51.00402],[-0.23961,51.00399],[-0.23877,51.00423],[-0.23803,51.00453],[-0.23745,51.00489],[-0.23627,51.005],[-0.23594,51.00514],[-0.23574,51.00568],[-0.2355,51.00608],[-0.23502,51.00614],[-0.23473,51.00598],[-0.23455,51.00539],[-0.23388,51.00444],[-0.23301,51.00372],[-0.23159,51.00307],[-0.23178,51.00346],[-0.2317,51.00368],[-0.23136,51.00413],[-0.23067,51.00435],[-0.22956,51.0045],[-0.22914,51.0044],[-0.2285,51.00413],[-0.22569,51.00349],[-0.22517,51.00343],[-0.22487,51.00331],[-0.22424,51.0028],[-0.22385,51.00269],[-0.22296,51.00228],[-0.22273,51.0021],[-0.22226,51.00139],[-0.22206,51.00135],[-0.22141,51.00145],[-0.21955,51.00133],[-0.21741,51.00133],[-0.21696,51.00137],[-0.21625,51.00119],[-0.2152,51.00072],[-0.21451,51.00054],[-0.21418,51.00041],[-0.21344,50.99994],[-0.21211,50.9993],[-0.21158,50.99923],[-0.21046,50.99927],[-0.21019,50.99923],[-0.20979,50.999],[-0.20957,50.99886],[-0.20922,50.99822],[-0.20923,50.99693],[-0.20918,50.99681],[-0.20618,50.99654],[-0.20609,50.99652],[-0.20608,50.99634],[-0.20597,50.99621],[-0.20579,50.99615],[-0.2033,50.99609],[-0.20313,50.996],[-0.20225,50.99599],[-0.20184,50.99608],[-0.20132,50.99634],[-0.20095,50.99692],[-0.20059,50.99724],[-0.19941,50.99697],[-0.19918,50.997],[-0.19897,50.99708],[-0.1991,50.99758],[-0.19923,50.99907],[-0.19912,51.00006],[-0.19882,51.00055],[-0.19791,51.00138],[-0.19767,51.00143],[-0.19568,51.00137],[-0.19386,51.00113],[-0.19246,51.0011],[-0.18846,51.00149],[-0.18673,51.00172],[-0.18613,51.00177],[-0.18406,51.00169],[-0.18217,51.00187],[-0.18094,51.00211],[-0.17883,51.00226],[-0.17793,51.00249],[-0.1773,51.0029],[-0.17638,51.00317],[-0.17587,51.00339],[-0.17567,51.00352],[-0.17559,51.00366],[-0.17578,51.00412],[-0.17568,51.00393],[-0.1749,51.00396],[-0.1748,51.00401],[-0.17409,51.00495],[-0.17351,51.00618],[-0.17337,51.00627],[-0.1723,51.00632],[-0.17168,51.00627],[-0.17049,51.00655],[-0.17008,51.00658],[-0.16812,51.00641],[-0.16777,51.00642],[-0.16634,51.0066],[-0.16574,51.00351],[-0.16498,51.00343],[-0.16384,51.00318],[-0.16338,51.00313],[-0.1612,51.00253],[-0.15949,51.00247],[-0.15935,51.00218],[-0.15942,51.00191],[-0.15933,51.00185],[-0.15798,51.00155],[-0.15689,51.0014],[-0.15638,51.00125],[-0.15604,51.00106],[-0.15562,51.00067],[-0.15488,51.00015],[-0.15459,50.99983],[-0.15461,50.99944],[-0.15467,50.9994],[-0.15483,50.99947],[-0.15465,50.99942],[-0.15244,51.00059],[-0.15205,51.00066],[-0.15192,51.00083],[-0.15179,51.00085],[-0.15159,51.00113],[-0.15129,51.00138],[-0.15021,51.00205],[-0.14831,51.00348],[-0.14765,51.00391],[-0.14686,51.00431],[-0.14465,51.00507],[-0.14452,51.00516],[-0.14421,51.00563],[-0.14407,51.0057],[-0.14293,51.00581],[-0.14263,51.00611],[-0.14203,51.00656],[-0.14111,51.00653],[-0.13756,51.00681],[-0.1375,51.00677],[-0.13743,51.00624],[-0.13748,51.00607],[-0.14094,51.00524],[-0.14089,51.00521],[-0.14088,51.00526],[-0.13574,51.00652],[-0.1348,51.00669],[-0.13432,51.00668],[-0.13267,51.00621],[-0.13204,51.00597]]}},{"type":"Feature","properties":{"day":5,"name":"[BRITISH LOVE ROAD] Jour 5 : de Cuckfield à Brighton"},"geometry":{"type":"LineString","coordinates":[[-0.13201,51.00589],[-0.13226,51.00605],[-0.13263,51.00619],[-0.13434,51.00668],[-0.13563,51.00684],[-0.13695,51.00685],[-0.1412,51.00652],[-0.14192,51.00654],[-0.14217,51.00647],[-0.14291,51.00581],[-0.14418,51.00567],[-0.1446,51.0051],[-0.1469,51.0043],[-0.14744,51.00402],[-0.14828,51.0035],[-0.14999,51.00222],[-0.15148,51.00123],[-0.1517,51.00093],[-0.15169,51.00083],[-0.15175,51.00085],[-0.15165,51.00071],[-0.15241,51.0006],[-0.15469,50.99939],[-0.15485,50.9995],[-0.15469,50.9996],[-0.1546,50.99974],[-0.1547,50.99991],[-0.15528,51.00033],[-0.15541,51.00052],[-0.15603,51.00106],[-0.15632,51.00123],[-0.15687,51.00142],[-0.15739,51.00151],[-0.15759,51.00149],[-0.15941,51.00186],[-0.15938,51.00237],[-0.15979,51.0025],[-0.16038,51.00249],[-0.16115,51.00257],[-0.1614,51.00255],[-0.16248,51.0026],[-0.1629,51.00275],[-0.16324,51.00308],[-0.16439,51.00335],[-0.16544,51.00349],[-0.16572,51.00341],[-0.16595,51.00303],[-0.16661,51.00239],[-0.16724,51.00162],[-0.16761,51.00084],[-0.16669,50.99867],[-0.16653,50.99847],[-0.1654,50.99793],[-0.16533,50.99785],[-0.1647,50.99695],[-0.16457,50.99628],[-0.1641,50.99572],[-0.16405,50.99556],[-0.16565,50.9948],[-0.16577,50.99471],[-0.16549,50.99459],[-0.16496,50.99513],[-0.16396,50.99558],[-0.16352,50.99518],[-0.16198,50.99454],[-0.16332,50.9941],[-0.16504,50.99308],[-0.16617,50.9926],[-0.16721,50.99224],[-0.16773,50.99211],[-0.16906,50.99207],[-0.17152,50.99181],[-0.17269,50.9916],[-0.17095,50.98957],[-0.1699,50.98892],[-0.16931,50.98832],[-0.16898,50.98777],[-0.16886,50.98703],[-0.16924,50.98506],[-0.16932,50.98477],[-0.16993,50.98379],[-0.17012,50.98269],[-0.17105,50.98154],[-0.17272,50.98011],[-0.17368,50.97807],[-0.17436,50.97709],[-0.1748,50.97596],[-0.1751,50.97537],[-0.17506,50.9752],[-0.17439,50.97427],[-0.1739,50.97259],[-0.17381,50.97175],[-0.17389,50.97021],[-0.17351,50.96997],[-0.17212,50.96995],[-0.17158,50.96999],[-0.17135,50.97008],[-0.17134,50.96987],[-0.17079,50.9697],[-0.17097,50.9694],[-0.17157,50.96684],[-0.17162,50.96606],[-0.1715,50.96593],[-0.17128,50.96587],[-0.17109,50.96597],[-0.17114,50.96613],[-0.1712,50.96613],[-0.1712,50.96607],[-0.17118,50.96595],[-0.17111,50.96592],[-0.17114,50.96584],[-0.1706,50.96566],[-0.16962,50.96439],[-0.16948,50.96394],[-0.16934,50.96309],[-0.16951,50.96217],[-0.16882,50.95885],[-0.16888,50.95807],[-0.16878,50.95737],[-0.16889,50.95687],[-0.16843,50.95579],[-0.1684,50.95557],[-0.16836,50.95424],[-0.16848,50.95366],[-0.16868,50.95331],[-0.16874,50.95198],[-0.1689,50.95179],[-0.16962,50.95133],[-0.16975,50.95114],[-0.1699,50.95079],[-0.16981,50.95029],[-0.17,50.94983],[-0.17035,50.94926],[-0.17058,50.94848],[-0.17155,50.94711],[-0.17249,50.94649],[-0.17342,50.94453],[-0.17368,50.94421],[-0.17406,50.94398],[-0.17664,50.94321],[-0.177,50.9432],[-0.17711,50.94314],[-0.17868,50.94063],[-0.17887,50.94003],[-0.17903,50.93897],[-0.17941,50.93485],[-0.17978,50.93288],[-0.17981,50.93039],[-0.18015,50.9298],[-0.18139,50.92818],[-0.1817,50.92762],[-0.1819,50.92693],[-0.1819,50.92605],[-0.18203,50.92544],[-0.18226,50.92486],[-0.18256,50.92442],[-0.18284,50.92414],[-0.18323,50.92391],[-0.18377,50.92371],[-0.1875,50.92304],[-0.18814,50.9229],[-0.18937,50.92247],[-0.18977,50.92221],[-0.19071,50.92094],[-0.19105,50.92069],[-0.19201,50.92026],[-0.19307,50.91997],[-0.19562,50.91942],[-0.19565,50.91931],[-0.1944,50.9175],[-0.19442,50.91755],[-0.19433,50.91759],[-0.19443,50.91756],[-0.19368,50.91658],[-0.19284,50.91563],[-0.19227,50.91513],[-0.19207,50.91475],[-0.19269,50.91259],[-0.19257,50.91242],[-0.19256,50.91146],[-0.19221,50.91045],[-0.19228,50.91049],[-0.1926,50.91163],[-0.19254,50.91294],[-0.19262,50.91288],[-0.1928,50.91221],[-0.19282,50.9113],[-0.19209,50.90965],[-0.19231,50.9096],[-0.19306,50.90962],[-0.19363,50.90817],[-0.19361,50.90762],[-0.19381,50.90702],[-0.19561,50.90444],[-0.19711,50.90301],[-0.19709,50.9016],[-0.198,50.90069],[-0.19874,50.89973],[-0.19923,50.89842],[-0.19934,50.89823],[-0.19958,50.89803],[-0.19963,50.89678],[-0.20021,50.89548],[-0.20049,50.89421],[-0.19974,50.89256],[-0.19872,50.89138],[-0.19604,50.88969],[-0.19414,50.88838],[-0.19291,50.88726],[-0.19276,50.88681],[-0.19282,50.88643],[-0.19292,50.88631],[-0.19324,50.88615],[-0.19435,50.88594],[-0.19542,50.88568],[-0.20062,50.88382],[-0.20239,50.88326],[-0.20616,50.88217],[-0.20704,50.88202],[-0.20824,50.88139],[-0.20845,50.88124],[-0.20847,50.88114],[-0.20852,50.88121],[-0.20859,50.88117],[-0.21031,50.88011],[-0.21017,50.87997],[-0.20878,50.87961],[-0.20724,50.8789],[-0.2024,50.87576],[-0.20082,50.87485],[-0.19941,50.87126],[-0.19885,50.86958],[-0.19858,50.86844],[-0.19935,50.8679],[-0.1998,50.86621],[-0.20092,50.86448],[-0.2017,50.86311],[-0.2021,50.86188],[-0.20213,50.86098],[-0.20207,50.86073],[-0.20181,50.86015],[-0.20132,50.85956],[-0.20053,50.85896],[-0.19863,50.85792],[-0.1979,50.85726],[-0.19719,50.85636],[-0.19726,50.85571],[-0.19713,50.85554],[-0.19713,50.85519],[-0.19728,50.85436],[-0.19759,50.85344],[-0.19759,50.85291],[-0.1977,50.85279],[-0.19756,50.85264],[-0.19741,50.85262],[-0.19672,50.85181],[-0.19654,50.85108],[-0.19632,50.85052],[-0.19508,50.84887],[-0.19462,50.84797],[-0.19443,50.84699],[-0.19444,50.84664],[-0.19453,50.84614],[-0.19487,50.84547],[-0.19485,50.84513],[-0.19413,50.84492],[-0.19389,50.84472],[-0.19303,50.84475],[-0.19263,50.84454],[-0.18741,50.84312],[-0.18818,50.84062],[-0.18805,50.83878],[-0.18795,50.83866],[-0.18694,50.83876],[-0.18675,50.83821],[-0.18577,50.83736],[-0.18523,50.83708],[-0.18465,50.83696],[-0.18414,50.83692],[-0.18417,50.83657],[-0.18462,50.83522],[-0.18305,50.83501],[-0.18486,50.82987],[-0.18476,50.82974],[-0.17978,50.82901],[-0.17665,50.82845],[-0.17542,50.82831],[-0.17536,50.82819],[-0.17753,50.82562],[-0.17771,50.82561],[-0.17761,50.82551],[-0.17768,50.82539],[-0.17727,50.82595],[-0.17727,50.82606],[-0.1776,50.82616],[-0.17737,50.82609],[-0.17723,50.82599],[-0.17771,50.82539],[-0.179,50.82554],[-0.17963,50.82556],[-0.18189,50.82576],[-0.18181,50.82594]]}},{"type":"Feature","properties":{"day":6,"name":"[BRITISH LOVE ROAD] Jour 6 : de De Brighthon à Newhaven"},"geometry":{"type":"LineString","coordinates":[[-0.18189,50.82592],[-0.18179,50.8259],[-0.18167,50.82574],[-0.1808,50.82565],[-0.18118,50.82495],[-0.18116,50.82483],[-0.18094,50.82475],[-0.17849,50.82447],[-0.1779,50.82449],[-0.17637,50.82433],[-0.17356,50.82415],[-0.17228,50.82419],[-0.17217,50.82456],[-0.17203,50.82461],[-0.16531,50.82388],[-0.15683,50.82267],[-0.15299,50.822],[-0.15015,50.82143],[-0.14898,50.82129],[-0.14621,50.82073],[-0.14584,50.8207],[-0.14474,50.82043],[-0.14147,50.81993],[-0.13918,50.81932],[-0.13839,50.81931],[-0.1367,50.81938],[-0.13596,50.81934],[-0.13572,50.81939],[-0.13237,50.8191],[-0.12122,50.81685],[-0.11981,50.81661],[-0.11269,50.81501],[-0.10917,50.81417],[-0.10811,50.81419],[-0.10823,50.81428],[-0.10804,50.81419],[-0.10805,50.8143],[-0.10819,50.81426],[-0.10806,50.8144],[-0.10849,50.81435],[-0.10778,50.81439],[-0.10707,50.81433],[-0.1064,50.81447],[-0.10489,50.81457],[-0.10234,50.8143],[-0.09822,50.81359],[-0.09552,50.813],[-0.0937,50.81272],[-0.09238,50.81245],[-0.08965,50.81176],[-0.08024,50.80909],[-0.07128,50.80669],[-0.06728,50.8054],[-0.0629,50.80413],[-0.06016,50.8034],[-0.05869,50.80314],[-0.05844,50.80321],[-0.05768,50.80325],[-0.05704,50.80342],[-0.0565,50.80342],[-0.05597,50.80324],[-0.05435,50.80249],[-0.05325,50.80217],[-0.05211,50.802],[-0.04938,50.8019],[-0.04454,50.80111],[-0.04326,50.80099],[-0.04196,50.8008],[-0.04199,50.80071],[-0.0419,50.80078],[-0.04047,50.80057],[-0.03966,50.80039],[-0.03951,50.80027],[-0.03902,50.80015],[-0.03905,50.80025],[-0.03928,50.8003],[-0.03923,50.8002],[-0.03684,50.79963],[-0.02974,50.79757],[-0.02528,50.79674],[-0.02409,50.79643],[-0.02295,50.79606],[-0.02281,50.79606],[-0.02288,50.79619],[-0.02253,50.79611],[-0.02223,50.79615],[-0.02118,50.79767],[-0.02108,50.79803],[-0.02122,50.79859],[-0.02138,50.79881],[-0.02124,50.79955],[-0.01813,50.79869],[-0.01792,50.79869],[-0.01759,50.7991],[-0.01331,50.79783],[-0.01344,50.79759],[-0.01342,50.79753],[-0.01032,50.79665],[-0.00883,50.79613],[-0.00506,50.79526],[-0.00433,50.79504],[0.00182,50.79366],[0.01456,50.79068],[0.01734,50.79006],[0.01858,50.78983],[0.01858,50.78958],[0.01952,50.78943],[0.01931,50.78879],[0.01938,50.78871],[0.02066,50.78855],[0.02092,50.78859],[0.02134,50.78839],[0.02119,50.78795],[0.02122,50.78783],[0.02222,50.7881],[0.02544,50.79021],[0.02644,50.79055],[0.02722,50.79068],[0.02792,50.79072],[0.02993,50.79044],[0.03085,50.79022],[0.03182,50.78968],[0.03217,50.78954],[0.03258,50.78948],[0.0329,50.78949],[0.0348,50.79022],[0.03689,50.79122],[0.03855,50.79182],[0.03991,50.79223],[0.0408,50.7929],[0.04189,50.7935],[0.04242,50.79366],[0.04376,50.79376],[0.0436,50.79394],[0.04366,50.794],[0.04598,50.79525],[0.0458,50.79543],[0.04587,50.7955],[0.04641,50.79576],[0.04682,50.79523],[0.0467,50.79507],[0.04688,50.79501],[0.04692,50.79514],[0.04732,50.79525],[0.04798,50.79527],[0.04909,50.79512],[0.0516,50.79488],[0.05196,50.79489],[0.05281,50.7951],[0.05272,50.79517],[0.05252,50.79504],[0.05205,50.79491],[0.05162,50.79488],[0.05177,50.79476],[0.05189,50.79484],[0.05266,50.79503],[0.05398,50.79516],[0.05497,50.79534],[0.05521,50.79541],[0.05681,50.79614],[0.05725,50.79629],[0.05734,50.79581],[0.05702,50.79571],[0.05676,50.79577],[0.05662,50.79574],[0.05655,50.79558],[0.05633,50.79557],[0.0561,50.79575],[0.056,50.79577],[0.05523,50.79542],[0.05419,50.79519],[0.05401,50.79508],[0.05408,50.79487],[0.05425,50.79472],[0.0542,50.79315]]}},{"type":"Feature","properties":{"day":7,"name":"[BRITISH LOVE ROAD] Jour 7 : de De Dieppe à la maison"},"geometry":{"type":"LineString","coordinates":[[1.07717,49.92549],[1.07756,49.92552],[1.0777,49.92576],[1.0779,49.92591],[1.07877,49.92612],[1.0797,49.92641],[1.08096,49.9244],[1.08117,49.92403],[1.08122,49.92379],[1.08112,49.92367],[1.08094,49.92362],[1.0735,49.9234],[1.07325,49.92334],[1.07313,49.92321],[1.07308,49.92292],[1.07364,49.9206],[1.07552,49.91141],[1.0752,49.91126],[1.0751,49.91106],[1.07552,49.91063],[1.07562,49.9104],[1.0768,49.90508],[1.07625,49.90488],[1.07552,49.90435],[1.07527,49.90427],[1.075,49.90424],[1.07496,49.90416],[1.07492,49.90374],[1.07496,49.90108],[1.07492,49.90086],[1.07391,49.89913],[1.07392,49.8989],[1.07413,49.89818],[1.07429,49.89518],[1.07388,49.89375],[1.07379,49.89321],[1.07349,49.89281],[1.07344,49.89247],[1.07305,49.89166],[1.07289,49.89141],[1.07251,49.89112],[1.07128,49.89056],[1.06805,49.88927],[1.06763,49.88895],[1.06746,49.88865],[1.06743,49.88834],[1.06765,49.88702],[1.06747,49.88582],[1.06746,49.8852],[1.06784,49.88362],[1.06788,49.88275],[1.0678,49.88171],[1.06814,49.88003],[1.06834,49.87825],[1.06899,49.87672],[1.06903,49.87641],[1.06885,49.87364],[1.06893,49.87234],[1.07008,49.87068],[1.07041,49.86924],[1.07113,49.86698],[1.07148,49.86505],[1.07159,49.86349],[1.07143,49.86213],[1.07087,49.85938],[1.07075,49.85828],[1.07205,49.85631],[1.072,49.85607],[1.07113,49.85532],[1.0709,49.85487],[1.07055,49.85341],[1.07039,49.85245],[1.07069,49.85187],[1.07094,49.85159],[1.072,49.85093],[1.07224,49.85066],[1.07232,49.85039],[1.07231,49.84978],[1.07249,49.84909],[1.07323,49.84761],[1.07397,49.84649],[1.07575,49.84466],[1.07623,49.84399],[1.07635,49.84322],[1.07626,49.84067],[1.07629,49.83996],[1.07654,49.83896],[1.07711,49.83744],[1.07727,49.83723],[1.0775,49.83705],[1.07902,49.83623],[1.08043,49.83553],[1.08206,49.83501],[1.08233,49.83487],[1.08279,49.83454],[1.0843,49.83276],[1.08494,49.83189],[1.08589,49.83108],[1.08606,49.83077],[1.08624,49.82994],[1.08682,49.82918],[1.08759,49.82755],[1.08803,49.82708],[1.08883,49.82659],[1.09123,49.82335],[1.09124,49.82301],[1.09081,49.82216],[1.09064,49.82168],[1.09063,49.82147],[1.09075,49.82086],[1.0907,49.8206],[1.09057,49.82037],[1.09004,49.81981],[1.08988,49.81956],[1.08998,49.81898],[1.0902,49.81849],[1.09073,49.8179],[1.09493,49.81528],[1.09533,49.81477],[1.0957,49.81375],[1.09638,49.81266],[1.09657,49.81209],[1.09602,49.81121],[1.09589,49.8108],[1.09641,49.80933],[1.09659,49.8072],[1.09713,49.80624],[1.09753,49.80569],[1.09777,49.80539],[1.09845,49.80479],[1.09931,49.80428],[1.09966,49.8041],[1.1015,49.80343],[1.10213,49.80305],[1.10276,49.80252],[1.1034,49.80155],[1.10411,49.80007],[1.10393,49.79997],[1.10384,49.80006],[1.10353,49.80007],[1.10339,49.80016],[1.10339,49.80007],[1.10374,49.80005],[1.1039,49.79997],[1.10417,49.79996],[1.10482,49.79868],[1.10505,49.79769],[1.10589,49.79624],[1.10635,49.79502],[1.10674,49.79442],[1.10774,49.79318],[1.1079,49.79289],[1.10806,49.79249],[1.10852,49.79066],[1.1085,49.7901],[1.10922,49.789],[1.10952,49.78822],[1.10978,49.78816],[1.11076,49.78745],[1.11136,49.78676],[1.11187,49.78593],[1.11277,49.78354],[1.11189,49.78153],[1.11193,49.78083],[1.11212,49.77994],[1.11227,49.77962],[1.11257,49.77928],[1.11334,49.77886],[1.11364,49.77878],[1.11404,49.77879],[1.11781,49.77935],[1.11922,49.77877],[1.11983,49.77835],[1.12011,49.77808],[1.12041,49.77764],[1.12113,49.7758],[1.12128,49.77523],[1.12135,49.77467],[1.12163,49.7741],[1.12192,49.77381],[1.12286,49.77324],[1.12339,49.77278],[1.12408,49.77214],[1.12493,49.77116],[1.12524,49.77069],[1.12559,49.76931],[1.12574,49.76899],[1.12586,49.76886],[1.12642,49.76851],[1.1265,49.76835],[1.1265,49.76813],[1.12626,49.7672],[1.12613,49.76567],[1.12557,49.76427],[1.12521,49.76362],[1.12411,49.76003],[1.12418,49.75907],[1.12448,49.758],[1.12451,49.75757],[1.12443,49.75729],[1.12289,49.75579],[1.12233,49.75493],[1.1207,49.75315],[1.12009,49.75211],[1.11971,49.75179],[1.11885,49.75118],[1.11613,49.74974],[1.11537,49.74906],[1.11489,49.7484],[1.11427,49.74736],[1.11424,49.74713],[1.11436,49.74671],[1.11473,49.74602],[1.11481,49.74568],[1.1146,49.74524],[1.11441,49.74498],[1.11386,49.74456],[1.11321,49.74435],[1.11208,49.7441],[1.10991,49.74334],[1.10977,49.74325],[1.10882,49.74229],[1.10861,49.74201],[1.10834,49.74129],[1.10809,49.73994],[1.10789,49.73947],[1.10754,49.73904],[1.10612,49.7381],[1.10398,49.73688],[1.10356,49.73655],[1.10286,49.73553],[1.10216,49.73419],[1.10187,49.73351],[1.10204,49.73125],[1.10215,49.73073],[1.10143,49.72805],[1.10121,49.72753],[1.10027,49.72624],[1.09875,49.72541],[1.09752,49.72435],[1.0963,49.72302],[1.09623,49.72282],[1.0963,49.72268],[1.09715,49.72194],[1.09874,49.7207],[1.09932,49.71994],[1.09951,49.71961],[1.09949,49.71944],[1.09961,49.71947],[1.09966,49.71941],[1.09946,49.71939],[1.09939,49.71929],[1.09943,49.71916],[1.09966,49.71941],[1.09947,49.71941],[1.09966,49.71941],[1.09991,49.71913],[1.10052,49.71909],[1.10162,49.71893],[1.10228,49.71865],[1.10258,49.71846],[1.10384,49.71746],[1.10388,49.71732],[1.10401,49.71737],[1.10399,49.7173],[1.10401,49.71737],[1.10378,49.71749],[1.10267,49.7184],[1.10232,49.71862],[1.10161,49.71893],[1.10045,49.7191],[1.09961,49.71908],[1.09951,49.71845],[1.09978,49.71823],[1.09958,49.7171],[1.09942,49.71699],[1.09959,49.71682],[1.10017,49.7166],[1.10031,49.71647],[1.10044,49.71542],[1.1007,49.71454],[1.10114,49.71243],[1.1018,49.71157],[1.10462,49.70846],[1.10567,49.70679],[1.10588,49.70571],[1.10579,49.70436],[1.10597,49.70369],[1.10606,49.70252],[1.10629,49.70171],[1.10688,49.70033],[1.10847,49.69836],[1.10936,49.69583],[1.10993,49.69505],[1.11038,49.6942],[1.11059,49.6934],[1.11063,49.69284],[1.11028,49.69147],[1.11033,49.69086],[1.1106,49.69043],[1.11186,49.6888],[1.11305,49.68765],[1.11437,49.68652],[1.1149,49.68577],[1.1153,49.68494],[1.11591,49.68284],[1.11606,49.68207],[1.1159,49.68189],[1.1153,49.68156],[1.11523,49.68139],[1.11526,49.68126],[1.11627,49.67998],[1.11737,49.67896],[1.11826,49.6784],[1.11844,49.67812],[1.11849,49.67778],[1.11861,49.67751],[1.11885,49.67735],[1.12125,49.67661],[1.12142,49.6765],[1.12146,49.67635],[1.12141,49.67622],[1.1213,49.67613],[1.12109,49.67608],[1.11954,49.67629],[1.11915,49.67627],[1.11898,49.67619],[1.11875,49.67583],[1.11868,49.67517],[1.11885,49.67518],[1.11892,49.67523],[1.11869,49.67524],[1.11885,49.67514],[1.11867,49.67504],[1.11866,49.67493],[1.11983,49.67449],[1.11959,49.67367],[1.11938,49.67216],[1.11887,49.67029],[1.11864,49.66984],[1.11754,49.6687],[1.11743,49.66837],[1.11763,49.66753],[1.11825,49.66669],[1.11833,49.66619],[1.11851,49.66569],[1.11899,49.66507],[1.11921,49.66465],[1.11922,49.66422],[1.11891,49.66363],[1.11841,49.66312],[1.11831,49.66284],[1.11833,49.66264],[1.11845,49.66238],[1.11889,49.66176],[1.11055,49.64216],[1.11887,49.64156],[1.11828,49.63936],[1.11816,49.63864],[1.11827,49.63802],[1.11919,49.63602],[1.11921,49.63545],[1.11908,49.63472],[1.11844,49.6333],[1.11845,49.63305],[1.11858,49.63269],[1.11886,49.63222],[1.11895,49.63188],[1.11876,49.6312],[1.11865,49.63098],[1.11845,49.63081],[1.11696,49.62984],[1.11613,49.62937],[1.11369,49.62834],[1.11333,49.62806],[1.11217,49.62652],[1.11213,49.62606],[1.11277,49.62315],[1.11276,49.62287],[1.11248,49.62172],[1.11181,49.62116],[1.11164,49.62038],[1.11135,49.61973],[1.11083,49.61876],[1.10996,49.61751],[1.10988,49.61644],[1.10993,49.61497],[1.10947,49.61366],[1.10912,49.61229],[1.1091,49.61133],[1.10998,49.60987],[1.1106,49.60839],[1.111,49.60809],[1.11205,49.60745],[1.11228,49.60725],[1.11247,49.60694],[1.11241,49.60601],[1.11333,49.60461],[1.11347,49.60411],[1.11375,49.60373],[1.11465,49.60286],[1.11552,49.60117],[1.11547,49.60102],[1.11356,49.60065],[1.11286,49.60045],[1.11035,49.59959],[1.11014,49.59881],[1.11017,49.59848],[1.11068,49.59766],[1.11113,49.59746],[1.11114,49.59739],[1.11098,49.59751],[1.11092,49.5975],[1.11084,49.59762],[1.11071,49.59755],[1.11072,49.59712],[1.11051,49.59669],[1.1101,49.59634],[1.10981,49.59619],[1.10629,49.59531],[1.09691,49.59219],[1.09655,49.59194],[1.0937,49.58867],[1.09268,49.58792],[1.09226,49.58742],[1.09152,49.5859],[1.09143,49.58554],[1.09155,49.58502],[1.09204,49.58427],[1.0921,49.58408],[1.09207,49.58383],[1.09189,49.58359],[1.09122,49.58307],[1.09102,49.58283],[1.09068,49.58157],[1.09069,49.58132],[1.09109,49.58046],[1.09111,49.57995],[1.09099,49.57927],[1.09083,49.57897],[1.09028,49.57853],[1.09001,49.57825],[1.08923,49.57656],[1.08786,49.57453],[1.08753,49.57414],[1.08638,49.5738],[1.08599,49.57365],[1.08573,49.57348],[1.08394,49.57201],[1.08369,49.57172],[1.08191,49.56863],[1.08155,49.56813],[1.07932,49.56668],[1.07697,49.56577],[1.07648,49.56544],[1.07614,49.565],[1.07477,49.56234],[1.07456,49.5616],[1.07454,49.55989],[1.0747,49.55848],[1.0748,49.55792],[1.07577,49.55534],[1.07567,49.55504],[1.07455,49.55366],[1.07398,49.55284],[1.07391,49.55125],[1.07458,49.55042],[1.07481,49.54998],[1.07452,49.5495],[1.07444,49.54881],[1.07448,49.54932],[1.07467,49.54973],[1.07462,49.54977],[1.07321,49.55015],[1.07209,49.55073],[1.07175,49.55081],[1.07109,49.55082],[1.07042,49.55067],[1.06826,49.5488],[1.06694,49.54787],[1.06569,49.54634],[1.06546,49.54611],[1.06479,49.54563],[1.06435,49.54536],[1.06303,49.54476],[1.06248,49.54439],[1.06126,49.54335],[1.0605,49.54298],[1.05829,49.54235],[1.05771,49.54209],[1.05612,49.54115],[1.05571,49.54084],[1.0547,49.53989],[1.05352,49.53813],[1.05136,49.53595],[1.05068,49.53549],[1.05008,49.53532],[1.04949,49.53505],[1.04821,49.5343],[1.04753,49.53379],[1.04477,49.5322],[1.04405,49.53174],[1.04283,49.53062],[1.04282,49.52986],[1.0421,49.52887],[1.0417,49.52844],[1.0415,49.52839],[1.04083,49.52903],[1.03978,49.52858],[1.03868,49.52801],[1.03757,49.52705],[1.03642,49.52638],[1.03496,49.52459],[1.03479,49.5243],[1.03458,49.52359],[1.03453,49.52224],[1.03434,49.52207],[1.03323,49.52153],[1.03288,49.52131],[1.03257,49.52109],[1.03236,49.52072],[1.03241,49.51734],[1.03166,49.51459],[1.0316,49.51297],[1.03166,49.51254],[1.03194,49.51196],[1.03284,49.51079],[1.03288,49.51028],[1.03314,49.50984],[1.03323,49.50975],[1.03357,49.50962],[1.03367,49.50937],[1.03377,49.50901],[1.03385,49.50718],[1.03371,49.50648],[1.03372,49.50621],[1.03396,49.50575],[1.03442,49.50531],[1.03589,49.50411],[1.03605,49.50384],[1.03626,49.50297],[1.03657,49.50247],[1.03688,49.5021],[1.03905,49.5003],[1.04002,49.49967],[1.04089,49.49891],[1.0412,49.49853],[1.04147,49.49772],[1.0413,49.49608],[1.04158,49.49343],[1.04166,49.49165],[1.0415,49.49067],[1.04159,49.48949],[1.04129,49.48794],[1.04125,49.48714],[1.04144,49.48599],[1.04211,49.48384],[1.04263,49.48254],[1.04253,49.48236],[1.03779,49.48187],[1.03684,49.48186],[1.03647,49.48197],[1.03675,49.48186],[1.03668,49.48173],[1.03662,49.48192],[1.03642,49.48197],[1.03673,49.48184],[1.03573,49.47993],[1.03588,49.47995],[1.03594,49.48007],[1.03587,49.48024],[1.03653,49.48143],[1.0368,49.48134],[1.03641,49.47996],[1.03675,49.47609],[1.03695,49.47449],[1.03772,49.47179],[1.03822,49.46804],[1.03831,49.46774],[1.0395,49.46539],[1.03971,49.46513],[1.04046,49.46447],[1.04069,49.46418],[1.04085,49.46388],[1.04119,49.46285],[1.04243,49.46145],[1.04318,49.46032],[1.04388,49.45895],[1.0442,49.45847],[1.04434,49.45819],[1.04408,49.45663],[1.04414,49.45631],[1.04444,49.45553],[1.04451,49.45482],[1.04552,49.45379],[1.04622,49.45323],[1.04634,49.45286],[1.04635,49.4523],[1.04657,49.45122],[1.04684,49.45038],[1.04727,49.4498],[1.04783,49.44924],[1.04796,49.44924],[1.04999,49.44958],[1.05022,49.44945],[1.05022,49.44953],[1.05538,49.45052],[1.05625,49.45064],[1.0565,49.45071],[1.05732,49.45068],[1.0573,49.45072],[1.05793,49.45048],[1.05809,49.45029],[1.05837,49.45022],[1.05858,49.45005],[1.05955,49.44895],[1.05971,49.44865],[1.05985,49.44794],[1.06021,49.44732],[1.06185,49.44553],[1.06221,49.44529],[1.0625,49.44517],[1.063,49.44504],[1.0634,49.44503],[1.0636,49.44508],[1.06389,49.44479],[1.06404,49.4448],[1.06447,49.44453],[1.06741,49.44431],[1.06893,49.4441],[1.07058,49.44376],[1.07161,49.44352],[1.08166,49.44053],[1.08193,49.44075],[1.08211,49.44077],[1.08224,49.44072],[1.08238,49.44081],[1.08234,49.44073],[1.08248,49.44068],[1.08269,49.44092],[1.08267,49.44086],[1.08269,49.44092],[1.08278,49.44095],[1.08469,49.44022],[1.08621,49.43977],[1.08849,49.43919],[1.08866,49.43897],[1.0876,49.4371],[1.08768,49.43695],[1.08784,49.43685],[1.09059,49.43607],[1.09108,49.43587],[1.09327,49.43526],[1.09356,49.43513],[1.09359,49.43504],[1.09329,49.43489],[1.09331,49.43474],[1.09119,49.43356],[1.09149,49.43335],[1.0916,49.43319],[1.09153,49.43216],[1.09268,49.43127],[1.09275,49.43126],[1.09272,49.43124],[1.09533,49.42919],[1.0952,49.42909],[1.09515,49.42883],[1.0945,49.42855],[1.09458,49.42858],[1.09476,49.42844],[1.09443,49.42851],[1.09244,49.42749],[1.09245,49.42728],[1.09311,49.42647],[1.09364,49.42516],[1.09385,49.42444],[1.09385,49.42424],[1.09281,49.4239]]}}]}