{"type":"FeatureCollection","features":[{"type":"Feature","properties":{"day":1,"name":"[GR 34 LOVE TOUR 2025] Jour 1 : de Dinard à Lancieux"},"geometry":{"type":"LineString","coordinates":[[-2.06716,48.63833],[-2.06724,48.63867],[-2.06732,48.63876],[-2.06975,48.63875],[-2.07079,48.63883],[-2.07104,48.6389],[-2.0721,48.63896],[-2.0726,48.63917],[-2.07271,48.63924],[-2.07274,48.63932],[-2.07314,48.63942],[-2.07395,48.6401],[-2.07438,48.64006],[-2.07503,48.63981],[-2.07523,48.63994],[-2.07523,48.64041],[-2.07592,48.64053],[-2.07616,48.64043],[-2.07623,48.64026],[-2.07659,48.64055],[-2.0767,48.64061],[-2.07684,48.6406],[-2.07707,48.64073],[-2.07717,48.64096],[-2.07756,48.64083],[-2.0777,48.64086],[-2.07788,48.64072],[-2.07771,48.64025],[-2.07749,48.64002],[-2.07727,48.63989],[-2.07727,48.63971],[-2.07741,48.63955],[-2.07729,48.63937],[-2.07741,48.63931],[-2.07797,48.63936],[-2.07824,48.6393],[-2.07852,48.63929],[-2.07893,48.63889],[-2.07907,48.63862],[-2.07932,48.63855],[-2.07981,48.63854],[-2.08,48.6384],[-2.08047,48.63834],[-2.08059,48.63829],[-2.08087,48.63796],[-2.08079,48.63804],[-2.08105,48.63791],[-2.08113,48.63754],[-2.08103,48.63729],[-2.08067,48.63715],[-2.08044,48.63693],[-2.08041,48.63683],[-2.08049,48.63665],[-2.08035,48.63638],[-2.08045,48.6363],[-2.08121,48.63605],[-2.08191,48.6359],[-2.08205,48.63593],[-2.08233,48.6359],[-2.08272,48.63577],[-2.08297,48.63583],[-2.08332,48.63601],[-2.08354,48.63628],[-2.08367,48.63627],[-2.08373,48.63635],[-2.08391,48.63638],[-2.08415,48.6363],[-2.08418,48.6362],[-2.08405,48.63617],[-2.08398,48.63609],[-2.08396,48.6359],[-2.08405,48.63582],[-2.08431,48.63578],[-2.08437,48.63569],[-2.08514,48.63536],[-2.08589,48.63511],[-2.08724,48.63474],[-2.0878,48.63467],[-2.08821,48.63457],[-2.08839,48.63442],[-2.0884,48.63433],[-2.08882,48.63428],[-2.08904,48.63416],[-2.08929,48.63413],[-2.08945,48.63397],[-2.08961,48.63392],[-2.09022,48.63398],[-2.0905,48.63397],[-2.09067,48.63402],[-2.09092,48.6338],[-2.09105,48.63383],[-2.09118,48.63381],[-2.09131,48.63386],[-2.09139,48.63403],[-2.09166,48.63412],[-2.09174,48.63419],[-2.09199,48.63424],[-2.09218,48.6341],[-2.09271,48.63398],[-2.09296,48.63377],[-2.09379,48.63372],[-2.09437,48.63363],[-2.09458,48.63356],[-2.09459,48.63338],[-2.09473,48.63336],[-2.09498,48.63345],[-2.09525,48.63349],[-2.09522,48.63367],[-2.09535,48.6337],[-2.09548,48.63365],[-2.09557,48.63372],[-2.09583,48.63414],[-2.09587,48.63442],[-2.09594,48.6345],[-2.09605,48.63457],[-2.0962,48.63455],[-2.09633,48.6346],[-2.09643,48.63478],[-2.0964,48.63496],[-2.09692,48.63514],[-2.09703,48.63509],[-2.09758,48.63515],[-2.09779,48.63563],[-2.09759,48.63587],[-2.0976,48.63615],[-2.09794,48.63653],[-2.09833,48.63637],[-2.09847,48.63638],[-2.09869,48.63627],[-2.09926,48.63611],[-2.09955,48.63547],[-2.10026,48.63545],[-2.10109,48.63531],[-2.10141,48.63539],[-2.10205,48.63515],[-2.10274,48.63497],[-2.10284,48.63491],[-2.10337,48.63483],[-2.10375,48.63497],[-2.10383,48.63505],[-2.10386,48.63515],[-2.10422,48.63556],[-2.10453,48.63619],[-2.10481,48.63652],[-2.10564,48.63678],[-2.10598,48.63695],[-2.10667,48.63704],[-2.10678,48.63668],[-2.10744,48.63687],[-2.10765,48.63699],[-2.10982,48.63747],[-2.1104,48.63756],[-2.11062,48.63768],[-2.11051,48.63758],[-2.11079,48.63757],[-2.11088,48.63751],[-2.11095,48.63713],[-2.11105,48.63706],[-2.11475,48.63774],[-2.11518,48.63773],[-2.11546,48.63752],[-2.11555,48.63758],[-2.11564,48.63777],[-2.11686,48.63797],[-2.11726,48.63783],[-2.1174,48.63787],[-2.11752,48.63783],[-2.11899,48.63704],[-2.11913,48.63701],[-2.12044,48.63638],[-2.12059,48.63638],[-2.12144,48.636],[-2.12264,48.63559],[-2.12401,48.63527],[-2.12637,48.63495],[-2.12665,48.63499],[-2.12684,48.63524],[-2.12706,48.63511],[-2.12721,48.6351],[-2.12768,48.63557],[-2.12765,48.63576],[-2.12779,48.63577],[-2.12821,48.63551],[-2.12834,48.63549],[-2.12857,48.63574],[-2.12886,48.63592],[-2.1289,48.63601],[-2.12886,48.6361],[-2.12981,48.63655],[-2.12986,48.63664],[-2.12968,48.63689],[-2.12966,48.63708],[-2.12995,48.63739],[-2.13009,48.63743],[-2.13021,48.63738],[-2.13049,48.63718],[-2.13116,48.63682],[-2.13157,48.63689],[-2.13198,48.63739],[-2.13221,48.6375],[-2.13244,48.63774],[-2.13288,48.63797],[-2.13302,48.63814],[-2.13314,48.6381],[-2.13312,48.63792],[-2.13339,48.63786],[-2.13357,48.63772],[-2.13357,48.63744],[-2.13337,48.63708],[-2.13327,48.63701],[-2.13289,48.63651],[-2.13316,48.63598],[-2.13334,48.63585],[-2.13316,48.63559],[-2.13325,48.63541],[-2.13345,48.63528],[-2.13383,48.63515],[-2.13464,48.63498],[-2.13502,48.63457],[-2.13537,48.6344],[-2.13566,48.63439],[-2.13637,48.63449],[-2.1365,48.63447],[-2.13672,48.63434],[-2.13674,48.63444],[-2.13685,48.6345],[-2.13699,48.6345],[-2.13705,48.63441],[-2.13714,48.63403],[-2.13726,48.63385],[-2.13691,48.63238],[-2.13681,48.63232],[-2.13665,48.63157],[-2.13654,48.63175],[-2.13641,48.63177],[-2.13626,48.63173],[-2.13616,48.6318],[-2.13601,48.63182],[-2.13592,48.63174],[-2.13631,48.62741],[-2.13658,48.62646],[-2.13688,48.62492],[-2.13705,48.62469],[-2.13707,48.62459],[-2.13739,48.62427],[-2.13848,48.62338],[-2.13883,48.62282],[-2.13917,48.6225],[-2.13923,48.62225],[-2.13942,48.62207],[-2.13928,48.62207],[-2.13891,48.62252],[-2.13886,48.62271],[-2.13889,48.62297],[-2.13879,48.62304],[-2.1387,48.62298],[-2.13867,48.62268],[-2.13833,48.62176],[-2.13805,48.62021],[-2.13789,48.61994],[-2.13729,48.61928],[-2.13721,48.61884],[-2.13688,48.6181],[-2.13655,48.61791],[-2.13599,48.61778],[-2.13567,48.61758],[-2.13547,48.61723],[-2.13554,48.61695],[-2.13575,48.6167],[-2.1363,48.61625],[-2.13708,48.61581],[-2.14038,48.61654],[-2.1416,48.61687],[-2.14211,48.61707],[-2.14324,48.61698],[-2.14386,48.61675],[-2.144,48.61672],[-2.14413,48.61675],[-2.14417,48.61656],[-2.14424,48.61648],[-2.14506,48.61601],[-2.14504,48.61592],[-2.14473,48.6156],[-2.14461,48.61533],[-2.14438,48.6152],[-2.14431,48.61512],[-2.14421,48.61474],[-2.14422,48.61454],[-2.14439,48.6144],[-2.14447,48.61421],[-2.14445,48.61363],[-2.14471,48.6134],[-2.14503,48.61321],[-2.14606,48.61279],[-2.14652,48.61242],[-2.14702,48.61222],[-2.14709,48.61214],[-2.14721,48.61137],[-2.1475,48.61115],[-2.14804,48.61098],[-2.14791,48.61093],[-2.14778,48.61097],[-2.1477,48.61089],[-2.14791,48.61024],[-2.14787,48.61013],[-2.14807,48.60999],[-2.14816,48.60981],[-2.14826,48.60924],[-2.14825,48.60914],[-2.14791,48.60896],[-2.14791,48.60886],[-2.14814,48.60861],[-2.15024,48.607],[-2.15028,48.60671]]}},{"type":"Feature","properties":{"day":2,"name":"[GR 34 LOVE TOUR 2025] Jour 2 : Lancieux à Notre-Dame-du-Guildo"},"geometry":{"type":"LineString","coordinates":[[-2.15035,48.6067],[-2.15049,48.60671],[-2.1506,48.60677],[-2.15108,48.60714],[-2.15132,48.60724],[-2.15151,48.60721],[-2.15161,48.60731],[-2.15227,48.60768],[-2.15277,48.60789],[-2.15316,48.60817],[-2.15388,48.60845],[-2.15416,48.60866],[-2.15443,48.60871],[-2.15508,48.60854],[-2.15516,48.60861],[-2.15518,48.6085],[-2.15531,48.60845],[-2.15681,48.60806],[-2.15701,48.60793],[-2.15698,48.60785],[-2.15769,48.60775],[-2.15877,48.6075],[-2.15883,48.60742],[-2.15863,48.60717],[-2.15862,48.60708],[-2.15874,48.60703],[-2.16002,48.60692],[-2.16153,48.60657],[-2.1621,48.60655],[-2.16282,48.60658],[-2.16291,48.60675],[-2.16282,48.60683],[-2.16279,48.60702],[-2.16267,48.60706],[-2.16295,48.60708],[-2.16317,48.60697],[-2.16349,48.60716],[-2.16364,48.60718],[-2.16373,48.6071],[-2.16414,48.60721],[-2.16429,48.6072],[-2.16439,48.60714],[-2.16438,48.60723],[-2.16397,48.60717],[-2.16375,48.60703],[-2.16373,48.60647],[-2.16398,48.60625],[-2.16408,48.60607],[-2.16377,48.60545],[-2.16382,48.60488],[-2.16397,48.60473],[-2.16437,48.6046],[-2.16462,48.60438],[-2.16498,48.60424],[-2.16555,48.60416],[-2.16585,48.60416],[-2.16607,48.60406],[-2.16637,48.60407],[-2.16648,48.60401],[-2.16655,48.60355],[-2.16679,48.60333],[-2.16679,48.60309],[-2.16666,48.60294],[-2.16671,48.60276],[-2.16654,48.60248],[-2.16656,48.6023],[-2.16666,48.60213],[-2.1668,48.60209],[-2.16673,48.60201],[-2.16636,48.60187],[-2.16628,48.60178],[-2.16629,48.60159],[-2.16662,48.60116],[-2.16666,48.60087],[-2.16693,48.60083],[-2.16703,48.60055],[-2.16699,48.60019],[-2.16711,48.59991],[-2.16721,48.59984],[-2.16762,48.59976],[-2.16781,48.59963],[-2.16809,48.59961],[-2.16804,48.59953],[-2.16816,48.59926],[-2.16811,48.59907],[-2.16818,48.59879],[-2.16794,48.59815],[-2.1678,48.598],[-2.16738,48.59796],[-2.1673,48.59789],[-2.16742,48.59783],[-2.1677,48.59788],[-2.16776,48.59779],[-2.16777,48.5976],[-2.16751,48.59751],[-2.16752,48.59742],[-2.16766,48.59745],[-2.16793,48.59739],[-2.16803,48.59721],[-2.16805,48.59731],[-2.16828,48.59697],[-2.16838,48.5967],[-2.16853,48.59668],[-2.16871,48.59653],[-2.16867,48.59644],[-2.16877,48.59616],[-2.16924,48.5965],[-2.16938,48.59654],[-2.16964,48.59646],[-2.16968,48.59655],[-2.17001,48.59665],[-2.17041,48.59654],[-2.1705,48.59647],[-2.1705,48.59636],[-2.17018,48.59617],[-2.1705,48.59586],[-2.17053,48.59577],[-2.17043,48.59569],[-2.17029,48.59567],[-2.17026,48.59529],[-2.17006,48.59517],[-2.17006,48.59498],[-2.16993,48.5948],[-2.17004,48.59462],[-2.17009,48.59433],[-2.16969,48.59422],[-2.16896,48.59375],[-2.16871,48.5935],[-2.16873,48.59323],[-2.1686,48.59319],[-2.16826,48.59337],[-2.16815,48.59355],[-2.16735,48.59377],[-2.16679,48.59369],[-2.16648,48.59351],[-2.16635,48.59349],[-2.16605,48.59349],[-2.16551,48.59366],[-2.16522,48.59368],[-2.16482,48.59341],[-2.1648,48.59332],[-2.16464,48.59334],[-2.16426,48.5932],[-2.16309,48.59221],[-2.1626,48.59195],[-2.16002,48.58946],[-2.15858,48.58883],[-2.15808,48.58869],[-2.15728,48.58829],[-2.15735,48.58816],[-2.15724,48.58778],[-2.15709,48.58769],[-2.15695,48.58768],[-2.15685,48.58774],[-2.1565,48.58805],[-2.15547,48.58781],[-2.15462,48.58769],[-2.15422,48.58759],[-2.15417,48.5875],[-2.15423,48.58741],[-2.15498,48.58708],[-2.15546,48.58629],[-2.15559,48.58591],[-2.15563,48.58485],[-2.15583,48.58472],[-2.15563,48.58443],[-2.15557,48.58405],[-2.15538,48.58348],[-2.15515,48.58312],[-2.15522,48.58304],[-2.15581,48.58301],[-2.15629,48.58287],[-2.15639,48.5828],[-2.15656,48.58234],[-2.15644,48.58196],[-2.1565,48.58156],[-2.15674,48.58125],[-2.15671,48.58116],[-2.15745,48.57979],[-2.15792,48.57904],[-2.15783,48.57911],[-2.1579,48.57919],[-2.15818,48.5792],[-2.15874,48.57931],[-2.16019,48.57946],[-2.16345,48.57992],[-2.16432,48.58],[-2.16444,48.57994],[-2.16431,48.57977],[-2.16429,48.57911],[-2.16472,48.57874],[-2.16498,48.5784],[-2.165,48.57826],[-2.16486,48.57822],[-2.16503,48.57796],[-2.16517,48.57793],[-2.16496,48.578],[-2.16502,48.57791],[-2.16517,48.57785],[-2.16507,48.57776],[-2.16558,48.57729],[-2.16578,48.57704],[-2.16586,48.57683],[-2.16596,48.57677],[-2.16679,48.5769],[-2.16753,48.57691],[-2.16765,48.57686],[-2.16784,48.57639],[-2.16806,48.57626],[-2.16819,48.57622],[-2.16904,48.57623],[-2.16949,48.57619],[-2.16998,48.57585],[-2.17166,48.57426],[-2.17212,48.57427],[-2.17233,48.57414],[-2.17248,48.57414],[-2.17292,48.57419],[-2.173,48.57427],[-2.17343,48.57429],[-2.1741,48.57413],[-2.17481,48.57408],[-2.17521,48.5738],[-2.1754,48.57354],[-2.17537,48.57296],[-2.17547,48.57289],[-2.176,48.57278],[-2.17616,48.57279],[-2.17626,48.57273],[-2.17713,48.57252],[-2.17741,48.57247],[-2.1777,48.57248],[-2.1778,48.57241],[-2.17795,48.5724],[-2.17855,48.57216],[-2.18045,48.57177],[-2.18107,48.57152],[-2.18117,48.57144],[-2.18231,48.5714],[-2.1828,48.57159],[-2.18269,48.57165],[-2.18306,48.57175],[-2.18803,48.5713],[-2.18878,48.57225],[-2.18952,48.57269],[-2.19007,48.57338],[-2.19037,48.57452],[-2.19078,48.57523],[-2.19071,48.57602],[-2.19075,48.5767],[-2.19105,48.57753],[-2.19094,48.57811],[-2.19079,48.57838],[-2.19066,48.57893],[-2.19044,48.57928],[-2.1905,48.57966],[-2.19064,48.57993],[-2.1906,48.58003],[-2.19017,48.58011],[-2.19002,48.58009],[-2.18927,48.58036],[-2.18925,48.58046],[-2.18897,48.58045],[-2.18833,48.58067],[-2.18807,48.58059],[-2.18737,48.58073],[-2.18712,48.58082],[-2.18687,48.58127],[-2.18676,48.58163],[-2.18681,48.58172],[-2.18671,48.58178],[-2.18675,48.58214],[-2.18657,48.58251],[-2.18655,48.58298],[-2.1867,48.58313],[-2.18708,48.58329],[-2.18737,48.58361],[-2.18762,48.58368],[-2.18781,48.58382],[-2.1879,48.584],[-2.18713,48.58454],[-2.18698,48.5847],[-2.18725,48.58524],[-2.18725,48.58533],[-2.18754,48.58581],[-2.18783,48.58705],[-2.18778,48.58841],[-2.18761,48.58916],[-2.18707,48.58946],[-2.18688,48.58969],[-2.1869,48.58959],[-2.18681,48.58987],[-2.18619,48.59012],[-2.18589,48.59032],[-2.18551,48.59083],[-2.18578,48.59094],[-2.18553,48.59085],[-2.18499,48.59129],[-2.18448,48.59149],[-2.18379,48.59162],[-2.1836,48.59175],[-2.18359,48.59184],[-2.18416,48.59215],[-2.18445,48.59247],[-2.1847,48.59302],[-2.18465,48.59321],[-2.18515,48.5934],[-2.18525,48.59334],[-2.18522,48.59353],[-2.18536,48.59357],[-2.18549,48.59374],[-2.18562,48.59376],[-2.18552,48.59404],[-2.18518,48.59447],[-2.18526,48.59455],[-2.18506,48.5948],[-2.18506,48.595],[-2.18513,48.59508],[-2.1858,48.59547],[-2.18621,48.59555],[-2.1864,48.59569],[-2.18636,48.59578],[-2.1861,48.59586],[-2.18621,48.59614],[-2.1865,48.59648],[-2.18637,48.59663],[-2.18598,48.59675],[-2.1857,48.59675],[-2.18557,48.59693],[-2.18528,48.59713],[-2.18473,48.59725],[-2.18479,48.59772],[-2.18472,48.59811],[-2.18469,48.5982],[-2.18438,48.5984],[-2.18439,48.59849],[-2.18487,48.59896],[-2.18482,48.59905],[-2.18424,48.59911],[-2.18414,48.59918],[-2.1841,48.59976],[-2.18393,48.60012],[-2.18391,48.60022],[-2.184,48.60029],[-2.18414,48.6003],[-2.18425,48.60037],[-2.1844,48.60064],[-2.18446,48.60083],[-2.18435,48.60077],[-2.18446,48.60124],[-2.18438,48.60146],[-2.18488,48.60191],[-2.185,48.60196],[-2.18526,48.60189],[-2.18499,48.60197],[-2.18497,48.60206],[-2.18513,48.60223],[-2.18506,48.60232],[-2.18512,48.6024],[-2.18585,48.60283],[-2.18612,48.60318],[-2.18633,48.60331],[-2.18631,48.60341],[-2.18614,48.60356],[-2.18591,48.60401],[-2.18582,48.60409],[-2.18528,48.6044],[-2.18514,48.6044],[-2.18502,48.60435],[-2.18487,48.60439],[-2.18498,48.60432],[-2.18495,48.6046],[-2.18509,48.6046],[-2.18476,48.6052],[-2.18466,48.60527],[-2.18461,48.60555],[-2.18478,48.6057],[-2.18502,48.60581],[-2.18525,48.60605],[-2.18533,48.60623],[-2.18562,48.60619],[-2.18659,48.60626],[-2.18693,48.6061],[-2.18736,48.60611],[-2.18901,48.60576],[-2.18916,48.60576],[-2.18916,48.60603],[-2.18919,48.60578],[-2.18928,48.6056],[-2.19005,48.60556],[-2.19032,48.60559],[-2.19044,48.60554],[-2.19065,48.6059],[-2.19088,48.60602],[-2.19095,48.60633],[-2.19119,48.60677],[-2.19174,48.60707],[-2.19316,48.60816],[-2.19329,48.60821],[-2.19351,48.60845],[-2.19353,48.60855],[-2.19342,48.60883],[-2.19389,48.60898],[-2.19393,48.60918],[-2.19405,48.60923],[-2.19418,48.60925],[-2.19427,48.60917],[-2.1952,48.61016],[-2.19604,48.61077],[-2.19611,48.61046],[-2.19603,48.61017],[-2.19595,48.61008],[-2.19549,48.61],[-2.1954,48.60992],[-2.19544,48.60982],[-2.1953,48.60965],[-2.19494,48.60936],[-2.1948,48.60935],[-2.1947,48.60928],[-2.19444,48.60894],[-2.19453,48.60886],[-2.19466,48.60883],[-2.19472,48.60874],[-2.19467,48.60862],[-2.19479,48.60859],[-2.19481,48.60847],[-2.19458,48.60834],[-2.19431,48.6084],[-2.19421,48.60812],[-2.19423,48.60793],[-2.19443,48.60769],[-2.1944,48.60731],[-2.19448,48.60724],[-2.19474,48.60718],[-2.19488,48.60695],[-2.1945,48.60681],[-2.19432,48.60665],[-2.19393,48.60653],[-2.19377,48.60638],[-2.19334,48.60634],[-2.19314,48.60608],[-2.193,48.60611],[-2.19254,48.60589],[-2.1924,48.60554],[-2.19242,48.60524],[-2.19225,48.60499],[-2.19237,48.6047],[-2.1921,48.60437],[-2.19195,48.60391],[-2.19172,48.60367],[-2.19189,48.60321],[-2.19207,48.60314],[-2.19211,48.60306],[-2.19225,48.60303],[-2.1923,48.60294],[-2.19218,48.60248],[-2.19228,48.60211],[-2.19247,48.60198],[-2.19249,48.6017],[-2.19276,48.60163],[-2.19278,48.60145],[-2.19285,48.60137],[-2.19299,48.60137],[-2.19331,48.60119],[-2.1934,48.601],[-2.19357,48.60086],[-2.19414,48.60066],[-2.19442,48.60069],[-2.19455,48.60065],[-2.1948,48.60039],[-2.19516,48.59899],[-2.19538,48.59854],[-2.19469,48.59806],[-2.19404,48.59721],[-2.19391,48.59717],[-2.19372,48.59701],[-2.19374,48.59692],[-2.19352,48.59679],[-2.19302,48.59658],[-2.19259,48.59662],[-2.19197,48.59639],[-2.19184,48.59642],[-2.19142,48.5964],[-2.19132,48.59634],[-2.1905,48.5965],[-2.19043,48.59658],[-2.18999,48.59575],[-2.1901,48.59558],[-2.19024,48.59558],[-2.19118,48.59577],[-2.19132,48.59573],[-2.19135,48.59507],[-2.19111,48.59443],[-2.1912,48.59367],[-2.1913,48.5936],[-2.1916,48.59289],[-2.19239,48.59178],[-2.1927,48.59145],[-2.19284,48.59144],[-2.19383,48.59074],[-2.19397,48.59071],[-2.19422,48.59049],[-2.19419,48.59029],[-2.19437,48.59003],[-2.19464,48.58969],[-2.19501,48.58941],[-2.19522,48.58916],[-2.19544,48.5886],[-2.19544,48.58832],[-2.19534,48.58824],[-2.19546,48.58807],[-2.19554,48.58758],[-2.19584,48.58663],[-2.19595,48.58657],[-2.19593,48.58608],[-2.19613,48.58552],[-2.1963,48.58537],[-2.19643,48.58534],[-2.19771,48.58529],[-2.19835,48.58508],[-2.19876,48.58508],[-2.19888,48.58504],[-2.19895,48.58512],[-2.19902,48.58504],[-2.19932,48.58501],[-2.19977,48.58482],[-2.20058,48.58442],[-2.20076,48.58427],[-2.201,48.58437],[-2.20123,48.58414],[-2.20176,48.58401],[-2.20187,48.58395],[-2.20194,48.58339],[-2.20182,48.58312],[-2.20191,48.58285],[-2.20184,48.58276],[-2.20162,48.58266],[-2.20146,48.58248],[-2.20152,48.5823],[-2.20141,48.58212],[-2.20167,48.58191],[-2.20164,48.58181],[-2.20151,48.58177],[-2.20108,48.58177],[-2.20054,48.58145],[-2.20063,48.58137],[-2.2009,48.58137],[-2.20103,48.58132],[-2.20109,48.58124],[-2.20104,48.58133],[-2.20115,48.58138],[-2.20129,48.58139],[-2.20179,48.5812],[-2.20303,48.581],[-2.20342,48.58086],[-2.20353,48.58079],[-2.20355,48.58069],[-2.20332,48.58035],[-2.20349,48.5802],[-2.20414,48.57997],[-2.20509,48.57977],[-2.20518,48.5797],[-2.20522,48.57942],[-2.2054,48.57905],[-2.20534,48.57859],[-2.20509,48.57783],[-2.2047,48.5771],[-2.20469,48.57701],[-2.20478,48.57693],[-2.2047,48.57676],[-2.20494,48.57653],[-2.20559,48.5763],[-2.20574,48.57605],[-2.20566,48.57576],[-2.20579,48.5758],[-2.20566,48.57575],[-2.20561,48.57584],[-2.20536,48.57576],[-2.20478,48.5757],[-2.20465,48.57565],[-2.2047,48.57547],[-2.20479,48.57554],[-2.20492,48.5755],[-2.20534,48.57549],[-2.20565,48.57507],[-2.20564,48.57488],[-2.20556,48.57481],[-2.20558,48.57471],[-2.20588,48.57429],[-2.20816,48.57332],[-2.20841,48.57328],[-2.20866,48.57317],[-2.20881,48.57301],[-2.20894,48.57298],[-2.20965,48.57303],[-2.21008,48.57297],[-2.21077,48.57301],[-2.21119,48.57297],[-2.21129,48.5729],[-2.21142,48.57261],[-2.21136,48.57243],[-2.21173,48.57211],[-2.21243,48.57178],[-2.21251,48.57185],[-2.21264,48.57189],[-2.21274,48.57207],[-2.2129,48.57219],[-2.21296,48.57238],[-2.21313,48.57253],[-2.21323,48.57281],[-2.21405,48.57393],[-2.21418,48.57399],[-2.21435,48.57434],[-2.2145,48.5745],[-2.21458,48.57468],[-2.21468,48.57475],[-2.21417,48.57566],[-2.21499,48.57598],[-2.21596,48.57602],[-2.21607,48.57607],[-2.21649,48.57609],[-2.21675,48.57615],[-2.2168,48.57624],[-2.21673,48.57643],[-2.21661,48.57661],[-2.2165,48.57667],[-2.21642,48.57686],[-2.21646,48.57705],[-2.21677,48.57737],[-2.21777,48.57774]]}},{"type":"Feature","properties":{"day":3,"name":"[GR 34 LOVE TOUR 2025] Jour 3 : Notre-Dame-du-Guildo à Matignon"},"geometry":{"type":"LineString","coordinates":[[-2.21822,48.57785],[-2.21691,48.57738],[-2.21612,48.57695],[-2.21526,48.57659],[-2.21511,48.57657],[-2.21497,48.57641],[-2.21425,48.57609],[-2.21383,48.57606],[-2.21386,48.57596],[-2.21379,48.57588],[-2.21249,48.57546],[-2.21238,48.57529],[-2.21241,48.57541],[-2.21168,48.57585],[-2.21156,48.57614],[-2.21123,48.57645],[-2.21121,48.57654],[-2.21136,48.5768],[-2.21132,48.577],[-2.2115,48.57732],[-2.21153,48.57769],[-2.21188,48.57829],[-2.21161,48.57846],[-2.21159,48.57855],[-2.21175,48.57902],[-2.21174,48.57914],[-2.21197,48.57947],[-2.21189,48.58003],[-2.21198,48.5801],[-2.21227,48.58069],[-2.21258,48.5809],[-2.2126,48.58098],[-2.21253,48.58117],[-2.21229,48.58126],[-2.21225,48.58135],[-2.21244,48.58148],[-2.21241,48.58167],[-2.21199,48.58192],[-2.21188,48.58209],[-2.21198,48.58226],[-2.21237,48.58256],[-2.21239,48.58265],[-2.21215,48.58268],[-2.21231,48.58268],[-2.21219,48.58262],[-2.21233,48.58275],[-2.21164,48.58289],[-2.21157,48.58297],[-2.21143,48.58297],[-2.21117,48.58289],[-2.21089,48.58291],[-2.21077,48.58297],[-2.21078,48.58324],[-2.21094,48.58338],[-2.21101,48.58357],[-2.21083,48.58383],[-2.21098,48.5841],[-2.211,48.58428],[-2.21126,48.58452],[-2.21139,48.58457],[-2.21133,48.58485],[-2.21145,48.58512],[-2.21145,48.5853],[-2.21079,48.58544],[-2.21051,48.58543],[-2.21033,48.58556],[-2.2103,48.58566],[-2.21044,48.58593],[-2.21041,48.5862],[-2.2105,48.58634],[-2.21034,48.5866],[-2.21049,48.58707],[-2.21041,48.58734],[-2.21098,48.58738],[-2.2113,48.58767],[-2.21144,48.58769],[-2.21135,48.58777],[-2.21134,48.58816],[-2.21118,48.58832],[-2.21144,48.58839],[-2.21158,48.58855],[-2.21158,48.58865],[-2.21148,48.58883],[-2.2115,48.58921],[-2.21165,48.58938],[-2.2119,48.58946],[-2.2123,48.58956],[-2.21243,48.58954],[-2.21257,48.58957],[-2.21258,48.58969],[-2.21241,48.58984],[-2.21274,48.59002],[-2.2128,48.59038],[-2.21306,48.59061],[-2.21337,48.5908],[-2.21332,48.59089],[-2.21336,48.59098],[-2.21375,48.59126],[-2.21421,48.5915],[-2.21432,48.59165],[-2.21445,48.59166],[-2.2148,48.5915],[-2.21494,48.59148],[-2.2152,48.59155],[-2.21513,48.59163],[-2.21426,48.59198],[-2.21397,48.59215],[-2.21383,48.59217],[-2.21384,48.59226],[-2.21394,48.59233],[-2.214,48.59261],[-2.21424,48.59271],[-2.21445,48.59294],[-2.21484,48.59305],[-2.21527,48.59307],[-2.21563,48.59293],[-2.21598,48.59252],[-2.21618,48.59239],[-2.21647,48.59233],[-2.21691,48.59236],[-2.21713,48.59247],[-2.21732,48.59275],[-2.21743,48.59281],[-2.21752,48.59316],[-2.21765,48.59342],[-2.21779,48.59343],[-2.2179,48.59351],[-2.21787,48.59369],[-2.218,48.59373],[-2.21828,48.59368],[-2.21856,48.59372],[-2.21884,48.59369],[-2.21905,48.59382],[-2.21934,48.59385],[-2.21979,48.59363],[-2.22055,48.5934],[-2.22168,48.59327],[-2.22218,48.59344],[-2.22227,48.59352],[-2.22267,48.5936],[-2.22324,48.59362],[-2.22353,48.59369],[-2.22363,48.59386],[-2.22347,48.59401],[-2.22402,48.59411],[-2.22418,48.59427],[-2.22431,48.59431],[-2.22459,48.59451],[-2.22473,48.59453],[-2.22525,48.59434],[-2.22539,48.59434],[-2.22577,48.59463],[-2.22569,48.59491],[-2.22557,48.59508],[-2.22415,48.59552],[-2.22403,48.59557],[-2.22389,48.59573],[-2.22372,48.5961],[-2.22373,48.5964],[-2.22361,48.59676],[-2.22367,48.59723],[-2.22363,48.59751],[-2.22321,48.59776],[-2.22316,48.59786],[-2.22317,48.59804],[-2.22331,48.59821],[-2.22322,48.59848],[-2.22327,48.59866],[-2.22318,48.59874],[-2.22319,48.59883],[-2.22331,48.59889],[-2.22308,48.59901],[-2.22286,48.59924],[-2.22293,48.59933],[-2.22316,48.59944],[-2.22324,48.59971],[-2.22323,48.60001],[-2.22377,48.6003],[-2.22443,48.60086],[-2.22426,48.60122],[-2.22398,48.60143],[-2.22358,48.60152],[-2.22348,48.60169],[-2.22322,48.60191],[-2.22288,48.60208],[-2.22281,48.60216],[-2.22282,48.60225],[-2.22304,48.60236],[-2.2231,48.60245],[-2.22324,48.60291],[-2.22345,48.60305],[-2.22348,48.60314],[-2.22373,48.60325],[-2.22402,48.60346],[-2.22414,48.60352],[-2.2243,48.60351],[-2.22481,48.6038],[-2.22554,48.60384],[-2.22578,48.60371],[-2.22627,48.60392],[-2.22647,48.60406],[-2.22689,48.60463],[-2.22687,48.60483],[-2.22676,48.60489],[-2.22667,48.60513],[-2.22678,48.60547],[-2.22709,48.60579],[-2.22784,48.60622],[-2.22805,48.6068],[-2.22791,48.60686],[-2.22776,48.60685],[-2.22721,48.60652],[-2.22665,48.60547],[-2.22693,48.6055],[-2.22732,48.60563],[-2.22774,48.60623],[-2.22795,48.60636],[-2.22807,48.60631],[-2.22813,48.60639],[-2.22817,48.60668],[-2.22858,48.60699],[-2.22868,48.60729],[-2.2288,48.60734],[-2.22908,48.60767],[-2.22939,48.60786],[-2.22946,48.60822],[-2.22932,48.60876],[-2.22962,48.6095],[-2.22949,48.60988],[-2.22931,48.61003],[-2.22933,48.61022],[-2.2294,48.6103],[-2.2297,48.6103],[-2.23022,48.61012],[-2.23064,48.61008],[-2.23074,48.60989],[-2.23094,48.60974],[-2.23159,48.60954],[-2.23217,48.60926],[-2.23245,48.60925],[-2.2333,48.6091],[-2.23369,48.60925],[-2.23382,48.60922],[-2.23376,48.60941],[-2.23363,48.60945],[-2.23335,48.60967],[-2.23287,48.60989],[-2.2326,48.60992],[-2.23237,48.61004],[-2.23231,48.61013],[-2.23234,48.61022],[-2.23248,48.61024],[-2.23254,48.61042],[-2.23428,48.61084],[-2.23434,48.61092],[-2.23572,48.61122],[-2.2368,48.61153],[-2.23678,48.61162],[-2.23748,48.61177],[-2.23851,48.61214],[-2.23865,48.61215],[-2.24079,48.61291],[-2.24083,48.61301],[-2.24178,48.61329],[-2.24191,48.61335],[-2.2419,48.61345],[-2.24257,48.61365],[-2.24293,48.6138],[-2.24334,48.61385],[-2.24347,48.6139],[-2.2436,48.61385],[-2.24373,48.61359],[-2.24407,48.61364],[-2.24431,48.61375],[-2.24525,48.61444],[-2.24601,48.61518],[-2.24646,48.61577],[-2.24902,48.61796],[-2.24927,48.61819],[-2.24928,48.61828],[-2.24962,48.61848],[-2.24967,48.61857],[-2.25007,48.61885],[-2.25025,48.619],[-2.25022,48.6191],[-2.25007,48.61926],[-2.24966,48.61935],[-2.2489,48.61965],[-2.24592,48.62105],[-2.24412,48.62225],[-2.24406,48.62217],[-2.24393,48.62215],[-2.24367,48.62223],[-2.24251,48.6228],[-2.24782,48.62552],[-2.24826,48.62578],[-2.2483,48.62587],[-2.24904,48.62638],[-2.24992,48.62689],[-2.25104,48.62778],[-2.25171,48.62842],[-2.25213,48.62891],[-2.25235,48.62907],[-2.25238,48.62917],[-2.25293,48.62971],[-2.25362,48.63054],[-2.25437,48.63166],[-2.25457,48.63181],[-2.25461,48.632],[-2.25482,48.63225],[-2.25491,48.63232],[-2.25505,48.63234],[-2.25577,48.63223],[-2.25602,48.63247],[-2.2561,48.63275],[-2.2564,48.63305],[-2.25657,48.63342],[-2.2567,48.6335],[-2.25672,48.63359],[-2.25683,48.63365],[-2.25694,48.63383],[-2.2568,48.6341],[-2.25669,48.63416],[-2.25701,48.63425],[-2.25692,48.63388],[-2.257,48.63351],[-2.25704,48.63361],[-2.25681,48.63362],[-2.2568,48.63381],[-2.25632,48.63402],[-2.25603,48.63407],[-2.25612,48.63454],[-2.25606,48.63462],[-2.25631,48.63522],[-2.25642,48.63589],[-2.25629,48.63593],[-2.25618,48.6363],[-2.25594,48.63639],[-2.25536,48.63635],[-2.25524,48.63662],[-2.2547,48.63707],[-2.25426,48.63702],[-2.25401,48.63708],[-2.2539,48.63715],[-2.25392,48.63734],[-2.25364,48.63737],[-2.25355,48.63745],[-2.25345,48.63783],[-2.25298,48.63829],[-2.25292,48.63838],[-2.25301,48.63856],[-2.25265,48.63873],[-2.25237,48.63869],[-2.25195,48.63873],[-2.25168,48.63894],[-2.25133,48.63911],[-2.25071,48.6392],[-2.25033,48.63949],[-2.24951,48.63971],[-2.24805,48.64032],[-2.24778,48.64037],[-2.24758,48.64049],[-2.24668,48.64082],[-2.24648,48.64094],[-2.24569,48.64121],[-2.24573,48.6413],[-2.24541,48.64147],[-2.24535,48.64175],[-2.24543,48.64194],[-2.24533,48.64201],[-2.24553,48.64227],[-2.2455,48.64255],[-2.24538,48.64283],[-2.24525,48.64299],[-2.24505,48.64363],[-2.24486,48.64377],[-2.24489,48.64387],[-2.24476,48.64413],[-2.24492,48.64427],[-2.24506,48.64428],[-2.24509,48.64438],[-2.24553,48.64443],[-2.24588,48.64458],[-2.24588,48.64485],[-2.24572,48.64501],[-2.24618,48.64523],[-2.24638,48.64547],[-2.2468,48.64546],[-2.24694,48.64549],[-2.24746,48.64582],[-2.24775,48.64583],[-2.24864,48.64554],[-2.24906,48.64494],[-2.24962,48.64488],[-2.25019,48.64517],[-2.25061,48.64496],[-2.25105,48.64457],[-2.25161,48.64446],[-2.25189,48.6445],[-2.25267,48.64478],[-2.25286,48.64491],[-2.25314,48.64492],[-2.25343,48.64488],[-2.25371,48.64494],[-2.25382,48.64474],[-2.25393,48.64467],[-2.25477,48.64432],[-2.25486,48.64415],[-2.25508,48.64402],[-2.25526,48.64373],[-2.2554,48.64372],[-2.25544,48.64381],[-2.25554,48.64363],[-2.25546,48.64344],[-2.25557,48.64338],[-2.25597,48.64329],[-2.25611,48.64328],[-2.25663,48.64341],[-2.25691,48.64338],[-2.25703,48.64332],[-2.25761,48.64329],[-2.25813,48.64354],[-2.25841,48.64357],[-2.25879,48.64335],[-2.25937,48.6428],[-2.25934,48.64261],[-2.25918,48.64245],[-2.25904,48.64242],[-2.2591,48.64233],[-2.2594,48.64214],[-2.26005,48.6415],[-2.26055,48.64132],[-2.26088,48.64165],[-2.26115,48.64209],[-2.26125,48.64216],[-2.26136,48.64263],[-2.26143,48.64271],[-2.26147,48.64309],[-2.26166,48.64325],[-2.26186,48.64361],[-2.26196,48.64369],[-2.26223,48.64377],[-2.26237,48.64375],[-2.26317,48.64335],[-2.26368,48.64288],[-2.26428,48.64249],[-2.26457,48.64206],[-2.26458,48.64178],[-2.26439,48.64169],[-2.2652,48.64102],[-2.26545,48.64091],[-2.26576,48.64086],[-2.26592,48.64073],[-2.26619,48.64071],[-2.26642,48.64061],[-2.26658,48.64063],[-2.26691,48.64046],[-2.2672,48.64043],[-2.2677,48.64025],[-2.26896,48.64023],[-2.26909,48.64025],[-2.26875,48.64057],[-2.26879,48.64066],[-2.26907,48.64067],[-2.26984,48.64042],[-2.27013,48.6404],[-2.27037,48.6405],[-2.27041,48.64059],[-2.27065,48.6407],[-2.2709,48.64093],[-2.27117,48.641],[-2.2713,48.64097],[-2.27184,48.64054],[-2.27228,48.6403],[-2.27293,48.64013],[-2.27294,48.64003],[-2.27271,48.63992],[-2.27234,48.63964],[-2.2722,48.63947],[-2.27138,48.63912],[-2.27149,48.63908],[-2.2716,48.6388],[-2.27185,48.63866],[-2.27195,48.63849],[-2.27239,48.63826],[-2.27242,48.63788],[-2.27235,48.6377],[-2.2725,48.63739],[-2.27301,48.63705],[-2.27342,48.63667],[-2.27342,48.63658],[-2.27351,48.6365],[-2.27343,48.63624],[-2.27357,48.63624],[-2.27383,48.63647],[-2.27397,48.63643],[-2.27435,48.63651],[-2.27459,48.63641],[-2.27585,48.63654],[-2.27614,48.63651],[-2.27671,48.63656],[-2.27682,48.6365],[-2.27678,48.63637],[-2.27657,48.63612],[-2.27636,48.63599],[-2.27632,48.63585],[-2.27675,48.63562],[-2.27686,48.63544],[-2.2772,48.63528],[-2.27744,48.63504],[-2.27767,48.63492],[-2.27819,48.63477],[-2.27854,48.6346],[-2.27931,48.63441],[-2.27997,48.63405],[-2.28065,48.63395],[-2.28126,48.63369],[-2.28153,48.63364],[-2.28181,48.63367],[-2.28208,48.63359],[-2.28259,48.63307],[-2.28293,48.6329],[-2.2831,48.63274],[-2.28346,48.63259],[-2.2836,48.63257],[-2.28373,48.63259],[-2.28397,48.63238],[-2.28438,48.6323],[-2.28454,48.63212],[-2.28483,48.63201],[-2.28546,48.63182],[-2.28576,48.63184],[-2.28646,48.63179],[-2.28634,48.63152],[-2.28655,48.63107],[-2.2865,48.63098],[-2.28609,48.63082],[-2.28594,48.63086],[-2.28622,48.63064],[-2.28625,48.63054],[-2.28608,48.63028],[-2.28613,48.63018],[-2.28608,48.63],[-2.28608,48.62991],[-2.28627,48.62966],[-2.28666,48.62936],[-2.28679,48.62933],[-2.28711,48.629],[-2.28726,48.62897],[-2.28748,48.62884],[-2.28804,48.62875],[-2.28847,48.62873],[-2.28889,48.62878],[-2.28914,48.6287],[-2.28924,48.62862],[-2.28928,48.62849],[-2.28907,48.62814],[-2.2892,48.62796],[-2.28931,48.62761],[-2.28905,48.62752],[-2.28877,48.62752],[-2.28825,48.62768],[-2.28783,48.62764],[-2.28773,48.62755],[-2.2877,48.62736],[-2.28745,48.62714],[-2.28764,48.627],[-2.28779,48.627],[-2.28803,48.6269],[-2.28805,48.6268],[-2.28839,48.62664],[-2.2885,48.62647],[-2.28876,48.62636],[-2.28903,48.62633],[-2.28916,48.62641],[-2.28918,48.62651],[-2.29027,48.62626],[-2.29049,48.62596],[-2.29012,48.62595],[-2.29003,48.62603],[-2.28954,48.6261],[-2.28961,48.62593],[-2.28975,48.6259],[-2.29089,48.62532],[-2.29133,48.62529],[-2.29145,48.62535],[-2.29184,48.62525],[-2.29213,48.62527],[-2.29254,48.62521],[-2.29257,48.62512],[-2.29271,48.6251],[-2.29287,48.62495],[-2.29277,48.62482],[-2.29265,48.62488],[-2.29251,48.62487],[-2.29232,48.62475],[-2.2923,48.62429],[-2.29218,48.62412],[-2.29229,48.62394],[-2.29226,48.62377],[-2.29209,48.62363],[-2.29207,48.62353],[-2.29214,48.62345],[-2.29211,48.62315],[-2.29223,48.62278],[-2.29257,48.62209],[-2.29312,48.62209],[-2.29325,48.62205],[-2.29329,48.62196],[-2.29325,48.62168],[-2.29339,48.62063],[-2.29333,48.62055],[-2.29378,48.62032],[-2.29439,48.62026],[-2.29482,48.62],[-2.29508,48.61954],[-2.29527,48.61938],[-2.29532,48.61918],[-2.29518,48.61917],[-2.29524,48.61925],[-2.2953,48.61906],[-2.29542,48.619],[-2.29542,48.6189],[-2.29533,48.61853],[-2.29524,48.61845],[-2.29527,48.61826],[-2.29511,48.61761],[-2.29466,48.6168],[-2.29453,48.61677],[-2.29424,48.61681],[-2.29398,48.61673],[-2.2939,48.61665],[-2.29383,48.61637],[-2.2939,48.61629],[-2.29392,48.61611],[-2.29383,48.61583],[-2.29385,48.61573],[-2.29404,48.6156],[-2.29412,48.61543],[-2.29413,48.61506],[-2.29406,48.61478],[-2.29377,48.61425],[-2.29365,48.61421],[-2.29348,48.61394],[-2.29316,48.61362],[-2.29295,48.61351],[-2.29258,48.613],[-2.29251,48.61262],[-2.29242,48.61254],[-2.29219,48.61198],[-2.29224,48.61169],[-2.29213,48.61151],[-2.2922,48.61132],[-2.29255,48.61116],[-2.29267,48.61092],[-2.29295,48.6107],[-2.29317,48.61035],[-2.29366,48.60989],[-2.29342,48.60977],[-2.29354,48.60971],[-2.29383,48.60977],[-2.29408,48.60967],[-2.29442,48.60938],[-2.29468,48.60885],[-2.29515,48.60864],[-2.29518,48.60855],[-2.29555,48.60826],[-2.29582,48.60793],[-2.29606,48.60738],[-2.29684,48.60639],[-2.29709,48.60631],[-2.29755,48.60592],[-2.2979,48.60489],[-2.29804,48.60471],[-2.29844,48.60443],[-2.29858,48.60427],[-2.29874,48.60392],[-2.29858,48.60309],[-2.29858,48.60276],[-2.29889,48.60257],[-2.29903,48.6024],[-2.29914,48.60235],[-2.29956,48.60228],[-2.29955,48.60134],[-2.29958,48.60095],[-2.29968,48.60077],[-2.29915,48.60062],[-2.29923,48.60055],[-2.29921,48.60024],[-2.29929,48.60007],[-2.29886,48.59907],[-2.29878,48.5987],[-2.29825,48.59856],[-2.29763,48.59818],[-2.29721,48.59822],[-2.29649,48.59774],[-2.29604,48.59773],[-2.29592,48.5977],[-2.29586,48.59713],[-2.2955,48.5964],[-2.29526,48.59605],[-2.29471,48.59562],[-2.2945,48.59537],[-2.29424,48.59533],[-2.29418,48.59541],[-2.29375,48.59551],[-2.29343,48.59569],[-2.29316,48.59575],[-2.29249,48.59612],[-2.29223,48.59606],[-2.29183,48.59617],[-2.29169,48.59613],[-2.29142,48.5962],[-2.291,48.5962],[-2.29007,48.59594],[-2.28991,48.59595],[-2.28923,48.59582],[-2.28843,48.59558],[-2.28799,48.59556],[-2.28798,48.59546],[-2.28787,48.5954],[-2.28721,48.59522]]}},{"type":"Feature","properties":{"day":4,"name":"[GR 34 LOVE TOUR 2025] Jour 4 : De Fort la Latte à Sable-d'Or-Les-Pins"},"geometry":{"type":"LineString","coordinates":[[-2.29207,48.66446],[-2.29195,48.66451],[-2.29195,48.66469],[-2.29183,48.66486],[-2.2916,48.66497],[-2.29087,48.66518],[-2.28989,48.66558],[-2.28947,48.66559],[-2.28911,48.66573],[-2.28907,48.66589],[-2.28866,48.66626],[-2.28865,48.66636],[-2.28824,48.66663],[-2.28765,48.66689],[-2.28792,48.66697],[-2.28811,48.66711],[-2.28825,48.6671],[-2.28874,48.6669],[-2.28916,48.66689],[-2.28944,48.66693],[-2.29022,48.66716],[-2.29065,48.66703],[-2.29106,48.66712],[-2.29143,48.66696],[-2.29172,48.66697],[-2.29207,48.66714],[-2.29212,48.66723],[-2.29266,48.66737],[-2.29289,48.66749],[-2.29317,48.66749],[-2.29342,48.66756],[-2.29399,48.66762],[-2.29407,48.66754],[-2.2942,48.66752],[-2.2952,48.66749],[-2.29561,48.66741],[-2.29594,48.66724],[-2.29695,48.66719],[-2.29719,48.66708],[-2.29734,48.66692],[-2.29799,48.66682],[-2.29841,48.66691],[-2.29883,48.66688],[-2.29911,48.66692],[-2.29947,48.66708],[-2.30064,48.66712],[-2.30132,48.66725],[-2.30145,48.6672],[-2.30188,48.66723],[-2.30194,48.66714],[-2.30208,48.66712],[-2.3025,48.66717],[-2.30278,48.66714],[-2.30305,48.6672],[-2.30326,48.66733],[-2.30352,48.66741],[-2.30369,48.66757],[-2.30439,48.66771],[-2.30478,48.66799],[-2.30492,48.66802],[-2.30525,48.66794],[-2.3053,48.66803],[-2.30553,48.66812],[-2.30637,48.66831],[-2.30656,48.66843],[-2.30729,48.66848],[-2.30784,48.66865],[-2.30831,48.66886],[-2.30901,48.66899],[-2.30946,48.66924],[-2.30991,48.66935],[-2.31058,48.66973],[-2.31124,48.66958],[-2.31146,48.66945],[-2.3116,48.66945],[-2.31167,48.66954],[-2.31169,48.66983],[-2.31158,48.6703],[-2.31228,48.67063],[-2.31269,48.67089],[-2.31286,48.67114],[-2.31289,48.67134],[-2.313,48.67153],[-2.31338,48.67173],[-2.31384,48.6722],[-2.31398,48.67223],[-2.31411,48.67236],[-2.31448,48.67251],[-2.31462,48.67249],[-2.31518,48.67289],[-2.31528,48.67316],[-2.31549,48.67341],[-2.31575,48.67472],[-2.31604,48.6747],[-2.31594,48.67477],[-2.31607,48.67479],[-2.31596,48.67485],[-2.31608,48.67491],[-2.31647,48.6748],[-2.31673,48.6749],[-2.3168,48.67499],[-2.31679,48.67508],[-2.31666,48.67511],[-2.31634,48.6753],[-2.3156,48.67554],[-2.31534,48.67575],[-2.31539,48.67594],[-2.31526,48.6761],[-2.31533,48.67629],[-2.3153,48.67647],[-2.31521,48.67654],[-2.31483,48.67756],[-2.31447,48.67785],[-2.31446,48.67804],[-2.31416,48.67886],[-2.31399,48.67902],[-2.31373,48.67956],[-2.3135,48.67967],[-2.31344,48.67976],[-2.31366,48.6804],[-2.31398,48.68063],[-2.31399,48.68091],[-2.31416,48.68154],[-2.31442,48.68177],[-2.3147,48.6822],[-2.31512,48.68259],[-2.31507,48.68268],[-2.31534,48.68321],[-2.31517,48.68361],[-2.31535,48.68447],[-2.31576,48.68486],[-2.31579,48.68495],[-2.31612,48.68511],[-2.31624,48.68528],[-2.31638,48.68531],[-2.31659,48.68545],[-2.31671,48.68562],[-2.31664,48.68597],[-2.31649,48.68624],[-2.31651,48.68652],[-2.31667,48.68697],[-2.31678,48.68702],[-2.31697,48.6874],[-2.3173,48.6877],[-2.31744,48.68774],[-2.31769,48.68764],[-2.3178,48.68747],[-2.31775,48.68689],[-2.31759,48.68653],[-2.31749,48.68598],[-2.31751,48.68578],[-2.31816,48.68516],[-2.31854,48.68489],[-2.31909,48.68432],[-2.31914,48.68404],[-2.31907,48.68386],[-2.31908,48.68406],[-2.31933,48.68414],[-2.31946,48.68412],[-2.31962,48.68397],[-2.31961,48.68388],[-2.31975,48.68361],[-2.31978,48.68332],[-2.31973,48.68304],[-2.32013,48.68264],[-2.32044,48.68245],[-2.32065,48.68221],[-2.32078,48.68219],[-2.32097,48.68233],[-2.32137,48.68247],[-2.32164,48.68242],[-2.32177,48.68258],[-2.32191,48.68255],[-2.3219,48.68226],[-2.32206,48.6819],[-2.32199,48.68152],[-2.32212,48.68148],[-2.32213,48.68138],[-2.32233,48.6813],[-2.32256,48.68141],[-2.32262,48.6815],[-2.32276,48.68153],[-2.32304,48.68147],[-2.32376,48.68118],[-2.32392,48.68092],[-2.32386,48.6808],[-2.32403,48.68053],[-2.32409,48.68013],[-2.32422,48.68009],[-2.32437,48.67994],[-2.32457,48.67947],[-2.32493,48.67895],[-2.32496,48.67885],[-2.32469,48.67864],[-2.32466,48.67854],[-2.32467,48.67845],[-2.32483,48.6783],[-2.32486,48.678],[-2.32481,48.67791],[-2.3249,48.67774],[-2.32489,48.67745],[-2.32496,48.67727],[-2.32546,48.67681],[-2.32559,48.67678],[-2.32587,48.67682],[-2.32624,48.67643],[-2.32652,48.67636],[-2.3267,48.67622],[-2.32705,48.67607],[-2.32691,48.67606],[-2.32669,48.67618],[-2.3265,48.67621],[-2.32609,48.67623],[-2.32618,48.67616],[-2.32611,48.67608],[-2.32616,48.676],[-2.32642,48.67592],[-2.32669,48.67569],[-2.32686,48.67544],[-2.3268,48.67526],[-2.32722,48.67497],[-2.32736,48.67481],[-2.32725,48.67434],[-2.32682,48.67343],[-2.3268,48.67334],[-2.32692,48.67316],[-2.32741,48.67269],[-2.3286,48.67215],[-2.32919,48.67174],[-2.32964,48.6715],[-2.33071,48.67106],[-2.33089,48.67051],[-2.33106,48.67036],[-2.33164,48.67008],[-2.33178,48.66992],[-2.33217,48.66978],[-2.33259,48.66975],[-2.33316,48.66983],[-2.33344,48.66978],[-2.33371,48.66982],[-2.33406,48.66997],[-2.33405,48.67006],[-2.33416,48.66988],[-2.33427,48.66982],[-2.33472,48.66979],[-2.33487,48.66981],[-2.33499,48.66976],[-2.33554,48.66922],[-2.33559,48.66913],[-2.3355,48.66886],[-2.33622,48.6684],[-2.3368,48.66811],[-2.33696,48.66811],[-2.33741,48.66786],[-2.33747,48.66777],[-2.33749,48.66749],[-2.33758,48.6673],[-2.3377,48.66725],[-2.33916,48.66685],[-2.3409,48.66669],[-2.34131,48.6666],[-2.34156,48.6665],[-2.34192,48.6662],[-2.34249,48.66541],[-2.34285,48.66467],[-2.34291,48.66419],[-2.34313,48.66406],[-2.34321,48.66414],[-2.3432,48.66424],[-2.3433,48.66431],[-2.34351,48.66418],[-2.34378,48.6641],[-2.34404,48.66413],[-2.34426,48.66437],[-2.3442,48.66445],[-2.34431,48.66463],[-2.34432,48.66481],[-2.34442,48.66487],[-2.34647,48.66455],[-2.34638,48.66437],[-2.34649,48.66418],[-2.34689,48.66423],[-2.34698,48.66416],[-2.34688,48.66399],[-2.347,48.66383],[-2.34677,48.66349],[-2.34688,48.66343],[-2.34768,48.66321],[-2.34824,48.66267],[-2.34839,48.6623],[-2.34833,48.66202],[-2.34817,48.66166],[-2.348,48.66148],[-2.3479,48.6611],[-2.34775,48.66111],[-2.34818,48.66109],[-2.3488,48.66045],[-2.34888,48.66053],[-2.3496,48.66086],[-2.35014,48.66099],[-2.35099,48.66106],[-2.35105,48.66098],[-2.35093,48.66072],[-2.35099,48.66063],[-2.3511,48.66057],[-2.35139,48.66054],[-2.35152,48.66057],[-2.35175,48.66047],[-2.3519,48.66045],[-2.35227,48.66059],[-2.35245,48.66046],[-2.35283,48.66058],[-2.35427,48.66072],[-2.35455,48.6607],[-2.35505,48.66056],[-2.35573,48.66045],[-2.35608,48.66029],[-2.35639,48.66029],[-2.35694,48.65974],[-2.35708,48.65947],[-2.35722,48.65899],[-2.35698,48.65843],[-2.35733,48.65791],[-2.35745,48.65785],[-2.35775,48.65751],[-2.3586,48.65698],[-2.35951,48.65651],[-2.35958,48.65643],[-2.3607,48.65598],[-2.36238,48.65541],[-2.36318,48.65521],[-2.36336,48.65507],[-2.36375,48.65495],[-2.36389,48.65496],[-2.36454,48.65477],[-2.36495,48.65473],[-2.36507,48.65467],[-2.36496,48.6546],[-2.36492,48.65451],[-2.36502,48.65445],[-2.36539,48.65458],[-2.36568,48.65458],[-2.36579,48.65453],[-2.36608,48.65456],[-2.3663,48.65468],[-2.36648,48.65494],[-2.36648,48.65504],[-2.36636,48.65499],[-2.36648,48.65505],[-2.3667,48.65528],[-2.36722,48.65545],[-2.36733,48.65568],[-2.36755,48.65579],[-2.36783,48.65581],[-2.36795,48.65586],[-2.36801,48.65595],[-2.36815,48.65597],[-2.36857,48.656],[-2.36921,48.65582],[-2.36931,48.65588],[-2.36965,48.65572],[-2.37021,48.65557],[-2.37073,48.65575],[-2.371,48.65571],[-2.37142,48.65574],[-2.3718,48.65562],[-2.37224,48.65539],[-2.37242,48.65523],[-2.37245,48.65514],[-2.37231,48.65476],[-2.37257,48.65435],[-2.37249,48.65407],[-2.37262,48.6539],[-2.3726,48.65381],[-2.3725,48.65374],[-2.37252,48.65346],[-2.37257,48.65337],[-2.37282,48.65329],[-2.37286,48.65291],[-2.37294,48.65303],[-2.37382,48.65273],[-2.37461,48.65236],[-2.3752,48.65166],[-2.37507,48.65164],[-2.375,48.65156],[-2.37476,48.65146],[-2.37413,48.6515],[-2.37373,48.65163],[-2.37364,48.65157],[-2.37416,48.65148],[-2.37452,48.65131],[-2.3746,48.65124],[-2.37456,48.65115],[-2.37493,48.65101],[-2.37488,48.65082],[-2.37471,48.65061],[-2.37476,48.65052],[-2.37503,48.65047],[-2.37596,48.65005],[-2.37611,48.65005],[-2.3768,48.6499],[-2.37709,48.64969],[-2.37726,48.64942],[-2.37741,48.64939],[-2.37801,48.64914],[-2.37842,48.64903],[-2.3785,48.64895],[-2.37877,48.64893],[-2.37902,48.64882],[-2.37916,48.64885],[-2.37929,48.64881],[-2.37938,48.64873],[-2.3793,48.64855],[-2.37943,48.64851],[-2.37971,48.64847],[-2.37977,48.64856],[-2.37991,48.64854],[-2.38018,48.64858],[-2.38069,48.64841],[-2.38112,48.64817],[-2.38152,48.64844],[-2.38167,48.64844],[-2.38266,48.64791],[-2.3834,48.64758],[-2.38355,48.6476],[-2.38393,48.64744],[-2.38411,48.64729],[-2.38425,48.64729],[-2.38453,48.64752],[-2.38481,48.64757],[-2.38506,48.64749],[-2.3852,48.64751],[-2.38576,48.6474],[-2.38657,48.6472],[-2.387,48.64722],[-2.38755,48.64714],[-2.38767,48.64688],[-2.38806,48.64646],[-2.38884,48.64606],[-2.38891,48.64597],[-2.38936,48.64577],[-2.3896,48.64553],[-2.39027,48.64518],[-2.39048,48.64483],[-2.39078,48.64483],[-2.39104,48.64449],[-2.39103,48.64439],[-2.3909,48.64435],[-2.39062,48.64437],[-2.38997,48.64417],[-2.38953,48.64369],[-2.3888,48.6431],[-2.38893,48.64305],[-2.3892,48.64325],[-2.38939,48.64314],[-2.38953,48.64315]]}},{"type":"Feature","properties":{"day":5,"name":"[GR 34 LOVE TOUR 2025] Jour 5 : Pléhérel-Plage à Erquy"},"geometry":{"type":"LineString","coordinates":[[-2.38944,48.64307],[-2.38982,48.64299],[-2.39012,48.64297],[-2.39125,48.64318],[-2.39139,48.64317],[-2.39164,48.64261],[-2.39198,48.64217],[-2.39253,48.64183],[-2.39332,48.64156],[-2.39346,48.64161],[-2.39375,48.64158],[-2.39386,48.64164],[-2.39463,48.64247],[-2.39483,48.64283],[-2.39494,48.64288],[-2.39571,48.64258],[-2.39837,48.64179],[-2.39922,48.64164],[-2.39972,48.64147],[-2.39985,48.6415],[-2.40022,48.64136],[-2.40063,48.6413],[-2.40241,48.64123],[-2.40371,48.64112],[-2.40412,48.64104],[-2.40426,48.64108],[-2.40438,48.64102],[-2.4054,48.64097],[-2.40597,48.64087],[-2.40652,48.64086],[-2.41161,48.64093],[-2.41173,48.64087],[-2.41233,48.64089],[-2.41246,48.64085],[-2.41257,48.64091],[-2.41314,48.64088],[-2.41414,48.64093],[-2.41434,48.64098],[-2.41434,48.64089],[-2.41349,48.64086],[-2.41343,48.64077],[-2.41358,48.6403],[-2.41348,48.64023],[-2.4128,48.64008],[-2.41245,48.63992],[-2.41202,48.6399],[-2.41175,48.63985],[-2.41175,48.63974],[-2.412,48.63952],[-2.41177,48.63946],[-2.41131,48.63924],[-2.41089,48.63929],[-2.4109,48.6392],[-2.41103,48.63916],[-2.41124,48.63892],[-2.4112,48.63883],[-2.41146,48.63873],[-2.41121,48.63862],[-2.4108,48.63856],[-2.41019,48.63801],[-2.40971,48.63733],[-2.40953,48.63696],[-2.40931,48.63671],[-2.40924,48.63643],[-2.4088,48.63592],[-2.40909,48.6356],[-2.40901,48.63553],[-2.4091,48.63545],[-2.41026,48.63472],[-2.4102,48.63454],[-2.41025,48.63444],[-2.41037,48.6344],[-2.41093,48.63444],[-2.41151,48.63403],[-2.41157,48.63394],[-2.41153,48.63376],[-2.41161,48.63357],[-2.41166,48.63348],[-2.4118,48.63346],[-2.41186,48.63337],[-2.41186,48.63318],[-2.4117,48.63282],[-2.41242,48.63222],[-2.41254,48.63216],[-2.41296,48.63217],[-2.41359,48.63195],[-2.41415,48.63203],[-2.41427,48.63198],[-2.41442,48.63199],[-2.41495,48.63211],[-2.4154,48.63213],[-2.41611,48.63224],[-2.41626,48.63222],[-2.4167,48.63231],[-2.41691,48.63243],[-2.41781,48.63272],[-2.4181,48.63276],[-2.41877,48.63305],[-2.42058,48.63354],[-2.42071,48.63372],[-2.42043,48.63405],[-2.42012,48.63424],[-2.41958,48.63437],[-2.41936,48.63449],[-2.41848,48.63527],[-2.41753,48.63585],[-2.41705,48.63621],[-2.41682,48.63646],[-2.41713,48.63667],[-2.41841,48.6373],[-2.41857,48.63745],[-2.41871,48.63746],[-2.41894,48.63756],[-2.41923,48.63756],[-2.41957,48.63772],[-2.41986,48.63773],[-2.4203,48.63794],[-2.4206,48.63793],[-2.42103,48.63779],[-2.42171,48.63744],[-2.42171,48.63735],[-2.42186,48.63734],[-2.42189,48.63743],[-2.42173,48.6377],[-2.4217,48.63819],[-2.42177,48.63847],[-2.42221,48.63885],[-2.4222,48.63904],[-2.42242,48.63939],[-2.42242,48.63959],[-2.42231,48.63978],[-2.42238,48.64],[-2.42231,48.64028],[-2.42245,48.64064],[-2.42291,48.64098],[-2.4232,48.641],[-2.42405,48.64091],[-2.42462,48.64101],[-2.42468,48.6411],[-2.42445,48.64135],[-2.42396,48.6415],[-2.42323,48.64193],[-2.42277,48.64211],[-2.42255,48.64234],[-2.42305,48.64235],[-2.42383,48.64222],[-2.42387,48.6424],[-2.42379,48.6426],[-2.4235,48.64293],[-2.4225,48.64386],[-2.42236,48.64411],[-2.42231,48.64471],[-2.42221,48.64508],[-2.42203,48.64534],[-2.4219,48.64539],[-2.42177,48.64557],[-2.42149,48.64579],[-2.42136,48.64596],[-2.42134,48.64624],[-2.42137,48.64615],[-2.42157,48.64627],[-2.42172,48.64654],[-2.4219,48.64669],[-2.42205,48.64697],[-2.42279,48.64725],[-2.42294,48.64728],[-2.42321,48.64725],[-2.4236,48.64738],[-2.42387,48.64738],[-2.42448,48.64765],[-2.4253,48.64784],[-2.42629,48.64791],[-2.42657,48.64797],[-2.42659,48.64807],[-2.42713,48.64822],[-2.42776,48.64847],[-2.42807,48.64865],[-2.42848,48.64876],[-2.42877,48.64876],[-2.42865,48.6487],[-2.42927,48.64892],[-2.43026,48.64908],[-2.43079,48.64921],[-2.43106,48.6492],[-2.43134,48.64898],[-2.43158,48.64909],[-2.43193,48.64939],[-2.43237,48.64963],[-2.43267,48.64991],[-2.4329,48.65002],[-2.43295,48.65012],[-2.43384,48.65062],[-2.43411,48.6507],[-2.43426,48.6507],[-2.43498,48.65131],[-2.43524,48.65138],[-2.43541,48.65153],[-2.43626,48.65206],[-2.4364,48.65205],[-2.43681,48.65232],[-2.43764,48.65251],[-2.43822,48.65257],[-2.43886,48.65239],[-2.43969,48.65201],[-2.44071,48.65168],[-2.4409,48.65155],[-2.44104,48.65152],[-2.44116,48.65136],[-2.44111,48.65118],[-2.44118,48.65097],[-2.44212,48.65078],[-2.44222,48.65072],[-2.4422,48.65062],[-2.44234,48.65059],[-2.44275,48.65053],[-2.44287,48.65059],[-2.44292,48.65068],[-2.44305,48.65065],[-2.44323,48.6505],[-2.44416,48.65006],[-2.44467,48.6496],[-2.4451,48.64932],[-2.44547,48.64922],[-2.44574,48.64899],[-2.44608,48.64882],[-2.44661,48.64865],[-2.44706,48.64863],[-2.44718,48.64867],[-2.44709,48.64906],[-2.4472,48.64912],[-2.44714,48.6492],[-2.44714,48.64939],[-2.44728,48.64943],[-2.44801,48.64916],[-2.44826,48.64951],[-2.44835,48.64943],[-2.44821,48.64943],[-2.44807,48.64917],[-2.44812,48.64926],[-2.44859,48.64947],[-2.44763,48.64955],[-2.44741,48.64932],[-2.44691,48.64903],[-2.44854,48.64941],[-2.44799,48.64914],[-2.44842,48.64925],[-2.44913,48.64933],[-2.44946,48.64951],[-2.44971,48.64929],[-2.4499,48.64923],[-2.44999,48.64914],[-2.45043,48.6489],[-2.45274,48.64806],[-2.45331,48.64763],[-2.45385,48.64757],[-2.45418,48.64727],[-2.4543,48.64723],[-2.45434,48.64714],[-2.45493,48.64661],[-2.45521,48.64661],[-2.45521,48.64671],[-2.45503,48.64685],[-2.455,48.64694],[-2.45468,48.64713],[-2.45458,48.6473],[-2.45454,48.64739],[-2.45465,48.64766],[-2.45537,48.64763],[-2.45652,48.6479],[-2.45694,48.64795],[-2.45732,48.64807],[-2.45776,48.64808],[-2.45846,48.64799],[-2.45917,48.648],[-2.45941,48.64748],[-2.45968,48.64746],[-2.4602,48.64763],[-2.46059,48.64767],[-2.46108,48.64739],[-2.46121,48.64743],[-2.46133,48.64739],[-2.46172,48.64749],[-2.46244,48.6475],[-2.46285,48.64756],[-2.46302,48.64731],[-2.46356,48.64688],[-2.46361,48.64697],[-2.4635,48.64707],[-2.46348,48.64717],[-2.46355,48.64741],[-2.46462,48.64778],[-2.46492,48.64777],[-2.46514,48.64789],[-2.46515,48.64803],[-2.4646,48.64789],[-2.464,48.64745],[-2.4641,48.64779],[-2.46437,48.648],[-2.46451,48.64802],[-2.46482,48.64844],[-2.46502,48.64858],[-2.46502,48.64868],[-2.46581,48.64886],[-2.46608,48.64879],[-2.46621,48.64882],[-2.4666,48.6491],[-2.46701,48.6492],[-2.46728,48.64941],[-2.46742,48.64942],[-2.46769,48.649],[-2.46758,48.64894],[-2.4676,48.64875],[-2.46778,48.64837],[-2.4679,48.64831],[-2.46833,48.64825],[-2.46917,48.6482],[-2.46962,48.64795],[-2.46978,48.64769],[-2.46977,48.6476],[-2.46992,48.64722],[-2.4701,48.64708],[-2.47052,48.64627],[-2.47113,48.64586],[-2.47116,48.64574],[-2.47129,48.64577],[-2.47154,48.64567],[-2.47187,48.64546],[-2.47187,48.64525],[-2.47178,48.64507],[-2.47185,48.64498],[-2.47222,48.64469],[-2.47312,48.64427],[-2.47358,48.64391],[-2.47371,48.64386],[-2.47383,48.64393],[-2.474,48.64377],[-2.47399,48.64367],[-2.47409,48.64361],[-2.47421,48.64334],[-2.47406,48.64289],[-2.47408,48.64261],[-2.47391,48.64174],[-2.47418,48.64171],[-2.47457,48.64174],[-2.4754,48.64166],[-2.47546,48.64174],[-2.47585,48.64186],[-2.47598,48.64202],[-2.47603,48.64221],[-2.47597,48.6424],[-2.47584,48.64236],[-2.47599,48.64239],[-2.47593,48.64263],[-2.47621,48.64282],[-2.47646,48.64292],[-2.47646,48.64301],[-2.47628,48.64313],[-2.47589,48.64322],[-2.47591,48.64331],[-2.47621,48.6435],[-2.4768,48.64346],[-2.47707,48.64348],[-2.47747,48.64358],[-2.47781,48.64374],[-2.47824,48.64378],[-2.47851,48.64376],[-2.47863,48.64381],[-2.47908,48.64381],[-2.47936,48.64386],[-2.47946,48.6438],[-2.48043,48.64362],[-2.48142,48.64372],[-2.48174,48.64353],[-2.48187,48.6435],[-2.48236,48.64367],[-2.48252,48.64391],[-2.48249,48.64415],[-2.48259,48.64422],[-2.48289,48.64422],[-2.48326,48.64441],[-2.48368,48.6445],[-2.48398,48.64462],[-2.48454,48.64461],[-2.48481,48.64482],[-2.48519,48.64494],[-2.48564,48.64489],[-2.48591,48.64493],[-2.48617,48.64488],[-2.48622,48.64463],[-2.48643,48.6444],[-2.48633,48.64422],[-2.48611,48.6441],[-2.48627,48.64383],[-2.48602,48.6435],[-2.48606,48.64309],[-2.48586,48.64274],[-2.48563,48.64263],[-2.4854,48.64239],[-2.48483,48.64212],[-2.48428,48.64201],[-2.48379,48.64218],[-2.48365,48.64218],[-2.48359,48.64209],[-2.48345,48.64205],[-2.48318,48.64171],[-2.48305,48.64167],[-2.48278,48.64145],[-2.48228,48.64089],[-2.48187,48.64018],[-2.48132,48.63964],[-2.48143,48.63915],[-2.48154,48.6391],[-2.48152,48.6389],[-2.48174,48.63856],[-2.48187,48.63853],[-2.48247,48.63873],[-2.48255,48.63866],[-2.48271,48.63864],[-2.48275,48.63849],[-2.4827,48.6384],[-2.48228,48.6383],[-2.48142,48.63817],[-2.48105,48.63803],[-2.48077,48.63803],[-2.48039,48.63789],[-2.48021,48.63774],[-2.48008,48.63771],[-2.47981,48.63777],[-2.47957,48.63767],[-2.47901,48.63762],[-2.47842,48.63751],[-2.47803,48.63759],[-2.47774,48.63759],[-2.47734,48.63747],[-2.4771,48.63735],[-2.47652,48.63743],[-2.4765,48.63752],[-2.47631,48.63739],[-2.4758,48.63723],[-2.47509,48.63715],[-2.47468,48.63704],[-2.47428,48.63677],[-2.47389,48.63669],[-2.47384,48.6366],[-2.47395,48.63653],[-2.47408,48.63655],[-2.47396,48.6365],[-2.47382,48.63648],[-2.47369,48.63653],[-2.47355,48.6365],[-2.47327,48.63653],[-2.47269,48.63645],[-2.47269,48.63636],[-2.47284,48.63634],[-2.4727,48.63635],[-2.47264,48.63626],[-2.47238,48.63619],[-2.47167,48.63615],[-2.47139,48.63608],[-2.4701,48.63596],[-2.46952,48.63603],[-2.46885,48.63621],[-2.46841,48.63618],[-2.46828,48.63614],[-2.46775,48.6357],[-2.46762,48.63544],[-2.46741,48.63531],[-2.46728,48.63513],[-2.4669,48.63431],[-2.46677,48.63365],[-2.46669,48.63356],[-2.46672,48.63317],[-2.46686,48.63232],[-2.46702,48.63197],[-2.46707,48.63149],[-2.46736,48.63096],[-2.46803,48.6301],[-2.46828,48.62999],[-2.46839,48.62982],[-2.46886,48.62947],[-2.46891,48.62935],[-2.46888,48.62907],[-2.46896,48.62899],[-2.46879,48.62864],[-2.46897,48.62839],[-2.46885,48.62827]]}}]}