{"type":"FeatureCollection","features":[{"type":"Feature","properties":{"day":1,"name":"🇳🇱 Zeeland Love Tour ❤️ Jour 1 🚴"},"geometry":{"type":"LineString","coordinates":[[3.59673,51.44385],[3.59637,51.4437],[3.59574,51.44361],[3.5956,51.44313],[3.59573,51.4428],[3.59603,51.44272],[3.59626,51.44271],[3.59652,51.44259],[3.59639,51.44249],[3.59635,51.44234],[3.59615,51.44222],[3.59589,51.44176],[3.59596,51.44156],[3.59634,51.44128],[3.59637,51.44116],[3.59626,51.44109],[3.59574,51.44094],[3.59511,51.44065],[3.59488,51.4406],[3.59458,51.44061],[3.59418,51.44071],[3.59377,51.44096],[3.59289,51.44136],[3.591,51.44173],[3.59021,51.44179],[3.5896,51.44175],[3.58584,51.44123],[3.58268,51.44073],[3.58105,51.4406],[3.58011,51.44089],[3.57988,51.4409],[3.57891,51.44064],[3.57631,51.44015],[3.5762,51.44017],[3.57613,51.44026],[3.5755,51.44035],[3.57533,51.44033],[3.57486,51.44075],[3.57468,51.44078],[3.5745,51.4407],[3.57426,51.44067],[3.57415,51.4406],[3.57417,51.44054],[3.57477,51.43982],[3.57492,51.43978],[3.57517,51.43981],[3.57525,51.43988],[3.57539,51.43977],[3.5755,51.43961],[3.5753,51.43952],[3.575,51.43954],[3.57459,51.4399],[3.57426,51.4401],[3.57064,51.4407],[3.57028,51.44084],[3.57008,51.44103],[3.56965,51.44178],[3.56957,51.44213],[3.56913,51.44253],[3.56867,51.44319],[3.56858,51.44339],[3.56888,51.44358],[3.56888,51.44369],[3.56756,51.4442],[3.56537,51.4454],[3.5641,51.44598],[3.56319,51.44652],[3.56266,51.44694],[3.56234,51.44729],[3.56153,51.44844],[3.56102,51.44879],[3.56072,51.44887],[3.56006,51.44926],[3.55854,51.44987],[3.55686,51.45045],[3.55673,51.4505],[3.55658,51.45067],[3.5559,51.45085],[3.55549,51.45109],[3.55528,51.45137],[3.55528,51.45177],[3.5555,51.45211],[3.55595,51.45253],[3.55539,51.45285],[3.55505,51.45314],[3.5547,51.45355],[3.55444,51.45399],[3.55457,51.45373],[3.55368,51.45356],[3.55332,51.45332],[3.55124,51.45316],[3.55104,51.45309],[3.55049,51.4528],[3.54998,51.45267],[3.54957,51.45267],[3.54774,51.45296],[3.54702,51.45329],[3.54489,51.4548],[3.54362,51.45518],[3.54314,51.45545],[3.54273,51.45555],[3.54248,51.45567],[3.54173,51.45635],[3.54037,51.45728],[3.53857,51.45806],[3.5375,51.4584],[3.53678,51.45895],[3.53609,51.45937],[3.53454,51.46009],[3.53406,51.46042],[3.5331,51.46088],[3.53282,51.46106],[3.53221,51.46126],[3.53194,51.46159],[3.53162,51.46185],[3.53041,51.46259],[3.52975,51.4631],[3.52924,51.46335],[3.52885,51.46371],[3.52846,51.46371],[3.52824,51.46386],[3.52799,51.46437],[3.528,51.46502],[3.52791,51.46534],[3.52775,51.46558],[3.52696,51.46621],[3.52529,51.46713],[3.52454,51.46745],[3.52429,51.46761],[3.52401,51.46793],[3.52331,51.469],[3.52231,51.47008],[3.5223,51.47015],[3.52246,51.4703],[3.52246,51.47038],[3.52207,51.47074],[3.52178,51.47176],[3.52092,51.473],[3.52087,51.47327],[3.52096,51.47358],[3.5209,51.47363],[3.52067,51.47366],[3.52103,51.47364],[3.52151,51.47369],[3.52286,51.47394],[3.52295,51.47398],[3.52295,51.47407],[3.52276,51.4743],[3.52223,51.47533],[3.521,51.47579],[3.52079,51.47614],[3.52047,51.47644],[3.52038,51.47675],[3.52045,51.47801],[3.52032,51.47877],[3.52007,51.47899],[3.51973,51.47899],[3.51966,51.47904],[3.51865,51.48038],[3.51766,51.48197],[3.51742,51.48216],[3.51671,51.48244],[3.51643,51.48263],[3.51514,51.48457],[3.5146,51.48509],[3.51415,51.48537],[3.51376,51.48544],[3.51344,51.48544],[3.51326,51.48554],[3.513,51.48593],[3.51291,51.48639],[3.51269,51.48671],[3.51224,51.48696],[3.51102,51.48783],[3.51075,51.48797],[3.51017,51.48816],[3.50914,51.48837],[3.50852,51.48868],[3.50615,51.48957],[3.50591,51.48975],[3.50581,51.49039],[3.50533,51.49072],[3.50411,51.49079],[3.50348,51.49105],[3.50325,51.49108],[3.50292,51.49121],[3.50236,51.4921],[3.50123,51.4933],[3.50103,51.4937],[3.50093,51.49416],[3.50069,51.49451],[3.49936,51.49572],[3.49921,51.49629],[3.49893,51.49661],[3.49851,51.49682],[3.49762,51.49711],[3.497,51.49771],[3.49592,51.49836],[3.4942,51.49861],[3.49257,51.49865],[3.49048,51.49883],[3.48966,51.49881],[3.48864,51.49894],[3.48645,51.49973],[3.48559,51.49997],[3.48522,51.49998],[3.48505,51.50079],[3.48496,51.50087],[3.48255,51.50101],[3.48136,51.50101],[3.48109,51.50146],[3.48089,51.50164],[3.48042,51.50169],[3.47998,51.50184],[3.47884,51.50274],[3.47831,51.50331],[3.47802,51.50328],[3.47241,51.50588],[3.47233,51.50589],[3.47298,51.50561],[3.473,51.50557],[3.47245,51.50559],[3.47169,51.50582],[3.47126,51.50599],[3.47069,51.50633],[3.4687,51.50708],[3.46615,51.50823],[3.4652,51.50885],[3.46426,51.50932],[3.46329,51.50967],[3.46299,51.50986],[3.46261,51.51033],[3.46234,51.5105],[3.46104,51.51078],[3.46017,51.51103],[3.45953,51.51128],[3.45865,51.51179],[3.45804,51.51229],[3.45743,51.51267],[3.45715,51.51276],[3.45657,51.51284],[3.45613,51.51301],[3.45593,51.51322],[3.45494,51.51382],[3.45484,51.51438],[3.45424,51.51469],[3.45382,51.51499],[3.45356,51.51508],[3.45244,51.51531],[3.45188,51.51564],[3.45106,51.51596],[3.45034,51.51644],[3.45012,51.51693],[3.4499,51.51712],[3.44934,51.51745],[3.44903,51.5179],[3.44909,51.51842],[3.44847,51.51923],[3.449,51.51962],[3.44909,51.51975],[3.44889,51.52083],[3.44874,51.52114],[3.44854,51.52133],[3.44811,51.52159],[3.44787,51.5217],[3.44684,51.52202],[3.44538,51.52282],[3.44494,51.52294],[3.44445,51.52298],[3.44341,51.52293],[3.44305,51.52296],[3.44254,51.52313],[3.44235,51.52335],[3.44213,51.52421],[3.44144,51.52553],[3.44146,51.52561],[3.44179,51.52577],[3.44287,51.52621],[3.44287,51.52629],[3.4426,51.52674],[3.44263,51.5268],[3.44357,51.52705],[3.44589,51.52784],[3.4461,51.52794],[3.44619,51.5282],[3.44628,51.52827],[3.44726,51.52865],[3.447,51.52901],[3.44684,51.52913],[3.44345,51.52817],[3.43836,51.52707],[3.43797,51.52704],[3.43684,51.52708],[3.43584,51.52722],[3.43532,51.52735],[3.43497,51.52734],[3.43482,51.52826],[3.43487,51.53028],[3.43479,51.53069],[3.43487,51.53124],[3.43513,51.53212],[3.43506,51.53226],[3.43531,51.53283],[3.43568,51.53561],[3.43644,51.53787],[3.43721,51.53963],[3.43732,51.53973],[3.43752,51.53976],[3.43758,51.53986],[3.43745,51.54011],[3.4376,51.5404],[3.4381,51.54096],[3.4387,51.54147],[3.43908,51.54173],[3.43999,51.54221],[3.44172,51.54291],[3.44835,51.54539],[3.45263,51.54725],[3.45351,51.54757],[3.45544,51.54818],[3.45743,51.54867],[3.45845,51.54898],[3.45844,51.54903],[3.45833,51.54903],[3.45795,51.54886],[3.45771,51.54884],[3.45752,51.54877],[3.45751,51.54874],[3.45767,51.5487],[3.45995,51.54909],[3.46018,51.54907],[3.46036,51.54895],[3.46131,51.54913],[3.46233,51.54945],[3.46329,51.54991],[3.46492,51.55095],[3.46726,51.55197],[3.47099,51.55397],[3.47199,51.55444],[3.47386,51.55521],[3.47586,51.55595],[3.48306,51.55804],[3.48567,51.5593],[3.48646,51.55957],[3.48821,51.56],[3.48896,51.56025],[3.4908,51.56128],[3.4915,51.56158],[3.49262,51.56187],[3.49328,51.56194],[3.49427,51.56215],[3.49433,51.56222],[3.49429,51.5623],[3.49364,51.56302],[3.4937,51.5631],[3.49385,51.56316],[3.49507,51.56346],[3.49538,51.5635],[3.49581,51.56371],[3.49626,51.56329],[3.49587,51.5637],[3.49596,51.5638],[3.49654,51.56407],[3.49716,51.56427],[3.49803,51.5644],[3.49854,51.56441],[3.49839,51.56439],[3.49851,51.56445],[3.49881,51.56449],[3.49883,51.56462],[3.49883,51.56442],[3.499,51.56426],[3.49924,51.56422],[3.50052,51.56449],[3.50383,51.56508],[3.50441,51.56506],[3.5047,51.56516],[3.50534,51.56528],[3.50713,51.56551],[3.51035,51.56618],[3.51171,51.5664],[3.51247,51.56659],[3.51787,51.56838],[3.51844,51.5685],[3.51924,51.56853],[3.51927,51.5686],[3.51903,51.56869],[3.51839,51.56936],[3.51789,51.57003],[3.51739,51.5709],[3.51675,51.57176],[3.51704,51.572],[3.51833,51.57239],[3.51923,51.57283],[3.5201,51.57301],[3.52066,51.57318],[3.52137,51.57319],[3.5219,51.57327],[3.52292,51.57355],[3.52336,51.57359],[3.52517,51.5742],[3.52552,51.57426],[3.52628,51.57464],[3.52691,51.57478],[3.52728,51.57496],[3.52796,51.57517],[3.52868,51.57555],[3.52967,51.57574],[3.53056,51.57611],[3.5318,51.57627],[3.53244,51.57652],[3.53317,51.5769],[3.53396,51.57706],[3.53416,51.57705],[3.53499,51.57735],[3.53544,51.57737],[3.53579,51.57747],[3.53589,51.57746],[3.53647,51.57769],[3.53706,51.57784],[3.53772,51.57797],[3.53817,51.57799],[3.53879,51.5781],[3.53913,51.57811],[3.53972,51.57804],[3.5402,51.57806],[3.54255,51.57845],[3.54304,51.57844],[3.54407,51.57851],[3.54538,51.57875],[3.54545,51.57881],[3.54535,51.57894],[3.54556,51.57905],[3.54606,51.57907],[3.5464,51.57895],[3.54666,51.57892],[3.54773,51.57902],[3.5485,51.57914],[3.5489,51.57925],[3.54959,51.5793],[3.5508,51.57964],[3.55164,51.57979],[3.55331,51.57988],[3.5544,51.58003],[3.55494,51.58004],[3.55609,51.58017],[3.55639,51.58012],[3.55685,51.58015],[3.55798,51.5803],[3.56078,51.58016],[3.56221,51.57987],[3.56325,51.57976],[3.56479,51.57994],[3.56623,51.58005],[3.56913,51.58046],[3.57064,51.58058],[3.57402,51.58107],[3.57665,51.58138],[3.57892,51.58157],[3.57926,51.58156],[3.57967,51.58166],[3.58233,51.58181],[3.58285,51.5819],[3.58293,51.58196],[3.58318,51.58299],[3.58327,51.58306],[3.58386,51.583],[3.58526,51.58273],[3.58714,51.58198],[3.58736,51.58193],[3.59628,51.58315],[3.60044,51.58362],[3.60125,51.58357],[3.60331,51.58328],[3.60455,51.58306],[3.60593,51.58288],[3.6062,51.58288],[3.60652,51.58299],[3.60654,51.58308],[3.60566,51.58576],[3.60563,51.5861],[3.60575,51.58619],[3.60593,51.58622],[3.6067,51.58611],[3.60704,51.5861],[3.6073,51.58615],[3.60993,51.58746],[3.61055,51.5876],[3.61098,51.58758],[3.61057,51.58766],[3.60864,51.58819],[3.60795,51.58875],[3.60786,51.58888],[3.60799,51.58898],[3.60886,51.58908],[3.60942,51.58934],[3.60993,51.58979],[3.61004,51.58996],[3.6101,51.5903],[3.61044,51.5907],[3.61057,51.591],[3.61107,51.5912],[3.61115,51.59125],[3.61114,51.59131],[3.61114,51.59124],[3.61056,51.59102],[3.61043,51.59069],[3.61009,51.59033],[3.60995,51.58987],[3.60941,51.58935],[3.60881,51.58906],[3.60801,51.58898],[3.60783,51.58891],[3.60786,51.58879],[3.60859,51.58818],[3.61062,51.5876],[3.61287,51.58754],[3.6144,51.58742],[3.61572,51.58714],[3.61615,51.587],[3.6174,51.58678],[3.61749,51.58682],[3.61745,51.58696],[3.61709,51.58748],[3.6172,51.58721],[3.61756,51.58675],[3.62045,51.58625],[3.62055,51.58621],[3.62071,51.58599],[3.62056,51.58559],[3.61715,51.58013],[3.61668,51.57776],[3.61675,51.57755],[3.61623,51.57684],[3.61619,51.57668],[3.61726,51.5762],[3.61865,51.57567],[3.6192,51.57521],[3.61943,51.57508],[3.61956,51.5751],[3.61972,51.57535],[3.6197,51.57543],[3.61987,51.57557],[3.62188,51.57487],[3.62314,51.57429],[3.62382,51.57412],[3.62507,51.57392],[3.62537,51.5738],[3.62547,51.57363],[3.62541,51.57349],[3.62436,51.5725],[3.62415,51.57219],[3.62419,51.57204],[3.6245,51.57181],[3.62468,51.57132],[3.62647,51.57028],[3.62842,51.56943],[3.62939,51.56909],[3.63064,51.56847],[3.63181,51.56761],[3.63204,51.5673],[3.63214,51.56697],[3.63197,51.56522],[3.632,51.56506],[3.63218,51.56488],[3.63255,51.56476],[3.63428,51.5646],[3.63461,51.56452],[3.63627,51.56375],[3.63778,51.56294],[3.63835,51.56268],[3.63941,51.56231],[3.64122,51.56178],[3.64203,51.56146],[3.64244,51.56118],[3.64315,51.5597],[3.64338,51.55942],[3.64364,51.55922],[3.64801,51.55732],[3.64836,51.55725],[3.65146,51.55686],[3.65304,51.55658],[3.65343,51.55633],[3.65381,51.55544],[3.65399,51.55524],[3.6543,51.55502],[3.6559,51.55431],[3.65654,51.55408],[3.65735,51.5539],[3.65762,51.55378],[3.65798,51.55338],[3.65808,51.55307],[3.65803,51.55147],[3.65794,51.55103],[3.65788,51.54964],[3.65777,51.54926],[3.6578,51.54919],[3.65981,51.54879],[3.6602,51.54845],[3.66024,51.5486],[3.66016,51.54851],[3.6603,51.54826],[3.66063,51.54803],[3.66104,51.54783],[3.6615,51.54773],[3.66223,51.54773],[3.66346,51.54795],[3.66413,51.54812],[3.66594,51.5488],[3.66606,51.54878],[3.66682,51.54803]]}},{"type":"Feature","properties":{"day":2,"name":"🇳🇱 Zeeland Love Tour ❤️ Jour 2 🚴"},"geometry":{"type":"LineString","coordinates":[[3.66654,51.54784],[3.66671,51.54798],[3.66725,51.54825],[3.66799,51.54832],[3.66839,51.54862],[3.66839,51.54881],[3.66806,51.54903],[3.66773,51.54917],[3.66761,51.54936],[3.66739,51.54934],[3.66407,51.54814],[3.66366,51.54806],[3.66353,51.54815],[3.66326,51.54819],[3.66189,51.54806],[3.66156,51.54811],[3.66106,51.54828],[3.66046,51.54832],[3.65974,51.54881],[3.65785,51.54928],[3.65792,51.54971],[3.65794,51.55109],[3.65805,51.55174],[3.65809,51.55306],[3.65797,51.55337],[3.65764,51.55379],[3.65596,51.55429],[3.65547,51.55457],[3.65462,51.55485],[3.65436,51.55505],[3.65412,51.55515],[3.65377,51.5555],[3.6536,51.5558],[3.65338,51.55642],[3.65317,51.55658],[3.65284,51.55667],[3.65144,51.55688],[3.64818,51.55729],[3.64771,51.55746],[3.64378,51.5592],[3.6435,51.55936],[3.64322,51.55964],[3.64248,51.56116],[3.64223,51.56135],[3.64193,51.56149],[3.64135,51.56172],[3.63973,51.56221],[3.63824,51.56273],[3.63613,51.56384],[3.63458,51.56455],[3.63413,51.56464],[3.63303,51.56472],[3.6322,51.56489],[3.63202,51.56504],[3.63197,51.56523],[3.63217,51.56699],[3.63209,51.56728],[3.63183,51.56763],[3.6307,51.56847],[3.62923,51.56918],[3.62837,51.56947],[3.62635,51.57038],[3.62469,51.57138],[3.62454,51.57184],[3.62422,51.57205],[3.62416,51.57221],[3.62437,51.57249],[3.62545,51.57353],[3.62548,51.57369],[3.62541,51.5738],[3.62518,51.57392],[3.62379,51.57415],[3.62316,51.57431],[3.62215,51.57478],[3.61986,51.5756],[3.6198,51.5756],[3.61951,51.57513],[3.61943,51.57511],[3.61897,51.57543],[3.61872,51.5757],[3.61736,51.57618],[3.61626,51.57668],[3.61619,51.57676],[3.61676,51.57757],[3.61671,51.57782],[3.61697,51.57878],[3.61722,51.58015],[3.61971,51.58422],[3.62066,51.58563],[3.62076,51.58587],[3.62075,51.58616],[3.62088,51.58628],[3.62149,51.58644],[3.62205,51.58643],[3.62283,51.58629],[3.62422,51.5859],[3.62529,51.58583],[3.62624,51.58583],[3.62746,51.58595],[3.62851,51.58618],[3.63093,51.58685],[3.63122,51.58698],[3.63245,51.58727],[3.63873,51.58901],[3.64078,51.58947],[3.64229,51.58975],[3.64476,51.59006],[3.64723,51.5902],[3.65882,51.59028],[3.65959,51.59032],[3.66069,51.59047],[3.66185,51.59076],[3.66315,51.5913],[3.66418,51.59188],[3.66486,51.59257],[3.66621,51.59337],[3.66692,51.59399],[3.66771,51.59435],[3.66834,51.59445],[3.66949,51.59511],[3.67023,51.59545],[3.67274,51.59626],[3.6748,51.59707],[3.67641,51.59763],[3.67808,51.59809],[3.68061,51.59859],[3.68117,51.59884],[3.68151,51.59912],[3.68162,51.59932],[3.6818,51.60045],[3.68187,51.60051],[3.68205,51.60049],[3.68214,51.60052],[3.68226,51.6009],[3.68217,51.60107],[3.68229,51.60131],[3.68237,51.60185],[3.68372,51.61164],[3.68379,51.61222],[3.68372,51.61238],[3.68386,51.61265],[3.68417,51.61492],[3.68417,51.61543],[3.68408,51.61592],[3.68356,51.61696],[3.68348,51.6174],[3.68355,51.61774],[3.68385,51.6183],[3.68397,51.61875],[3.68426,51.61898],[3.68428,51.61906],[3.68414,51.61916],[3.68343,51.61939],[3.6833,51.6195],[3.68328,51.61964],[3.68372,51.62084],[3.68419,51.62183],[3.68479,51.62278],[3.68486,51.62301],[3.68465,51.62308],[3.6835,51.62304],[3.68195,51.62306],[3.67951,51.62299],[3.67939,51.62293],[3.67953,51.62289],[3.6796,51.62293],[3.67954,51.62296],[3.67951,51.62292],[3.67959,51.62294],[3.67954,51.62299],[3.67839,51.62296],[3.67808,51.623],[3.67621,51.62298],[3.67617,51.62293],[3.67629,51.62291],[3.67637,51.62296],[3.67588,51.62297],[3.67327,51.62287],[3.67298,51.62289],[3.67291,51.62285],[3.67296,51.62282],[3.67316,51.62284],[3.67321,51.62285],[3.67315,51.62289],[3.67202,51.62273],[3.67065,51.62246],[3.66959,51.6222],[3.6693,51.62202],[3.6688,51.62197],[3.66832,51.62181],[3.66963,51.6222],[3.67111,51.62256],[3.67197,51.62272],[3.67325,51.62288],[3.68126,51.62305],[3.68476,51.62304],[3.68501,51.62311],[3.68578,51.62409],[3.68708,51.62551],[3.68827,51.62662],[3.68954,51.62764],[3.69066,51.62844],[3.701,51.63546],[3.7104,51.64146],[3.71079,51.64161],[3.71112,51.64166],[3.71301,51.64153],[3.71333,51.64155],[3.71361,51.64165],[3.71398,51.642],[3.71441,51.64263],[3.7147,51.64287],[3.71867,51.64783],[3.71979,51.64925],[3.72039,51.65016],[3.72187,51.65203],[3.72227,51.6527],[3.72273,51.65378],[3.72288,51.65449],[3.72302,51.65584],[3.72258,51.66351],[3.72227,51.66625],[3.72218,51.6665],[3.72212,51.66652],[3.7219,51.66644],[3.7212,51.66641],[3.71897,51.66646],[3.71744,51.6666],[3.71583,51.66687],[3.71423,51.66721],[3.71416,51.66726],[3.7141,51.66751],[3.71389,51.66764],[3.70996,51.66896],[3.70977,51.66909],[3.7091,51.67003],[3.70871,51.67039],[3.70749,51.67202],[3.7071,51.67233],[3.7069,51.67233],[3.7065,51.67218],[3.70489,51.67146],[3.70471,51.67145],[3.7046,51.67151],[3.70387,51.67246],[3.70375,51.67286],[3.70388,51.67328],[3.70449,51.67383],[3.70364,51.67441],[3.70326,51.67444],[3.70303,51.67452],[3.70183,51.67523],[3.70159,51.67613],[3.70156,51.67679],[3.7014,51.67679],[3.70098,51.67665],[3.70084,51.6767],[3.70024,51.67712],[3.69996,51.67721],[3.69907,51.67705],[3.69804,51.67699],[3.69744,51.67677],[3.69717,51.67672],[3.69666,51.67669],[3.69643,51.67674],[3.69619,51.67693],[3.69554,51.67768],[3.6948,51.67827],[3.69422,51.67859],[3.69387,51.67894],[3.69382,51.67905],[3.69385,51.67986],[3.69378,51.68006],[3.69366,51.68018],[3.69337,51.68024],[3.69246,51.68027],[3.692,51.68039],[3.69107,51.68033],[3.69082,51.68043],[3.6907,51.68059],[3.69078,51.6808],[3.69097,51.68095],[3.69146,51.68114],[3.69196,51.68143],[3.69262,51.68151],[3.69269,51.68155],[3.69217,51.68217],[3.69182,51.68223],[3.69149,51.68242],[3.69095,51.68227],[3.69076,51.68227],[3.69066,51.68232],[3.69064,51.68246],[3.69084,51.68303],[3.69084,51.68341],[3.69095,51.68356],[3.69168,51.68388],[3.69246,51.6839],[3.69322,51.68403],[3.69341,51.68411],[3.69371,51.68441],[3.69422,51.68462],[3.69558,51.68447],[3.69588,51.68449],[3.69661,51.68488],[3.69892,51.68541],[3.69966,51.68562],[3.70033,51.68571],[3.70119,51.6862],[3.70146,51.6863],[3.70199,51.68636],[3.70291,51.68621],[3.70393,51.68592],[3.70488,51.68601],[3.70553,51.68615],[3.70698,51.68627],[3.70821,51.68655],[3.7088,51.68656],[3.70889,51.6865],[3.70885,51.68641],[3.70837,51.68618],[3.70821,51.68596],[3.70836,51.68514],[3.70833,51.68467],[3.70847,51.6846],[3.70908,51.68471],[3.70963,51.6851],[3.71112,51.68516],[3.7119,51.68532],[3.71249,51.68529],[3.71288,51.68533],[3.71329,51.68543],[3.71451,51.68589],[3.71468,51.68592],[3.7164,51.68495],[3.71665,51.68485],[3.717,51.68458],[3.7176,51.68427],[3.71844,51.6841],[3.71967,51.6837],[3.72021,51.6836],[3.72084,51.68333],[3.72331,51.68474],[3.72492,51.68559],[3.72639,51.68681],[3.72795,51.68764],[3.73009,51.68915],[3.73025,51.68934],[3.73068,51.68955],[3.73217,51.69068],[3.73241,51.69073],[3.73303,51.69075],[3.73333,51.69082],[3.73394,51.69136],[3.73516,51.69184],[3.73565,51.69221],[3.73579,51.69239],[3.73666,51.69382],[3.7369,51.6941],[3.73692,51.69421],[3.73674,51.69444],[3.73643,51.69532],[3.73638,51.69574],[3.73612,51.69616],[3.73539,51.69695],[3.73493,51.69726],[3.73446,51.69751],[3.73422,51.69777],[3.73369,51.69892],[3.73362,51.69953],[3.7332,51.70031],[3.73309,51.70068],[3.73264,51.70103],[3.73182,51.70152],[3.73172,51.70168],[3.73159,51.70214],[3.73156,51.70261],[3.73168,51.70317],[3.73174,51.7041],[3.73188,51.70488],[3.73224,51.70562],[3.73203,51.70645],[3.73183,51.70684],[3.73189,51.70712],[3.73094,51.70743],[3.73052,51.7077],[3.72839,51.70866],[3.72736,51.7092],[3.72648,51.7099],[3.72495,51.71084],[3.72341,51.71223],[3.72295,51.71258],[3.72331,51.71304],[3.72329,51.71332],[3.72236,51.71474],[3.72192,51.71566],[3.72139,51.71651],[3.72137,51.71671],[3.72153,51.71682],[3.72291,51.7173],[3.72406,51.71748],[3.72687,51.71825],[3.72761,51.7184],[3.72766,51.71847],[3.7274,51.71892],[3.72752,51.71919],[3.72731,51.71963],[3.72724,51.71998],[3.72688,51.7203],[3.72646,51.72056],[3.72631,51.72072],[3.72627,51.72084],[3.72639,51.72106],[3.72633,51.72122],[3.72549,51.72233],[3.72179,51.72762],[3.72166,51.72773],[3.72144,51.7278],[3.72057,51.72796],[3.71982,51.72798],[3.71921,51.72819],[3.71895,51.72848],[3.71879,51.72894],[3.71882,51.72909],[3.7183,51.72963],[3.71819,51.72996],[3.71796,51.73032],[3.71791,51.73064],[3.71795,51.73035],[3.7181,51.73028],[3.71808,51.73014],[3.71826,51.72978],[3.71833,51.72976],[3.71896,51.73004],[3.72112,51.73067],[3.72284,51.73125],[3.72405,51.73149],[3.72458,51.73155],[3.72588,51.7319],[3.72719,51.73215],[3.72803,51.73239],[3.72928,51.73265],[3.73193,51.7333],[3.73326,51.73372],[3.73416,51.73394],[3.73485,51.73416],[3.73788,51.7349],[3.73809,51.73486],[3.73842,51.73461],[3.73857,51.73456],[3.73969,51.73449],[3.74119,51.7346],[3.7415,51.7345],[3.74203,51.73421],[3.7433,51.7343],[3.74536,51.73493],[3.7454,51.73504],[3.7452,51.73531],[3.74522,51.7354],[3.74558,51.73561],[3.74601,51.73577],[3.74667,51.73593],[3.74746,51.73603],[3.748,51.73619],[3.74884,51.73625],[3.74962,51.73652],[3.75069,51.73698],[3.7512,51.73712],[3.75153,51.73711],[3.75208,51.73692],[3.7534,51.73734],[3.75495,51.7377],[3.75737,51.73839],[3.75872,51.73863],[3.76021,51.73878],[3.76073,51.73888],[3.76192,51.73916],[3.7627,51.7394],[3.76476,51.73983],[3.76529,51.74009],[3.76555,51.74],[3.76578,51.7398],[3.76607,51.73949],[3.76611,51.73931],[3.76626,51.73935],[3.76609,51.73935],[3.76616,51.73929],[3.76647,51.73942],[3.76904,51.73988],[3.77057,51.7402],[3.77176,51.74039],[3.77228,51.74055],[3.7749,51.74067],[3.77502,51.74072],[3.77495,51.7409],[3.77502,51.74094],[3.77655,51.74106],[3.7807,51.74154],[3.7813,51.74155],[3.78213,51.74167],[3.78252,51.74166],[3.78346,51.74185],[3.78365,51.74176],[3.78392,51.74171],[3.78607,51.74192],[3.78707,51.74193],[3.78795,51.74186],[3.78866,51.74175],[3.79246,51.74095],[3.79584,51.74012],[3.79917,51.73971],[3.80424,51.73921],[3.80796,51.73911],[3.81026,51.73897],[3.81102,51.739],[3.81139,51.73911],[3.81363,51.73918],[3.81775,51.73886],[3.81825,51.73891],[3.81987,51.73894],[3.82135,51.73908],[3.82161,51.73904],[3.8221,51.73916],[3.82263,51.73916],[3.82303,51.73924],[3.82327,51.73912],[3.82446,51.7389],[3.8251,51.73883],[3.82569,51.73884],[3.82574,51.73895],[3.82577,51.73881],[3.82612,51.73874],[3.82725,51.73885],[3.82865,51.73886],[3.82874,51.7389],[3.82866,51.73894],[3.82846,51.73887],[3.82718,51.73886],[3.82624,51.73875],[3.82573,51.7388],[3.82576,51.73871],[3.82692,51.73817],[3.82795,51.73793],[3.82841,51.73787],[3.82922,51.73791],[3.83092,51.73811],[3.83167,51.73825],[3.83302,51.73838],[3.83382,51.73874],[3.83399,51.7387],[3.83424,51.73855],[3.83478,51.73854],[3.83647,51.73834],[3.83784,51.7387],[3.83882,51.73876],[3.84125,51.73839],[3.84142,51.73825],[3.84152,51.73824],[3.84279,51.73847],[3.84384,51.73886],[3.84417,51.73891],[3.84629,51.73844],[3.84661,51.73847],[3.85015,51.73714],[3.85049,51.73705],[3.8508,51.73702],[3.85134,51.73712],[3.85205,51.73744],[3.85217,51.73755],[3.8529,51.73777],[3.85338,51.73796],[3.85365,51.73799],[3.8538,51.73794],[3.85379,51.73783],[3.85363,51.73767],[3.85386,51.73786],[3.85411,51.73784],[3.85445,51.73756],[3.85509,51.73546],[3.85541,51.73492],[3.85625,51.73399],[3.85893,51.7322],[3.85914,51.73193],[3.85978,51.73049],[3.86025,51.72966],[3.86028,51.72921],[3.86093,51.72896],[3.8621,51.72798],[3.86298,51.72756],[3.86323,51.72739],[3.86412,51.72627],[3.86481,51.72499],[3.86506,51.7247],[3.86581,51.72418],[3.87228,51.72055],[3.87425,51.71978],[3.87467,51.71955],[3.8751,51.7192],[3.87533,51.71893],[3.87562,51.7184],[3.87934,51.71025],[3.87963,51.71015],[3.88123,51.71048],[3.88263,51.71086],[3.88284,51.71088],[3.88295,51.71083],[3.88463,51.70873],[3.88501,51.70849],[3.88521,51.70828],[3.88759,51.70533],[3.88859,51.70437],[3.88897,51.70389],[3.88941,51.70318],[3.89087,51.70005],[3.8912,51.69952],[3.89155,51.69913],[3.89681,51.69469],[3.90328,51.68994],[3.90379,51.68951],[3.9033,51.68912],[3.90105,51.68837],[3.90046,51.68799],[3.9003,51.68775],[3.89987,51.6867],[3.89988,51.68649],[3.89972,51.68627],[3.89942,51.68531],[3.89923,51.68487],[3.89886,51.68445],[3.89816,51.68403],[3.89803,51.68384],[3.89814,51.68375],[3.89865,51.68135],[3.89877,51.67981],[3.89889,51.67937],[3.8992,51.67895],[3.90179,51.67658],[3.90183,51.67649],[3.90178,51.67642],[3.90099,51.67613],[3.90092,51.67602],[3.90438,51.67214],[3.90508,51.66994],[3.90723,51.66637],[3.90753,51.66606],[3.90835,51.66557],[3.90867,51.66532],[3.91016,51.66342],[3.91251,51.65632],[3.91267,51.65581],[3.91263,51.65563],[3.91336,51.65525],[3.9132,51.65508],[3.91304,51.65473],[3.91302,51.65426],[3.91286,51.6538],[3.91254,51.65343],[3.91213,51.65336],[3.91209,51.65308],[3.91245,51.65295],[3.91286,51.65293],[3.91297,51.65242],[3.91306,51.65237],[3.91518,51.65246],[3.91745,51.65261],[3.91753,51.65256],[3.9176,51.65233],[3.91818,51.6523],[3.91833,51.65217],[3.91845,51.65214],[3.91885,51.65222],[3.91924,51.65239],[3.91935,51.6524],[3.91946,51.65209],[3.9196,51.6511],[3.91973,51.65102],[3.92005,51.65099],[3.92076,51.65068],[3.92203,51.65021],[3.92191,51.64993],[3.922,51.64981],[3.92192,51.6498]]}},{"type":"Feature","properties":{"day":3,"name":"🇳🇱 Zeeland Love Tour ❤️ Jour 3 🚴"},"geometry":{"type":"LineString","coordinates":[[3.93056,51.65268],[3.93139,51.65245],[3.93492,51.65173],[3.93504,51.65174],[3.93515,51.65189],[3.93524,51.65189],[3.93537,51.65177],[3.93539,51.65156],[3.93553,51.65149],[3.93846,51.65098],[3.93945,51.65086],[3.94659,51.65036],[3.95358,51.65017],[3.95533,51.65001],[3.95549,51.65002],[3.95573,51.65045],[3.95667,51.65157],[3.95702,51.65212],[3.95808,51.65503],[3.96084,51.65789],[3.96111,51.6585],[3.96236,51.66021],[3.9634,51.66228],[3.96371,51.66268],[3.96525,51.66396],[3.96635,51.66479],[3.96702,51.66515],[3.96794,51.66544],[3.96826,51.66594],[3.96845,51.66611],[3.96877,51.6662],[3.96982,51.66627],[3.97024,51.66639],[3.9719,51.6672],[3.97302,51.6675],[3.97342,51.66765],[3.97425,51.66807],[3.97462,51.66835],[3.97468,51.66853],[3.97463,51.66873],[3.97409,51.67],[3.97372,51.67064],[3.97244,51.67233],[3.97224,51.6727],[3.97232,51.67286],[3.97277,51.67308],[3.97305,51.67327],[3.97342,51.67364],[3.97365,51.67397],[3.97391,51.6741],[3.97633,51.67424],[3.97903,51.67431],[3.98222,51.67426],[3.98382,51.67411],[3.98466,51.6741],[3.98727,51.67422],[3.98917,51.67441],[3.99325,51.67459],[3.99391,51.67471],[3.99607,51.6754],[3.99683,51.67556],[3.99999,51.67578],[4.00198,51.67584],[4.00221,51.67595],[4.00285,51.67659],[4.00324,51.6767],[4.00502,51.67651],[4.0081,51.67594],[4.00903,51.67592],[4.01045,51.67599],[4.01328,51.67627],[4.01361,51.67634],[4.01511,51.67677],[4.01684,51.67765],[4.0171,51.67771],[4.01749,51.67758],[4.01895,51.67682],[4.01948,51.67641],[4.02022,51.67568],[4.02059,51.67557],[4.02129,51.67551],[4.02195,51.67562],[4.02277,51.67584],[4.02581,51.6769],[4.02762,51.6777],[4.02779,51.67781],[4.02775,51.67784],[4.02766,51.67783],[4.02636,51.67733],[4.02594,51.67731],[4.01533,51.68011],[4.01482,51.68028],[4.01422,51.68057],[4.01015,51.68284],[4.0091,51.68337],[4.00822,51.68364],[4.0062,51.6841],[4.00583,51.68416],[4.00531,51.68411],[4.00514,51.68416],[4.00288,51.68642],[4.00219,51.68887],[4.00217,51.6893],[4.00235,51.68997],[4.00253,51.69033],[4.00336,51.69163],[4.0041,51.69262],[4.00455,51.69313],[4.00677,51.69505],[4.00681,51.69517],[4.00578,51.69593],[4.00216,51.69827],[4.00136,51.69852],[3.99694,51.69971],[3.98684,51.70234],[3.98664,51.70225],[3.9843,51.69976],[3.98419,51.69969],[3.98399,51.69969],[3.97629,51.70217],[3.97576,51.70225],[3.97233,51.70247],[3.97179,51.70257],[3.97106,51.70291],[3.9673,51.70518],[3.96728,51.70535],[3.96857,51.70712],[3.9703,51.70911],[3.97172,51.7104],[3.97341,51.71166],[3.97467,51.71269],[3.97589,51.71397],[3.97647,51.71473],[3.97726,51.71539],[3.97811,51.71591],[3.97823,51.71609],[3.97817,51.71624],[3.97802,51.71636],[3.97362,51.71915],[3.97187,51.72042],[3.97162,51.72052],[3.97121,51.72057],[3.97107,51.72064],[3.97094,51.72092],[3.97056,51.72123],[3.97053,51.72133],[3.97169,51.72367],[3.97169,51.72383],[3.97101,51.72454],[3.97077,51.72492],[3.97066,51.72497],[3.97078,51.7253],[3.97072,51.72543],[3.96847,51.72637],[3.96827,51.72651],[3.96831,51.72671],[3.96902,51.72749],[3.96944,51.7285],[3.97062,51.73072],[3.97128,51.73212],[3.97133,51.73226],[3.97124,51.73239],[3.96924,51.73293],[3.96871,51.73299],[3.94441,51.73284],[3.94427,51.73281],[3.94418,51.73274],[3.94429,51.73235],[3.94421,51.7323],[3.94398,51.73246],[3.94345,51.73299],[3.94307,51.7337],[3.94298,51.73377],[3.94279,51.73379],[3.92921,51.73176],[3.92908,51.73167],[3.9291,51.73159],[3.93004,51.73076],[3.93005,51.73064],[3.92992,51.73053],[3.92348,51.72971],[3.9233,51.72964],[3.92322,51.7295],[3.9218,51.73146],[3.92156,51.73149],[3.92081,51.73128],[3.92053,51.73125],[3.91867,51.73167],[3.91837,51.73169],[3.91647,51.73114],[3.91378,51.73025],[3.91383,51.72985],[3.91364,51.72977],[3.91383,51.72981],[3.91406,51.72954],[3.91498,51.72875],[3.91683,51.72764],[3.91722,51.72737],[3.91734,51.72723],[3.91727,51.72715],[3.91668,51.72688],[3.91589,51.72638],[3.91532,51.72626],[3.91391,51.72586],[3.91342,51.72568],[3.91304,51.72561],[3.91258,51.72545],[3.91259,51.72539],[3.91272,51.72538],[3.91273,51.72551],[3.91235,51.72585],[3.91225,51.72576],[3.91278,51.72563],[3.91275,51.72568],[3.91266,51.72549],[3.91277,51.72531],[3.91257,51.7256],[3.91269,51.72561],[3.91267,51.72565],[3.91271,51.72558],[3.91412,51.72495],[3.91404,51.72491],[3.91413,51.72449],[3.91373,51.72444],[3.91263,51.72568],[3.91281,51.72559],[3.91285,51.72543],[3.91267,51.72559],[3.91297,51.7254],[3.91292,51.72552],[3.91303,51.72546],[3.91292,51.72559],[3.91234,51.72581],[3.91268,51.72566],[3.91243,51.72578],[3.91247,51.72563],[3.91267,51.72546],[3.91277,51.72556],[3.91269,51.72558],[3.91263,51.72544],[3.9124,51.72532],[3.91229,51.72532],[3.91229,51.72528],[3.91251,51.72536],[3.9127,51.72547],[3.91327,51.72563],[3.91328,51.72572],[3.91311,51.72593],[3.91316,51.72599],[3.91482,51.72659],[3.91595,51.72692],[3.91605,51.72701],[3.91604,51.72713],[3.91576,51.72742],[3.91547,51.72754],[3.91506,51.72755],[3.91393,51.7274],[3.9137,51.72742],[3.91346,51.72754],[3.91269,51.72852],[3.91121,51.72964],[3.91121,51.72972],[3.9113,51.72976],[3.91195,51.72979],[3.91217,51.72984],[3.91238,51.72995],[3.91245,51.73009],[3.9122,51.73047],[3.9116,51.73093],[3.91114,51.73139],[3.90943,51.73239],[3.90894,51.7326],[3.90877,51.73263],[3.9086,51.7326],[3.90772,51.73223],[3.90758,51.73226],[3.90702,51.73262],[3.90577,51.73375],[3.90487,51.735],[3.90422,51.73556],[3.90124,51.73855],[3.901,51.73871],[3.89876,51.73976],[3.8986,51.73981],[3.8983,51.73982],[3.89688,51.73964],[3.89625,51.7396],[3.89466,51.73983],[3.89342,51.73995],[3.89313,51.73991],[3.8917,51.73955],[3.891,51.73958],[3.89065,51.73966],[3.89034,51.73995],[3.88994,51.74046],[3.88837,51.74298],[3.88794,51.74346],[3.88764,51.74363],[3.8872,51.74362],[3.88681,51.74344],[3.88635,51.74346],[3.8856,51.74338],[3.88097,51.74259],[3.88056,51.74251],[3.88018,51.74236],[3.87843,51.74202],[3.87732,51.74171],[3.86167,51.73896],[3.85491,51.73765],[3.85457,51.73766],[3.85389,51.73797],[3.85383,51.73796],[3.85385,51.73793],[3.8539,51.73795],[3.85383,51.73799],[3.8534,51.73798],[3.85218,51.73753],[3.8515,51.73717],[3.85094,51.73701],[3.8506,51.73702],[3.85027,51.73709],[3.84642,51.73852],[3.84407,51.73905],[3.84384,51.73903],[3.84305,51.7386],[3.8427,51.73848],[3.84062,51.73805],[3.83993,51.73771],[3.83948,51.73761],[3.83938,51.73771],[3.83954,51.73811],[3.83942,51.73867],[3.83932,51.73872],[3.83895,51.73878],[3.8387,51.73876],[3.83851,51.73879],[3.83782,51.73872],[3.83647,51.73834],[3.83473,51.73857],[3.83392,51.73859],[3.83321,51.73835],[3.83291,51.73829],[3.83097,51.73808],[3.83038,51.73822],[3.82993,51.73802],[3.82882,51.73787],[3.82837,51.73786],[3.82688,51.7382],[3.82633,51.73844],[3.82572,51.73883],[3.82438,51.7389],[3.82335,51.73912],[3.82341,51.73925],[3.82409,51.73995],[3.82436,51.74094],[3.82459,51.7411],[3.82465,51.74182],[3.8256,51.74778],[3.8258,51.74871],[3.82631,51.74984],[3.82683,51.7507],[3.82735,51.75139],[3.82817,51.75229],[3.82921,51.75319],[3.83067,51.7542],[3.83177,51.75482],[3.83347,51.75558],[3.83423,51.75587],[3.83574,51.75634],[3.84505,51.75876],[3.84739,51.75948],[3.84802,51.75972],[3.84911,51.76006],[3.85129,51.76094],[3.85316,51.76179],[3.85441,51.76255],[3.85562,51.76344],[3.85641,51.76411],[3.85724,51.76493],[3.85847,51.76649],[3.86686,51.7799],[3.86706,51.78042],[3.86921,51.78375],[3.86996,51.7846],[3.8701,51.7846],[3.87063,51.78441],[3.87138,51.78431],[3.87172,51.7847],[3.87156,51.78443],[3.87187,51.78485],[3.87214,51.785],[3.87272,51.78517],[3.87335,51.7852],[3.87419,51.78508],[3.87893,51.7838],[3.87943,51.78375],[3.88,51.78378],[3.88049,51.78388],[3.88104,51.78405],[3.88217,51.78448],[3.88372,51.78525],[3.88437,51.78572],[3.88485,51.78627],[3.88553,51.78846],[3.88585,51.79006],[3.88576,51.79069],[3.88538,51.79137],[3.88619,51.7919],[3.88676,51.79255],[3.88716,51.79293],[3.88799,51.79342],[3.88856,51.79365],[3.89257,51.79498],[3.89354,51.79524],[3.89486,51.79552],[3.89582,51.79567],[3.89696,51.79578],[3.90155,51.79596],[3.90163,51.79602],[3.90155,51.79664],[3.90159,51.79694],[3.90202,51.79777],[3.90212,51.79814],[3.90221,51.79824],[3.90274,51.7985],[3.90448,51.79964],[3.9066,51.80059],[3.909,51.80178],[3.90945,51.80193],[3.91034,51.80208],[3.9115,51.8025],[3.91234,51.80273],[3.91288,51.80276],[3.91502,51.80264],[3.9168,51.80263],[3.91949,51.80242],[3.92168,51.80237],[3.92425,51.80208],[3.92765,51.80195],[3.92846,51.80199],[3.92854,51.80208],[3.92831,51.80263],[3.92834,51.80295],[3.92848,51.80312],[3.92904,51.80347],[3.92929,51.80422],[3.92952,51.80444],[3.93003,51.80466],[3.93002,51.80479],[3.93021,51.80475],[3.93084,51.80493],[3.93117,51.8051],[3.93248,51.80555],[3.93339,51.80597],[3.93436,51.80611],[3.93617,51.80624],[3.93693,51.80638],[3.93791,51.80627],[3.93846,51.8063],[3.93952,51.80664],[3.9398,51.80676],[3.94006,51.80694],[3.94002,51.80705],[3.9397,51.80716],[3.93949,51.80732],[3.93819,51.80873],[3.93777,51.80909],[3.93759,51.80915],[3.93753,51.80933],[3.93746,51.80939],[3.93746,51.80934]]}},{"type":"Feature","properties":{"day":4,"name":"🇳🇱 Zeeland Love Tour ❤️ Jour 4 🚴"},"geometry":{"type":"LineString","coordinates":[[3.93749,51.80935],[3.93753,51.8094],[3.93745,51.80949],[3.93771,51.80909],[3.93821,51.80862],[3.93938,51.80731],[3.93974,51.80701],[3.93982,51.80679],[3.94,51.80656],[3.9401,51.80618],[3.94054,51.80549],[3.94118,51.80407],[3.94146,51.8037],[3.94144,51.80361],[3.94125,51.80365],[3.94108,51.80363],[3.93978,51.80334],[3.93864,51.80274],[3.93863,51.80256],[3.94025,51.80071],[3.94038,51.80062],[3.94053,51.8006],[3.94131,51.80073],[3.94218,51.80098],[3.94259,51.80116],[3.9427,51.80116],[3.94273,51.80112],[3.94261,51.80093],[3.94246,51.80082],[3.94114,51.80038],[3.94009,51.80013],[3.93883,51.79998],[3.93866,51.79992],[3.93857,51.79972],[3.93868,51.79913],[3.93875,51.79908],[3.94467,51.80108],[3.94509,51.80133],[3.94579,51.80205],[3.94668,51.80258],[3.94712,51.8032],[3.94925,51.80369],[3.95072,51.80375],[3.95318,51.80422],[3.95713,51.80442],[3.96107,51.80408],[3.96426,51.80386],[3.96877,51.80342],[3.96913,51.80345],[3.9719,51.80408],[3.97304,51.8043],[3.9766,51.8036],[3.97681,51.80366],[3.97697,51.80378],[3.97849,51.80537],[3.97864,51.80547],[3.97885,51.80546],[3.98056,51.80478],[3.98101,51.80475],[3.9856,51.8051],[3.98635,51.80526],[3.98902,51.80603],[3.9893,51.80608],[3.99113,51.8055],[3.99187,51.80516],[3.9926,51.80504],[3.99423,51.80512],[3.99552,51.80543],[3.99575,51.8054],[4.0066,51.80038],[4.00819,51.79949],[4.00837,51.79949],[4.00852,51.79954],[4.0103,51.80075],[4.01042,51.80079],[4.01636,51.79848],[4.01802,51.79708],[4.01836,51.79673],[4.01876,51.79467],[4.01891,51.79436],[4.01935,51.79398],[4.02156,51.79232],[4.02392,51.78996],[4.03209,51.78529],[4.033,51.78448],[4.03341,51.78397],[4.03373,51.78375],[4.03409,51.78367],[4.03833,51.78357],[4.03855,51.78348],[4.03826,51.77764],[4.0385,51.77681],[4.0384,51.77675],[4.03785,51.7767],[4.03625,51.77678],[4.03582,51.77676],[4.03512,51.77649],[4.03447,51.77615],[4.03434,51.77597],[4.03282,51.7721],[4.03282,51.77189],[4.03303,51.77139],[4.03331,51.7711],[4.03549,51.76952],[4.03571,51.76939],[4.03622,51.76937],[4.03648,51.76926],[4.0409,51.76597],[4.0409,51.76589],[4.04068,51.76583],[4.04059,51.76572],[4.04009,51.76386],[4.04012,51.76377],[4.04178,51.76375],[4.04202,51.76371],[4.04471,51.76072],[4.04492,51.76059],[4.04718,51.76056],[4.04737,51.76053],[4.04745,51.76047],[4.04824,51.75888],[4.04867,51.75726],[4.0496,51.75596],[4.05082,51.75444],[4.05153,51.75297],[4.05208,51.7521],[4.05553,51.74703],[4.05658,51.74522],[4.05713,51.74401],[4.05773,51.74235],[4.0584,51.74012],[4.05854,51.73952],[4.05871,51.73816],[4.05908,51.73698],[4.05933,51.73635],[4.05966,51.73609],[4.05984,51.73573],[4.06077,51.73338],[4.06072,51.73189],[4.06018,51.72896],[4.06028,51.72837],[4.06047,51.72825],[4.06289,51.72729],[4.06363,51.72688],[4.06504,51.72598],[4.06635,51.72533],[4.06945,51.72326],[4.07035,51.72256],[4.07081,51.72208],[4.07153,51.72097],[4.07372,51.71722],[4.07485,51.71598],[4.07555,51.71534],[4.07727,51.71422],[4.08008,51.71257],[4.08181,51.71209],[4.08238,51.71188],[4.08471,51.71127],[4.08658,51.71061],[4.08712,51.71037],[4.08715,51.7103],[4.08633,51.70954],[4.08624,51.70934],[4.08625,51.70911],[4.08646,51.70894],[4.08648,51.7086],[4.08665,51.70842],[4.08675,51.70784],[4.0867,51.7084],[4.08657,51.70854],[4.08652,51.70885],[4.08654,51.70901],[4.08662,51.70903],[4.08723,51.70886],[4.08952,51.7077],[4.09036,51.70747],[4.09106,51.70741],[4.10827,51.70831],[4.11062,51.70838],[4.11689,51.70775],[4.12589,51.70671],[4.12965,51.70624],[4.13007,51.70609],[4.13139,51.70585],[4.1319,51.7056],[4.13243,51.70519],[4.1328,51.70462],[4.13336,51.7032],[4.13377,51.70278],[4.13434,51.70247],[4.13586,51.70207],[4.15262,51.69825],[4.15382,51.69787],[4.1548,51.69744],[4.15595,51.69674],[4.15661,51.69621],[4.1572,51.69565],[4.15781,51.6952],[4.16247,51.69001],[4.16392,51.6886],[4.16399,51.68834],[4.16406,51.68833],[4.16409,51.68837],[4.16357,51.68894],[4.1639,51.68863],[4.16397,51.68842],[4.16395,51.68826],[4.16382,51.68806],[4.15961,51.68575],[4.15945,51.68561],[4.15905,51.68503],[4.15767,51.68427],[4.15719,51.6837],[4.1554,51.68233],[4.15504,51.68219],[4.15378,51.68201],[4.15341,51.68187],[4.14967,51.6799],[4.1496,51.67983],[4.14963,51.67975],[4.15002,51.67965],[4.14993,51.67936],[4.14973,51.67911],[4.14926,51.67891],[4.14711,51.67836],[4.14632,51.67835],[4.14488,51.6786],[4.14399,51.67861],[4.1406,51.67828],[4.13851,51.67771],[4.13082,51.67693],[4.13022,51.67697],[4.12925,51.67717],[4.1288,51.67721],[4.12444,51.67693],[4.1244,51.67699],[4.12565,51.67707],[4.12571,51.6772],[4.12546,51.67738],[4.12539,51.67763],[4.12509,51.6775],[4.12454,51.67744],[4.12453,51.67725],[4.1241,51.67722],[4.12407,51.67718],[4.1256,51.67728],[4.12572,51.67722],[4.12577,51.67706],[4.12566,51.67701],[4.12053,51.67667],[4.12033,51.67669],[4.11994,51.67685],[4.11935,51.67681],[4.11416,51.67645],[4.11334,51.67634],[4.11211,51.67609],[4.10816,51.67507],[4.10741,51.67481],[4.1067,51.6745],[4.10215,51.6731],[4.10174,51.67264],[4.09871,51.67109],[4.09431,51.66817],[4.09403,51.668],[4.09385,51.66796],[4.09385,51.66788],[4.09405,51.66774],[4.09401,51.66768],[4.09274,51.66679],[4.09245,51.66669],[4.09181,51.66635],[4.09147,51.66641],[4.08887,51.66724],[4.08807,51.66744],[4.08633,51.66797],[4.08137,51.6697],[4.07955,51.67013],[4.07977,51.67045],[4.07978,51.67068],[4.07968,51.67073],[4.07761,51.67154],[4.0763,51.67182],[4.07258,51.67331],[4.06962,51.67465],[4.0657,51.67631],[4.0646,51.67669],[4.0644,51.67711],[4.06413,51.67728],[4.06381,51.67731],[4.06322,51.67712],[4.06299,51.6771],[4.059,51.67832],[4.05611,51.67884],[4.05537,51.67887],[4.05371,51.68039],[4.05312,51.68081],[4.04821,51.68244],[4.04791,51.6824],[4.04137,51.6801],[4.03605,51.67857],[4.03541,51.67854],[4.03373,51.67864],[4.03361,51.67868],[4.03343,51.67865],[4.03137,51.67878],[4.0307,51.67872],[4.02798,51.67794],[4.02766,51.67774],[4.02602,51.677],[4.02281,51.67588],[4.02139,51.67553],[4.02106,51.67553],[4.02058,51.6756],[4.02014,51.67575],[4.02018,51.67567],[4.0202,51.67574],[4.01972,51.67621],[4.01898,51.67683],[4.01727,51.67767],[4.01703,51.67772],[4.01668,51.67761],[4.01506,51.67679],[4.01377,51.6764],[4.01316,51.67628],[4.01175,51.67616],[4.01045,51.67599],[4.00911,51.67593],[4.0081,51.67594],[4.00484,51.67654],[4.0032,51.6767],[4.00279,51.6766],[4.00219,51.67597],[4.00195,51.67585],[4.00006,51.6758],[3.99672,51.67555],[3.99614,51.67542],[3.9939,51.67472],[3.9933,51.67461],[3.99125,51.67448],[3.98887,51.6744],[3.98645,51.67418],[3.98457,51.6741],[3.9838,51.67411],[3.98253,51.67425],[3.97938,51.67429],[3.97621,51.67424],[3.97392,51.6741],[3.97365,51.67399],[3.97302,51.67329],[3.9727,51.67305],[3.97231,51.67287],[3.9722,51.67271],[3.97252,51.67215],[3.97341,51.67105],[3.97386,51.67038],[3.97427,51.66958],[3.97459,51.66879],[3.97466,51.6685],[3.97462,51.66833],[3.97446,51.6682],[3.97335,51.66763],[3.97293,51.66748],[3.97189,51.66721],[3.97011,51.66635],[3.96935,51.66621],[3.96861,51.66617],[3.9684,51.66611],[3.9682,51.66593],[3.96788,51.66542],[3.96707,51.66517],[3.96645,51.66487],[3.96567,51.66429],[3.96373,51.6627],[3.96337,51.66224],[3.96228,51.66006],[3.96108,51.65847],[3.96083,51.65789],[3.95805,51.65502],[3.9579,51.65476],[3.95704,51.65215],[3.95674,51.65165],[3.95542,51.65002],[3.95373,51.65017],[3.94609,51.65038],[3.94327,51.65062],[3.94149,51.65069],[3.939,51.65091],[3.93547,51.65151],[3.93537,51.65156],[3.93533,51.65182],[3.9352,51.65191],[3.93513,51.6519],[3.93505,51.65178],[3.93492,51.65175],[3.93302,51.65211],[3.9293,51.65294],[3.92658,51.65368],[3.92648,51.65365],[3.92618,51.65326],[3.92364,51.6525],[3.92336,51.65256],[3.92233,51.65232],[3.92191,51.65228],[3.92056,51.65242],[3.92043,51.6524],[3.92033,51.65229],[3.92026,51.65174],[3.92004,51.65103],[3.91984,51.65101],[3.91961,51.65105]]}},{"type":"Feature","properties":{"day":5,"name":"🇳🇱 Zeeland Love Tour ❤️ Jour 5 🚴"},"geometry":{"type":"LineString","coordinates":[[3.91973,51.65096],[3.91997,51.65104],[3.92008,51.65115],[3.92026,51.65169],[3.92002,51.651],[3.92332,51.64971],[3.92358,51.64965],[3.92411,51.64968],[3.92445,51.64964],[3.92451,51.64953],[3.92434,51.64943],[3.92427,51.64884],[3.92406,51.64883],[3.92382,51.64874],[3.92404,51.64883],[3.92421,51.6488],[3.92607,51.64803],[3.926,51.64783],[3.92577,51.64761],[3.92611,51.64742],[3.92648,51.64707],[3.9266,51.64617],[3.92658,51.64598],[3.92635,51.64558],[3.92606,51.64538],[3.9259,51.64509],[3.92577,51.64452],[3.92563,51.64432],[3.92508,51.64199],[3.92497,51.64171],[3.92477,51.64158],[3.92485,51.64135],[3.92455,51.6405],[3.92434,51.64036],[3.92442,51.64015],[3.9242,51.63955],[3.92402,51.63927],[3.92379,51.63912],[3.92352,51.63878],[3.92222,51.6376],[3.92225,51.63741],[3.92157,51.63538],[3.92124,51.63354],[3.92007,51.63155],[3.91976,51.63138],[3.91762,51.63084],[3.91787,51.63087],[3.91785,51.6309],[3.91776,51.63085],[3.91689,51.63068],[3.91642,51.63053],[3.9155,51.63014],[3.91507,51.62985],[3.8712,51.5975],[3.86356,51.59193],[3.8556,51.58575],[3.85498,51.58531],[3.85401,51.58478],[3.85341,51.58402],[3.85249,51.58302],[3.8511,51.58125],[3.85031,51.58002],[3.84976,51.57884],[3.84931,51.5774],[3.84911,51.57606],[3.84916,51.57474],[3.84946,51.57351],[3.84939,51.57323],[3.8466,51.57105],[3.84617,51.57081],[3.84532,51.57053],[3.84521,51.57043],[3.84526,51.57032],[3.84556,51.57006],[3.84606,51.5698],[3.8523,51.56752],[3.85257,51.5674],[3.85276,51.5672],[3.85603,51.56087],[3.85776,51.55836],[3.85797,51.5563],[3.85807,51.55593],[3.85932,51.55427],[3.86011,51.55374],[3.86036,51.55346],[3.86414,51.54636],[3.864,51.5464],[3.86373,51.54632],[3.86341,51.54595],[3.86252,51.54519],[3.86226,51.54502],[3.86193,51.54495],[3.86189,51.54484],[3.86199,51.5445],[3.86214,51.54439],[3.86226,51.54447],[3.86256,51.54455],[3.86397,51.54465],[3.86462,51.54484],[3.86468,51.54483],[3.86465,51.54474],[3.86487,51.54458],[3.86513,51.54355],[3.86503,51.54333],[3.86515,51.54318],[3.86721,51.53823],[3.86826,51.53542],[3.86836,51.53414],[3.86825,51.53127],[3.8682,51.53099],[3.868,51.53071],[3.86805,51.53043],[3.87004,51.5303],[3.88606,51.53008],[3.88657,51.53],[3.88735,51.52976],[3.88748,51.52978],[3.88793,51.52999],[3.8883,51.53004],[3.89319,51.52996],[3.8934,51.52989],[3.89375,51.52986],[3.89935,51.52977],[3.89966,51.52967],[3.89967,51.52956],[3.89756,51.52691],[3.89757,51.52666],[3.8975,51.52649],[3.89756,51.52643],[3.89904,51.52609],[3.9037,51.52466],[3.90479,51.52424],[3.90655,51.5237],[3.90712,51.52366],[3.90829,51.52327],[3.90876,51.52297],[3.9093,51.52242],[3.91149,51.51995],[3.91155,51.51983],[3.91147,51.51959],[3.91186,51.5195],[3.91211,51.51934],[3.91245,51.51886],[3.91289,51.51843],[3.9131,51.51801],[3.91353,51.51782],[3.91378,51.5179],[3.91441,51.5179],[3.91476,51.51769],[3.91528,51.51727],[3.91547,51.51723],[3.91591,51.51725],[3.91601,51.51722],[3.91629,51.51537],[3.91624,51.51527],[3.9161,51.51525],[3.91631,51.51521],[3.91651,51.51366],[3.91651,51.51341],[3.91636,51.51307],[3.91664,51.51289],[3.91676,51.51219],[3.9177,51.51023],[3.91874,51.50864],[3.91901,51.50738],[3.91986,51.50499],[3.92002,51.5046],[3.9204,51.50418],[3.92031,51.50406],[3.92007,51.50393],[3.91794,51.50335],[3.91747,51.50314],[3.91734,51.50303],[3.91721,51.50283],[3.9171,51.50237],[3.9165,51.50181],[3.91596,51.50103],[3.91607,51.50052],[3.91562,51.49902],[3.91473,51.49913],[3.91201,51.49872],[3.91002,51.49809],[3.90943,51.49785],[3.90852,51.49736],[3.90804,51.49741],[3.90785,51.49704],[3.90751,51.49667],[3.90596,51.49512],[3.90564,51.49489],[3.90458,51.49536],[3.90213,51.49612],[3.89987,51.49669],[3.89914,51.49676],[3.89764,51.49652],[3.89372,51.49628],[3.89136,51.49607],[3.89032,51.49591],[3.88975,51.49587],[3.88973,51.49566],[3.88952,51.49553],[3.88887,51.49556],[3.8884,51.49552],[3.88688,51.49524],[3.88558,51.49489],[3.88485,51.49464],[3.8841,51.49432],[3.88312,51.49379],[3.8827,51.49349],[3.88158,51.49286],[3.88064,51.4925],[3.87987,51.49234],[3.87882,51.49231],[3.87741,51.49234],[3.877,51.49224],[3.87678,51.49223],[3.87644,51.4924],[3.87593,51.49243],[3.87538,51.49233],[3.87417,51.4924],[3.87319,51.49231],[3.87267,51.49236],[3.87168,51.49228],[3.87068,51.49227],[3.86927,51.49247],[3.86791,51.49243],[3.86707,51.49263],[3.86662,51.49258],[3.86626,51.49247],[3.86505,51.49243],[3.86381,51.49229],[3.85959,51.49242],[3.85951,51.49237],[3.85913,51.49163],[3.85824,51.4904],[3.85723,51.48911],[3.85694,51.48885],[3.85658,51.48829],[3.85618,51.48682],[3.85596,51.48666],[3.85591,51.48655],[3.8554,51.48447],[3.85483,51.48267],[3.8543,51.48175],[3.85384,51.48123],[3.85337,51.48082],[3.85266,51.4803],[3.85252,51.48027],[3.85182,51.48067],[3.85164,51.4807],[3.85128,51.48088],[3.84976,51.48179],[3.84958,51.48178],[3.84463,51.47839],[3.84129,51.47628],[3.84055,51.47596],[3.83877,51.47561],[3.83819,51.47539],[3.83775,51.47507],[3.83736,51.47436],[3.83646,51.47349],[3.83592,51.47316],[3.8349,51.47269],[3.83476,51.47269],[3.83441,51.47293],[3.83375,51.47315],[3.83281,51.47422],[3.8315,51.4751],[3.83086,51.47547],[3.83072,51.4755],[3.82843,51.47445],[3.82816,51.47442],[3.82725,51.47448],[3.8269,51.47442],[3.8265,51.47429],[3.82518,51.47371],[3.82432,51.47321],[3.82386,51.47314],[3.82173,51.47302],[3.82149,51.47293],[3.82088,51.47289],[3.82053,51.47283],[3.82021,51.47266],[3.81961,51.4722],[3.81893,51.47139],[3.81872,51.47123],[3.81782,51.47162],[3.81698,51.47214],[3.81686,51.47251],[3.81701,51.47268],[3.81728,51.47284],[3.8172,51.47292],[3.81723,51.47295],[3.81727,51.47281],[3.81692,51.47259],[3.81675,51.4725],[3.81648,51.4725],[3.81405,51.47346],[3.8125,51.47423],[3.81092,51.47492],[3.81004,51.47524],[3.8096,51.47535],[3.80931,51.4751],[3.80889,51.47509],[3.80904,51.47483],[3.80897,51.47466],[3.80827,51.47398],[3.80407,51.46937],[3.80355,51.46887],[3.80304,51.46846],[3.80251,51.46812],[3.80134,51.4676],[3.79998,51.4672],[3.79789,51.46668],[3.79785,51.46655],[3.79775,51.46649],[3.79422,51.46562],[3.79397,51.46551],[3.79392,51.46562],[3.79379,51.46563],[3.79214,51.46522],[3.79124,51.46507],[3.775,51.46415],[3.77492,51.4641],[3.77529,51.46126],[3.7714,51.46106],[3.77072,51.46113],[3.77008,51.4613],[3.76916,51.46192],[3.76858,51.46248],[3.76792,51.46296],[3.76661,51.46381],[3.76497,51.46476],[3.76485,51.46488],[3.76475,51.4651],[3.76465,51.46513],[3.76428,51.46509],[3.76387,51.46532],[3.76378,51.46554],[3.76325,51.4656],[3.76248,51.46596],[3.76213,51.46619],[3.76177,51.46654],[3.76093,51.46773],[3.76077,51.46784],[3.76039,51.46798],[3.76005,51.46797],[3.75445,51.46652],[3.75425,51.46649],[3.75411,51.46666],[3.7543,51.46648],[3.75406,51.4663],[3.75349,51.46627],[3.74625,51.46442],[3.74605,51.4645],[3.74577,51.46496],[3.7448,51.46735],[3.74428,51.46817],[3.74386,51.46906],[3.74366,51.46921],[3.74033,51.47071],[3.74007,51.47091],[3.74018,51.47116],[3.74011,51.47125],[3.73321,51.47109],[3.73237,51.47102],[3.73194,51.47105],[3.72895,51.47096],[3.72872,51.47101],[3.72847,51.47116],[3.72714,51.47267],[3.72698,51.473],[3.72677,51.47375],[3.72637,51.47425],[3.72591,51.47462],[3.72502,51.47509],[3.72477,51.47527],[3.72363,51.47637],[3.72199,51.47771],[3.7202,51.47885],[3.71856,51.47969],[3.71655,51.48051],[3.71426,51.48127],[3.71368,51.48154],[3.71324,51.48187],[3.71299,51.48214],[3.71278,51.4825],[3.71252,51.48349],[3.71215,51.48448],[3.71216,51.48463],[3.71042,51.48986],[3.70948,51.48993],[3.70228,51.49014],[3.69883,51.4902],[3.69735,51.49034],[3.69681,51.49034],[3.69589,51.49025],[3.6956,51.49035],[3.69405,51.49204],[3.69386,51.49222],[3.69367,51.49229],[3.69076,51.49237],[3.68486,51.49241],[3.68449,51.49245],[3.68344,51.49304],[3.6832,51.49332],[3.68274,51.49351],[3.68107,51.49444],[3.67853,51.49596],[3.67849,51.49607],[3.67855,51.49616],[3.6803,51.49726],[3.68046,51.49746],[3.68047,51.4977],[3.68037,51.49793],[3.67943,51.49854],[3.67906,51.49868],[3.67871,51.49869],[3.67674,51.49841],[3.67659,51.49846],[3.67638,51.49866],[3.67618,51.49901],[3.6761,51.49906],[3.67587,51.49909],[3.67455,51.49899],[3.6734,51.49899],[3.67317,51.49907],[3.67301,51.49942],[3.67291,51.49951],[3.67228,51.49951],[3.67162,51.49946],[3.67094,51.49959],[3.67016,51.49999],[3.66984,51.50042],[3.66968,51.50046],[3.66933,51.50041],[3.66928,51.50046],[3.66913,51.50073],[3.66934,51.50084],[3.66922,51.50092],[3.66925,51.50101],[3.66903,51.50151],[3.66905,51.50206],[3.66899,51.50229],[3.66889,51.50241],[3.66864,51.50252],[3.66633,51.50302],[3.66597,51.50317],[3.66559,51.50326],[3.66451,51.50391],[3.66384,51.50415],[3.66328,51.50422],[3.66123,51.50435],[3.659,51.50428],[3.65636,51.50466],[3.65593,51.50464],[3.65465,51.50413],[3.64962,51.50174],[3.64927,51.50149],[3.6492,51.50138],[3.64922,51.50113],[3.64937,51.50067],[3.64916,51.50055],[3.64735,51.49988],[3.64207,51.4994],[3.64119,51.49936],[3.64074,51.4994],[3.64037,51.4995],[3.63928,51.49995],[3.63895,51.50012],[3.63876,51.50029],[3.63849,51.50033],[3.63832,51.50026],[3.63712,51.49952],[3.63654,51.49927],[3.63611,51.49915],[3.63517,51.49899],[3.62925,51.49846],[3.62738,51.49815],[3.62598,51.49785],[3.62355,51.49712],[3.62303,51.49704],[3.62032,51.49606],[3.61946,51.49603],[3.61807,51.49555],[3.61792,51.49559],[3.61686,51.49682],[3.61611,51.49733],[3.616,51.49733],[3.61551,51.49707],[3.61528,51.49717],[3.61464,51.4982],[3.61437,51.49838],[3.61424,51.4987],[3.61444,51.49882],[3.61425,51.4993],[3.61466,51.49946],[3.61524,51.49951],[3.61541,51.4996]]}},{"type":"Feature","properties":{"day":6,"name":"🇳🇱 Zeeland Love Tour ❤️ Jour 6 🚴"},"geometry":{"type":"LineString","coordinates":[[3.61668,51.49994],[3.61665,51.49985],[3.6164,51.49973],[3.6162,51.49955],[3.61579,51.499],[3.61511,51.49851],[3.61459,51.49832],[3.614,51.49823],[3.61393,51.49818],[3.61404,51.49725],[3.61434,51.49684],[3.61423,51.49672],[3.61426,51.49643],[3.61343,51.4962],[3.61261,51.49613],[3.61255,51.49586],[3.61244,51.49577],[3.61244,51.49561],[3.61222,51.49529],[3.61246,51.49492],[3.61266,51.49483],[3.61266,51.49461],[3.61286,51.49448],[3.61288,51.49442],[3.61263,51.49423],[3.61052,51.4932],[3.60944,51.49247],[3.60865,51.49185],[3.6079,51.49116],[3.60724,51.49041],[3.60629,51.489],[3.60059,51.47804],[3.60003,51.47711],[3.59974,51.47643],[3.59703,51.47123],[3.59402,51.46553],[3.59367,51.46501],[3.59337,51.4643],[3.59138,51.46059],[3.58832,51.45462],[3.58747,51.45304],[3.58713,51.45262],[3.58705,51.45245],[3.58706,51.45224],[3.58652,51.45122],[3.58624,51.45072],[3.58565,51.45016],[3.58543,51.44974],[3.58555,51.4496],[3.58551,51.44951],[3.58557,51.44947],[3.58636,51.44934],[3.58683,51.44917],[3.58751,51.44903],[3.5904,51.4485],[3.5925,51.44805],[3.59309,51.44791],[3.59342,51.44777],[3.59373,51.44754],[3.59394,51.44718],[3.59461,51.44389],[3.595,51.44365],[3.5952,51.4436],[3.5955,51.44358],[3.59642,51.44369],[3.59669,51.44385],[3.59673,51.44404],[3.59685,51.44401],[3.59703,51.44403]]}}]}